[
    {
      "id": 4179,
      "postalCode": "14648",
      "city": "TULLINGE"
    },
    {
      "id": 4180,
      "postalCode": "14650",
      "city": "TULLINGE"
    },
    {
      "id": 4181,
      "postalCode": "14650",
      "city": "TULLINGE"
    },
    {
      "id": 4182,
      "postalCode": "14650",
      "city": "TULLINGE"
    },
    {
      "id": 4183,
      "postalCode": "14650",
      "city": "TULLINGE"
    },
    {
      "id": 4184,
      "postalCode": "14650",
      "city": "TULLINGE"
    },
    {
      "id": 4185,
      "postalCode": "14650",
      "city": "TULLINGE"
    },
    {
      "id": 4186,
      "postalCode": "14650",
      "city": "TULLINGE"
    },
    {
      "id": 4187,
      "postalCode": "14650",
      "city": "TULLINGE"
    },
    {
      "id": 4188,
      "postalCode": "14650",
      "city": "TULLINGE"
    },
    {
      "id": 4190,
      "postalCode": "14653",
      "city": "TULLINGE"
    },
    {
      "id": 4191,
      "postalCode": "14653",
      "city": "TULLINGE"
    },
    {
      "id": 4192,
      "postalCode": "14653",
      "city": "TULLINGE"
    },
    {
      "id": 4193,
      "postalCode": "14653",
      "city": "TULLINGE"
    },
    {
      "id": 4194,
      "postalCode": "14653",
      "city": "TULLINGE"
    },
    {
      "id": 4195,
      "postalCode": "14653",
      "city": "TULLINGE"
    },
    {
      "id": 4196,
      "postalCode": "14654",
      "city": "TULLINGE"
    },
    {
      "id": 4197,
      "postalCode": "14654",
      "city": "TULLINGE"
    },
    {
      "id": 4198,
      "postalCode": "14654",
      "city": "TULLINGE"
    },
    {
      "id": 4199,
      "postalCode": "14654",
      "city": "TULLINGE"
    },
    {
      "id": 4200,
      "postalCode": "14654",
      "city": "TULLINGE"
    },
    {
      "id": 4201,
      "postalCode": "14654",
      "city": "TULLINGE"
    },
    {
      "id": 4202,
      "postalCode": "14654",
      "city": "TULLINGE"
    },
    {
      "id": 4203,
      "postalCode": "14652",
      "city": "TULLINGE"
    },
    {
      "id": 4204,
      "postalCode": "14654",
      "city": "TULLINGE"
    },
    {
      "id": 4205,
      "postalCode": "14638",
      "city": "TULLINGE"
    },
    {
      "id": 4207,
      "postalCode": "14650",
      "city": "TULLINGE"
    },
    {
      "id": 4208,
      "postalCode": "14650",
      "city": "TULLINGE"
    },
    {
      "id": 4209,
      "postalCode": "14654",
      "city": "TULLINGE"
    },
    {
      "id": 4210,
      "postalCode": "14654",
      "city": "TULLINGE"
    },
    {
      "id": 4211,
      "postalCode": "14654",
      "city": "TULLINGE"
    },
    {
      "id": 4212,
      "postalCode": "14654",
      "city": "TULLINGE"
    },
    {
      "id": 4213,
      "postalCode": "14653",
      "city": "TULLINGE"
    },
    {
      "id": 4214,
      "postalCode": "14653",
      "city": "TULLINGE"
    },
    {
      "id": 4215,
      "postalCode": "14653",
      "city": "TULLINGE"
    },
    {
      "id": 4216,
      "postalCode": "14653",
      "city": "TULLINGE"
    },
    {
      "id": 4217,
      "postalCode": "14653",
      "city": "TULLINGE"
    },
    {
      "id": 4218,
      "postalCode": "14653",
      "city": "TULLINGE"
    },
    {
      "id": 4219,
      "postalCode": "14653",
      "city": "TULLINGE"
    },
    {
      "id": 4220,
      "postalCode": "14653",
      "city": "TULLINGE"
    },
    {
      "id": 4221,
      "postalCode": "14653",
      "city": "TULLINGE"
    },
    {
      "id": 4222,
      "postalCode": "14654",
      "city": "TULLINGE"
    },
    {
      "id": 4223,
      "postalCode": "14654",
      "city": "TULLINGE"
    },
    {
      "id": 4224,
      "postalCode": "14654",
      "city": "TULLINGE"
    },
    {
      "id": 4225,
      "postalCode": "14654",
      "city": "TULLINGE"
    },
    {
      "id": 4226,
      "postalCode": "14654",
      "city": "TULLINGE"
    },
    {
      "id": 4227,
      "postalCode": "14654",
      "city": "TULLINGE"
    },
    {
      "id": 4228,
      "postalCode": "14654",
      "city": "TULLINGE"
    },
    {
      "id": 4229,
      "postalCode": "14654",
      "city": "TULLINGE"
    },
    {
      "id": 4230,
      "postalCode": "14654",
      "city": "TULLINGE"
    },
    {
      "id": 4231,
      "postalCode": "14654",
      "city": "TULLINGE"
    },
    {
      "id": 4232,
      "postalCode": "14654",
      "city": "TULLINGE"
    },
    {
      "id": 4233,
      "postalCode": "14652",
      "city": "TULLINGE"
    },
    {
      "id": 4234,
      "postalCode": "14652",
      "city": "TULLINGE"
    },
    {
      "id": 4235,
      "postalCode": "14652",
      "city": "TULLINGE"
    },
    {
      "id": 4236,
      "postalCode": "14652",
      "city": "TULLINGE"
    },
    {
      "id": 4237,
      "postalCode": "14652",
      "city": "TULLINGE"
    },
    {
      "id": 4238,
      "postalCode": "14652",
      "city": "TULLINGE"
    },
    {
      "id": 4239,
      "postalCode": "14652",
      "city": "TULLINGE"
    },
    {
      "id": 4240,
      "postalCode": "14652",
      "city": "TULLINGE"
    },
    {
      "id": 4241,
      "postalCode": "14652",
      "city": "TULLINGE"
    },
    {
      "id": 4242,
      "postalCode": "14652",
      "city": "TULLINGE"
    },
    {
      "id": 4243,
      "postalCode": "14652",
      "city": "TULLINGE"
    },
    {
      "id": 4244,
      "postalCode": "14652",
      "city": "TULLINGE"
    },
    {
      "id": 4245,
      "postalCode": "14652",
      "city": "TULLINGE"
    },
    {
      "id": 4246,
      "postalCode": "14652",
      "city": "TULLINGE"
    },
    {
      "id": 4247,
      "postalCode": "14652",
      "city": "TULLINGE"
    },
    {
      "id": 4248,
      "postalCode": "14652",
      "city": "TULLINGE"
    },
    {
      "id": 4249,
      "postalCode": "14652",
      "city": "TULLINGE"
    },
    {
      "id": 4250,
      "postalCode": "14652",
      "city": "TULLINGE"
    },
    {
      "id": 4251,
      "postalCode": "14652",
      "city": "TULLINGE"
    },
    {
      "id": 4252,
      "postalCode": "14652",
      "city": "TULLINGE"
    },
    {
      "id": 4253,
      "postalCode": "14652",
      "city": "TULLINGE"
    },
    {
      "id": 4254,
      "postalCode": "14652",
      "city": "TULLINGE"
    },
    {
      "id": 4255,
      "postalCode": "14652",
      "city": "TULLINGE"
    },
    {
      "id": 4256,
      "postalCode": "14652",
      "city": "TULLINGE"
    },
    {
      "id": 4257,
      "postalCode": "14652",
      "city": "TULLINGE"
    },
    {
      "id": 4258,
      "postalCode": "14652",
      "city": "TULLINGE"
    },
    {
      "id": 4259,
      "postalCode": "14652",
      "city": "TULLINGE"
    },
    {
      "id": 4260,
      "postalCode": "14652",
      "city": "TULLINGE"
    },
    {
      "id": 4261,
      "postalCode": "14652",
      "city": "TULLINGE"
    },
    {
      "id": 4262,
      "postalCode": "14652",
      "city": "TULLINGE"
    },
    {
      "id": 4263,
      "postalCode": "14652",
      "city": "TULLINGE"
    },
    {
      "id": 4264,
      "postalCode": "14652",
      "city": "TULLINGE"
    },
    {
      "id": 4265,
      "postalCode": "14652",
      "city": "TULLINGE"
    },
    {
      "id": 4266,
      "postalCode": "14652",
      "city": "TULLINGE"
    },
    {
      "id": 4267,
      "postalCode": "14652",
      "city": "TULLINGE"
    },
    {
      "id": 4268,
      "postalCode": "14652",
      "city": "TULLINGE"
    },
    {
      "id": 4269,
      "postalCode": "14652",
      "city": "TULLINGE"
    },
    {
      "id": 4270,
      "postalCode": "14652",
      "city": "TULLINGE"
    },
    {
      "id": 4271,
      "postalCode": "14652",
      "city": "TULLINGE"
    },
    {
      "id": 4272,
      "postalCode": "14652",
      "city": "TULLINGE"
    },
    {
      "id": 4273,
      "postalCode": "14652",
      "city": "TULLINGE"
    },
    {
      "id": 4274,
      "postalCode": "14652",
      "city": "TULLINGE"
    },
    {
      "id": 4275,
      "postalCode": "14650",
      "city": "TULLINGE"
    },
    {
      "id": 4276,
      "postalCode": "14650",
      "city": "TULLINGE"
    },
    {
      "id": 4277,
      "postalCode": "14640",
      "city": "TULLINGE"
    },
    {
      "id": 4278,
      "postalCode": "14640",
      "city": "TULLINGE"
    },
    {
      "id": 4279,
      "postalCode": "14640",
      "city": "TULLINGE"
    },
    {
      "id": 4280,
      "postalCode": "14640",
      "city": "TULLINGE"
    },
    {
      "id": 4281,
      "postalCode": "14640",
      "city": "TULLINGE"
    },
    {
      "id": 4282,
      "postalCode": "14640",
      "city": "TULLINGE"
    },
    {
      "id": 4283,
      "postalCode": "14640",
      "city": "TULLINGE"
    },
    {
      "id": 4284,
      "postalCode": "14640",
      "city": "TULLINGE"
    },
    {
      "id": 4285,
      "postalCode": "14640",
      "city": "TULLINGE"
    },
    {
      "id": 4286,
      "postalCode": "14640",
      "city": "TULLINGE"
    },
    {
      "id": 4287,
      "postalCode": "14640",
      "city": "TULLINGE"
    },
    {
      "id": 4288,
      "postalCode": "14640",
      "city": "TULLINGE"
    },
    {
      "id": 4289,
      "postalCode": "14640",
      "city": "TULLINGE"
    },
    {
      "id": 4290,
      "postalCode": "14640",
      "city": "TULLINGE"
    },
    {
      "id": 4291,
      "postalCode": "14640",
      "city": "TULLINGE"
    },
    {
      "id": 4292,
      "postalCode": "14640",
      "city": "TULLINGE"
    },
    {
      "id": 4293,
      "postalCode": "14648",
      "city": "TULLINGE"
    },
    {
      "id": 4294,
      "postalCode": "14648",
      "city": "TULLINGE"
    },
    {
      "id": 4295,
      "postalCode": "14648",
      "city": "TULLINGE"
    },
    {
      "id": 4296,
      "postalCode": "14648",
      "city": "TULLINGE"
    },
    {
      "id": 4297,
      "postalCode": "14648",
      "city": "TULLINGE"
    },
    {
      "id": 4298,
      "postalCode": "14648",
      "city": "TULLINGE"
    },
    {
      "id": 4299,
      "postalCode": "14648",
      "city": "TULLINGE"
    },
    {
      "id": 4300,
      "postalCode": "14648",
      "city": "TULLINGE"
    },
    {
      "id": 4301,
      "postalCode": "14648",
      "city": "TULLINGE"
    },
    {
      "id": 4302,
      "postalCode": "14648",
      "city": "TULLINGE"
    },
    {
      "id": 4303,
      "postalCode": "14648",
      "city": "TULLINGE"
    },
    {
      "id": 4304,
      "postalCode": "14652",
      "city": "TULLINGE"
    },
    {
      "id": 4305,
      "postalCode": "14640",
      "city": "TULLINGE"
    },
    {
      "id": 4306,
      "postalCode": "14640",
      "city": "TULLINGE"
    },
    {
      "id": 4307,
      "postalCode": "14640",
      "city": "TULLINGE"
    },
    {
      "id": 4308,
      "postalCode": "14640",
      "city": "TULLINGE"
    },
    {
      "id": 4309,
      "postalCode": "14640",
      "city": "TULLINGE"
    },
    {
      "id": 4310,
      "postalCode": "14640",
      "city": "TULLINGE"
    },
    {
      "id": 4311,
      "postalCode": "14640",
      "city": "TULLINGE"
    },
    {
      "id": 4312,
      "postalCode": "14640",
      "city": "TULLINGE"
    },
    {
      "id": 4313,
      "postalCode": "14650",
      "city": "TULLINGE"
    },
    {
      "id": 4314,
      "postalCode": "14650",
      "city": "TULLINGE"
    },
    {
      "id": 4315,
      "postalCode": "14650",
      "city": "TULLINGE"
    },
    {
      "id": 4316,
      "postalCode": "14650",
      "city": "TULLINGE"
    },
    {
      "id": 4317,
      "postalCode": "14654",
      "city": "TULLINGE"
    },
    {
      "id": 4318,
      "postalCode": "14654",
      "city": "TULLINGE"
    },
    {
      "id": 4319,
      "postalCode": "14654",
      "city": "TULLINGE"
    },
    {
      "id": 4320,
      "postalCode": "14654",
      "city": "TULLINGE"
    },
    {
      "id": 4321,
      "postalCode": "14654",
      "city": "TULLINGE"
    },
    {
      "id": 4322,
      "postalCode": "14654",
      "city": "TULLINGE"
    },
    {
      "id": 4323,
      "postalCode": "14654",
      "city": "TULLINGE"
    },
    {
      "id": 4324,
      "postalCode": "14640",
      "city": "TULLINGE"
    },
    {
      "id": 4325,
      "postalCode": "14654",
      "city": "TULLINGE"
    },
    {
      "id": 4326,
      "postalCode": "14654",
      "city": "TULLINGE"
    },
    {
      "id": 4327,
      "postalCode": "14640",
      "city": "TULLINGE"
    },
    {
      "id": 4328,
      "postalCode": "14640",
      "city": "TULLINGE"
    },
    {
      "id": 4329,
      "postalCode": "14654",
      "city": "TULLINGE"
    },
    {
      "id": 4330,
      "postalCode": "14640",
      "city": "TULLINGE"
    },
    {
      "id": 4331,
      "postalCode": "14640",
      "city": "TULLINGE"
    },
    {
      "id": 4332,
      "postalCode": "14640",
      "city": "TULLINGE"
    },
    {
      "id": 4333,
      "postalCode": "14654",
      "city": "TULLINGE"
    },
    {
      "id": 4334,
      "postalCode": "14654",
      "city": "TULLINGE"
    },
    {
      "id": 4335,
      "postalCode": "14640",
      "city": "TULLINGE"
    },
    {
      "id": 4336,
      "postalCode": "14654",
      "city": "TULLINGE"
    },
    {
      "id": 4337,
      "postalCode": "14654",
      "city": "TULLINGE"
    },
    {
      "id": 4338,
      "postalCode": "14654",
      "city": "TULLINGE"
    },
    {
      "id": 4339,
      "postalCode": "14654",
      "city": "TULLINGE"
    },
    {
      "id": 4340,
      "postalCode": "14640",
      "city": "TULLINGE"
    },
    {
      "id": 4341,
      "postalCode": "14654",
      "city": "TULLINGE"
    },
    {
      "id": 4342,
      "postalCode": "14654",
      "city": "TULLINGE"
    },
    {
      "id": 4343,
      "postalCode": "14654",
      "city": "TULLINGE"
    },
    {
      "id": 4344,
      "postalCode": "14654",
      "city": "TULLINGE"
    },
    {
      "id": 4345,
      "postalCode": "14654",
      "city": "TULLINGE"
    },
    {
      "id": 4346,
      "postalCode": "14654",
      "city": "TULLINGE"
    },
    {
      "id": 4347,
      "postalCode": "14654",
      "city": "TULLINGE"
    },
    {
      "id": 4348,
      "postalCode": "14654",
      "city": "TULLINGE"
    },
    {
      "id": 4349,
      "postalCode": "14654",
      "city": "TULLINGE"
    },
    {
      "id": 4350,
      "postalCode": "14654",
      "city": "TULLINGE"
    },
    {
      "id": 4352,
      "postalCode": "14654",
      "city": "TULLINGE"
    },
    {
      "id": 4353,
      "postalCode": "14648",
      "city": "TULLINGE"
    },
    {
      "id": 4354,
      "postalCode": "14648",
      "city": "TULLINGE"
    },
    {
      "id": 4355,
      "postalCode": "14648",
      "city": "TULLINGE"
    },
    {
      "id": 4356,
      "postalCode": "14652",
      "city": "TULLINGE"
    },
    {
      "id": 4357,
      "postalCode": "14652",
      "city": "TULLINGE"
    },
    {
      "id": 4358,
      "postalCode": "14652",
      "city": "TULLINGE"
    },
    {
      "id": 4359,
      "postalCode": "14650",
      "city": "TULLINGE"
    },
    {
      "id": 4360,
      "postalCode": "14650",
      "city": "TULLINGE"
    },
    {
      "id": 4361,
      "postalCode": "14650",
      "city": "TULLINGE"
    },
    {
      "id": 4362,
      "postalCode": "14650",
      "city": "TULLINGE"
    },
    {
      "id": 4363,
      "postalCode": "14650",
      "city": "TULLINGE"
    },
    {
      "id": 4364,
      "postalCode": "14650",
      "city": "TULLINGE"
    },
    {
      "id": 4365,
      "postalCode": "14650",
      "city": "TULLINGE"
    },
    {
      "id": 4366,
      "postalCode": "14640",
      "city": "TULLINGE"
    },
    {
      "id": 4367,
      "postalCode": "14640",
      "city": "TULLINGE"
    },
    {
      "id": 4368,
      "postalCode": "14640",
      "city": "TULLINGE"
    },
    {
      "id": 4369,
      "postalCode": "14640",
      "city": "TULLINGE"
    },
    {
      "id": 4370,
      "postalCode": "14640",
      "city": "TULLINGE"
    },
    {
      "id": 4371,
      "postalCode": "14640",
      "city": "TULLINGE"
    },
    {
      "id": 4372,
      "postalCode": "14640",
      "city": "TULLINGE"
    },
    {
      "id": 4373,
      "postalCode": "14640",
      "city": "TULLINGE"
    },
    {
      "id": 4374,
      "postalCode": "14640",
      "city": "TULLINGE"
    },
    {
      "id": 4375,
      "postalCode": "14640",
      "city": "TULLINGE"
    },
    {
      "id": 4376,
      "postalCode": "14640",
      "city": "TULLINGE"
    },
    {
      "id": 4377,
      "postalCode": "14640",
      "city": "TULLINGE"
    },
    {
      "id": 4378,
      "postalCode": "14640",
      "city": "TULLINGE"
    },
    {
      "id": 4379,
      "postalCode": "14640",
      "city": "TULLINGE"
    },
    {
      "id": 4380,
      "postalCode": "14640",
      "city": "TULLINGE"
    },
    {
      "id": 4381,
      "postalCode": "14640",
      "city": "TULLINGE"
    },
    {
      "id": 4382,
      "postalCode": "14640",
      "city": "TULLINGE"
    },
    {
      "id": 4383,
      "postalCode": "14640",
      "city": "TULLINGE"
    },
    {
      "id": 4384,
      "postalCode": "14640",
      "city": "TULLINGE"
    },
    {
      "id": 4385,
      "postalCode": "14640",
      "city": "TULLINGE"
    },
    {
      "id": 4386,
      "postalCode": "14640",
      "city": "TULLINGE"
    },
    {
      "id": 4387,
      "postalCode": "14640",
      "city": "TULLINGE"
    },
    {
      "id": 4388,
      "postalCode": "14640",
      "city": "TULLINGE"
    },
    {
      "id": 4389,
      "postalCode": "14652",
      "city": "TULLINGE"
    },
    {
      "id": 4390,
      "postalCode": "14652",
      "city": "TULLINGE"
    },
    {
      "id": 4391,
      "postalCode": "14652",
      "city": "TULLINGE"
    },
    {
      "id": 4392,
      "postalCode": "14652",
      "city": "TULLINGE"
    },
    {
      "id": 4393,
      "postalCode": "14640",
      "city": "TULLINGE"
    },
    {
      "id": 4394,
      "postalCode": "14640",
      "city": "TULLINGE"
    },
    {
      "id": 4395,
      "postalCode": "14640",
      "city": "TULLINGE"
    },
    {
      "id": 4396,
      "postalCode": "14640",
      "city": "TULLINGE"
    },
    {
      "id": 4397,
      "postalCode": "14640",
      "city": "TULLINGE"
    },
    {
      "id": 4398,
      "postalCode": "14640",
      "city": "TULLINGE"
    },
    {
      "id": 4399,
      "postalCode": "14640",
      "city": "TULLINGE"
    },
    {
      "id": 4400,
      "postalCode": "14640",
      "city": "TULLINGE"
    },
    {
      "id": 4401,
      "postalCode": "14640",
      "city": "TULLINGE"
    },
    {
      "id": 4402,
      "postalCode": "14640",
      "city": "TULLINGE"
    },
    {
      "id": 4403,
      "postalCode": "14640",
      "city": "TULLINGE"
    },
    {
      "id": 4404,
      "postalCode": "14640",
      "city": "TULLINGE"
    },
    {
      "id": 4405,
      "postalCode": "14640",
      "city": "TULLINGE"
    },
    {
      "id": 4406,
      "postalCode": "14640",
      "city": "TULLINGE"
    },
    {
      "id": 4407,
      "postalCode": "14650",
      "city": "TULLINGE"
    },
    {
      "id": 4408,
      "postalCode": "14650",
      "city": "TULLINGE"
    },
    {
      "id": 4409,
      "postalCode": "14650",
      "city": "TULLINGE"
    },
    {
      "id": 4410,
      "postalCode": "14650",
      "city": "TULLINGE"
    },
    {
      "id": 4411,
      "postalCode": "14650",
      "city": "TULLINGE"
    },
    {
      "id": 4412,
      "postalCode": "14650",
      "city": "TULLINGE"
    },
    {
      "id": 4413,
      "postalCode": "14650",
      "city": "TULLINGE"
    },
    {
      "id": 4414,
      "postalCode": "14650",
      "city": "TULLINGE"
    },
    {
      "id": 4415,
      "postalCode": "14650",
      "city": "TULLINGE"
    },
    {
      "id": 4416,
      "postalCode": "14650",
      "city": "TULLINGE"
    },
    {
      "id": 4417,
      "postalCode": "14650",
      "city": "TULLINGE"
    },
    {
      "id": 4418,
      "postalCode": "14650",
      "city": "TULLINGE"
    },
    {
      "id": 4420,
      "postalCode": "14653",
      "city": "TULLINGE"
    },
    {
      "id": 4421,
      "postalCode": "14640",
      "city": "TULLINGE"
    },
    {
      "id": 4422,
      "postalCode": "14640",
      "city": "TULLINGE"
    },
    {
      "id": 4423,
      "postalCode": "14640",
      "city": "TULLINGE"
    },
    {
      "id": 4424,
      "postalCode": "14640",
      "city": "TULLINGE"
    },
    {
      "id": 4425,
      "postalCode": "14640",
      "city": "TULLINGE"
    },
    {
      "id": 4426,
      "postalCode": "14640",
      "city": "TULLINGE"
    },
    {
      "id": 4427,
      "postalCode": "14640",
      "city": "TULLINGE"
    },
    {
      "id": 4428,
      "postalCode": "14640",
      "city": "TULLINGE"
    },
    {
      "id": 4429,
      "postalCode": "14640",
      "city": "TULLINGE"
    },
    {
      "id": 4430,
      "postalCode": "14640",
      "city": "TULLINGE"
    },
    {
      "id": 4431,
      "postalCode": "14640",
      "city": "TULLINGE"
    },
    {
      "id": 4432,
      "postalCode": "14640",
      "city": "TULLINGE"
    },
    {
      "id": 4433,
      "postalCode": "14640",
      "city": "TULLINGE"
    },
    {
      "id": 4434,
      "postalCode": "14640",
      "city": "TULLINGE"
    },
    {
      "id": 4435,
      "postalCode": "14640",
      "city": "TULLINGE"
    },
    {
      "id": 4436,
      "postalCode": "14640",
      "city": "TULLINGE"
    },
    {
      "id": 4437,
      "postalCode": "14640",
      "city": "TULLINGE"
    },
    {
      "id": 4438,
      "postalCode": "14640",
      "city": "TULLINGE"
    },
    {
      "id": 4439,
      "postalCode": "14640",
      "city": "TULLINGE"
    },
    {
      "id": 4440,
      "postalCode": "14640",
      "city": "TULLINGE"
    },
    {
      "id": 4441,
      "postalCode": "14640",
      "city": "TULLINGE"
    },
    {
      "id": 4442,
      "postalCode": "14640",
      "city": "TULLINGE"
    },
    {
      "id": 4443,
      "postalCode": "14640",
      "city": "TULLINGE"
    },
    {
      "id": 4444,
      "postalCode": "14640",
      "city": "TULLINGE"
    },
    {
      "id": 4445,
      "postalCode": "14640",
      "city": "TULLINGE"
    },
    {
      "id": 4446,
      "postalCode": "14640",
      "city": "TULLINGE"
    },
    {
      "id": 4447,
      "postalCode": "14640",
      "city": "TULLINGE"
    },
    {
      "id": 4448,
      "postalCode": "14640",
      "city": "TULLINGE"
    },
    {
      "id": 4449,
      "postalCode": "14640",
      "city": "TULLINGE"
    },
    {
      "id": 4450,
      "postalCode": "14640",
      "city": "TULLINGE"
    },
    {
      "id": 4451,
      "postalCode": "14640",
      "city": "TULLINGE"
    },
    {
      "id": 4452,
      "postalCode": "14640",
      "city": "TULLINGE"
    },
    {
      "id": 4453,
      "postalCode": "14640",
      "city": "TULLINGE"
    },
    {
      "id": 4454,
      "postalCode": "14640",
      "city": "TULLINGE"
    },
    {
      "id": 4455,
      "postalCode": "14640",
      "city": "TULLINGE"
    },
    {
      "id": 4456,
      "postalCode": "14640",
      "city": "TULLINGE"
    },
    {
      "id": 4457,
      "postalCode": "14640",
      "city": "TULLINGE"
    },
    {
      "id": 4458,
      "postalCode": "14640",
      "city": "TULLINGE"
    },
    {
      "id": 4460,
      "postalCode": "14640",
      "city": "TULLINGE"
    },
    {
      "id": 4461,
      "postalCode": "14631",
      "city": "TULLINGE"
    },
    {
      "id": 4463,
      "postalCode": "14631",
      "city": "TULLINGE"
    },
    {
      "id": 4466,
      "postalCode": "14638",
      "city": "TULLINGE"
    },
    {
      "id": 4467,
      "postalCode": "14638",
      "city": "TULLINGE"
    },
    {
      "id": 4468,
      "postalCode": "14638",
      "city": "TULLINGE"
    },
    {
      "id": 4471,
      "postalCode": "14638",
      "city": "TULLINGE"
    },
    {
      "id": 4472,
      "postalCode": "14638",
      "city": "TULLINGE"
    },
    {
      "id": 4473,
      "postalCode": "14638",
      "city": "TULLINGE"
    },
    {
      "id": 4474,
      "postalCode": "14638",
      "city": "TULLINGE"
    },
    {
      "id": 4475,
      "postalCode": "14638",
      "city": "TULLINGE"
    },
    {
      "id": 4476,
      "postalCode": "14638",
      "city": "TULLINGE"
    },
    {
      "id": 4478,
      "postalCode": "14638",
      "city": "TULLINGE"
    },
    {
      "id": 4480,
      "postalCode": "14638",
      "city": "TULLINGE"
    },
    {
      "id": 4481,
      "postalCode": "14638",
      "city": "TULLINGE"
    },
    {
      "id": 4482,
      "postalCode": "14638",
      "city": "TULLINGE"
    },
    {
      "id": 4483,
      "postalCode": "14638",
      "city": "TULLINGE"
    },
    {
      "id": 4485,
      "postalCode": "14638",
      "city": "TULLINGE"
    },
    {
      "id": 4486,
      "postalCode": "14638",
      "city": "TULLINGE"
    },
    {
      "id": 4487,
      "postalCode": "14638",
      "city": "TULLINGE"
    },
    {
      "id": 4488,
      "postalCode": "14638",
      "city": "TULLINGE"
    },
    {
      "id": 4489,
      "postalCode": "14638",
      "city": "TULLINGE"
    },
    {
      "id": 4490,
      "postalCode": "14638",
      "city": "TULLINGE"
    },
    {
      "id": 4491,
      "postalCode": "14636",
      "city": "TULLINGE"
    },
    {
      "id": 4492,
      "postalCode": "14636",
      "city": "TULLINGE"
    },
    {
      "id": 4493,
      "postalCode": "14636",
      "city": "TULLINGE"
    },
    {
      "id": 4494,
      "postalCode": "14636",
      "city": "TULLINGE"
    },
    {
      "id": 4495,
      "postalCode": "14636",
      "city": "TULLINGE"
    },
    {
      "id": 4496,
      "postalCode": "14636",
      "city": "TULLINGE"
    },
    {
      "id": 4497,
      "postalCode": "14636",
      "city": "TULLINGE"
    },
    {
      "id": 4498,
      "postalCode": "14636",
      "city": "TULLINGE"
    },
    {
      "id": 4499,
      "postalCode": "14636",
      "city": "TULLINGE"
    },
    {
      "id": 4500,
      "postalCode": "14636",
      "city": "TULLINGE"
    },
    {
      "id": 4501,
      "postalCode": "14636",
      "city": "TULLINGE"
    },
    {
      "id": 4502,
      "postalCode": "14636",
      "city": "TULLINGE"
    },
    {
      "id": 4503,
      "postalCode": "14636",
      "city": "TULLINGE"
    },
    {
      "id": 4504,
      "postalCode": "14632",
      "city": "TULLINGE"
    },
    {
      "id": 4505,
      "postalCode": "14636",
      "city": "TULLINGE"
    },
    {
      "id": 4506,
      "postalCode": "14636",
      "city": "TULLINGE"
    },
    {
      "id": 4507,
      "postalCode": "14636",
      "city": "TULLINGE"
    },
    {
      "id": 4508,
      "postalCode": "14636",
      "city": "TULLINGE"
    },
    {
      "id": 4509,
      "postalCode": "14636",
      "city": "TULLINGE"
    },
    {
      "id": 4510,
      "postalCode": "14636",
      "city": "TULLINGE"
    },
    {
      "id": 4511,
      "postalCode": "14636",
      "city": "TULLINGE"
    },
    {
      "id": 4512,
      "postalCode": "14638",
      "city": "TULLINGE"
    },
    {
      "id": 4513,
      "postalCode": "14638",
      "city": "TULLINGE"
    },
    {
      "id": 4514,
      "postalCode": "14638",
      "city": "TULLINGE"
    },
    {
      "id": 4515,
      "postalCode": "14638",
      "city": "TULLINGE"
    },
    {
      "id": 4516,
      "postalCode": "14638",
      "city": "TULLINGE"
    },
    {
      "id": 4517,
      "postalCode": "14638",
      "city": "TULLINGE"
    },
    {
      "id": 4519,
      "postalCode": "14638",
      "city": "TULLINGE"
    },
    {
      "id": 4521,
      "postalCode": "14638",
      "city": "TULLINGE"
    },
    {
      "id": 4522,
      "postalCode": "14638",
      "city": "TULLINGE"
    },
    {
      "id": 4523,
      "postalCode": "14638",
      "city": "TULLINGE"
    },
    {
      "id": 4524,
      "postalCode": "14638",
      "city": "TULLINGE"
    },
    {
      "id": 4525,
      "postalCode": "14638",
      "city": "TULLINGE"
    },
    {
      "id": 4526,
      "postalCode": "14638",
      "city": "TULLINGE"
    },
    {
      "id": 4527,
      "postalCode": "14638",
      "city": "TULLINGE"
    },
    {
      "id": 4528,
      "postalCode": "14638",
      "city": "TULLINGE"
    },
    {
      "id": 4529,
      "postalCode": "14638",
      "city": "TULLINGE"
    },
    {
      "id": 4530,
      "postalCode": "14638",
      "city": "TULLINGE"
    },
    {
      "id": 4531,
      "postalCode": "14638",
      "city": "TULLINGE"
    },
    {
      "id": 4532,
      "postalCode": "14638",
      "city": "TULLINGE"
    },
    {
      "id": 4533,
      "postalCode": "14638",
      "city": "TULLINGE"
    },
    {
      "id": 4534,
      "postalCode": "14638",
      "city": "TULLINGE"
    },
    {
      "id": 4535,
      "postalCode": "14638",
      "city": "TULLINGE"
    },
    {
      "id": 4536,
      "postalCode": "14638",
      "city": "TULLINGE"
    },
    {
      "id": 4537,
      "postalCode": "14638",
      "city": "TULLINGE"
    },
    {
      "id": 4539,
      "postalCode": "14638",
      "city": "TULLINGE"
    },
    {
      "id": 4540,
      "postalCode": "14638",
      "city": "TULLINGE"
    },
    {
      "id": 4541,
      "postalCode": "14638",
      "city": "TULLINGE"
    },
    {
      "id": 4542,
      "postalCode": "14638",
      "city": "TULLINGE"
    },
    {
      "id": 4543,
      "postalCode": "14636",
      "city": "TULLINGE"
    },
    {
      "id": 4544,
      "postalCode": "14636",
      "city": "TULLINGE"
    },
    {
      "id": 4545,
      "postalCode": "14636",
      "city": "TULLINGE"
    },
    {
      "id": 4546,
      "postalCode": "14636",
      "city": "TULLINGE"
    },
    {
      "id": 4547,
      "postalCode": "14636",
      "city": "TULLINGE"
    },
    {
      "id": 4548,
      "postalCode": "14636",
      "city": "TULLINGE"
    },
    {
      "id": 4549,
      "postalCode": "14638",
      "city": "TULLINGE"
    },
    {
      "id": 4550,
      "postalCode": "14638",
      "city": "TULLINGE"
    },
    {
      "id": 4551,
      "postalCode": "14638",
      "city": "TULLINGE"
    },
    {
      "id": 4552,
      "postalCode": "14638",
      "city": "TULLINGE"
    },
    {
      "id": 4553,
      "postalCode": "14638",
      "city": "TULLINGE"
    },
    {
      "id": 4554,
      "postalCode": "14638",
      "city": "TULLINGE"
    },
    {
      "id": 4555,
      "postalCode": "14638",
      "city": "TULLINGE"
    },
    {
      "id": 4556,
      "postalCode": "14638",
      "city": "TULLINGE"
    },
    {
      "id": 4557,
      "postalCode": "14638",
      "city": "TULLINGE"
    },
    {
      "id": 4558,
      "postalCode": "14638",
      "city": "TULLINGE"
    },
    {
      "id": 4559,
      "postalCode": "14636",
      "city": "TULLINGE"
    },
    {
      "id": 4560,
      "postalCode": "14636",
      "city": "TULLINGE"
    },
    {
      "id": 4561,
      "postalCode": "14636",
      "city": "TULLINGE"
    },
    {
      "id": 4562,
      "postalCode": "14636",
      "city": "TULLINGE"
    },
    {
      "id": 4563,
      "postalCode": "14636",
      "city": "TULLINGE"
    },
    {
      "id": 4564,
      "postalCode": "14636",
      "city": "TULLINGE"
    },
    {
      "id": 4565,
      "postalCode": "14636",
      "city": "TULLINGE"
    },
    {
      "id": 4566,
      "postalCode": "14636",
      "city": "TULLINGE"
    },
    {
      "id": 4567,
      "postalCode": "14636",
      "city": "TULLINGE"
    },
    {
      "id": 4568,
      "postalCode": "14636",
      "city": "TULLINGE"
    },
    {
      "id": 4569,
      "postalCode": "14636",
      "city": "TULLINGE"
    },
    {
      "id": 4570,
      "postalCode": "14636",
      "city": "TULLINGE"
    },
    {
      "id": 4571,
      "postalCode": "14636",
      "city": "TULLINGE"
    },
    {
      "id": 4572,
      "postalCode": "14636",
      "city": "TULLINGE"
    },
    {
      "id": 4573,
      "postalCode": "14636",
      "city": "TULLINGE"
    },
    {
      "id": 4574,
      "postalCode": "14636",
      "city": "TULLINGE"
    },
    {
      "id": 4575,
      "postalCode": "14636",
      "city": "TULLINGE"
    },
    {
      "id": 4576,
      "postalCode": "14636",
      "city": "TULLINGE"
    },
    {
      "id": 4577,
      "postalCode": "14636",
      "city": "TULLINGE"
    },
    {
      "id": 4578,
      "postalCode": "14636",
      "city": "TULLINGE"
    },
    {
      "id": 4579,
      "postalCode": "14636",
      "city": "TULLINGE"
    },
    {
      "id": 4580,
      "postalCode": "14636",
      "city": "TULLINGE"
    },
    {
      "id": 4581,
      "postalCode": "14636",
      "city": "TULLINGE"
    },
    {
      "id": 4582,
      "postalCode": "14638",
      "city": "TULLINGE"
    },
    {
      "id": 4583,
      "postalCode": "14638",
      "city": "TULLINGE"
    },
    {
      "id": 4584,
      "postalCode": "14638",
      "city": "TULLINGE"
    },
    {
      "id": 4585,
      "postalCode": "14638",
      "city": "TULLINGE"
    },
    {
      "id": 4587,
      "postalCode": "14638",
      "city": "TULLINGE"
    },
    {
      "id": 4588,
      "postalCode": "14638",
      "city": "TULLINGE"
    },
    {
      "id": 4589,
      "postalCode": "14638",
      "city": "TULLINGE"
    },
    {
      "id": 4592,
      "postalCode": "14638",
      "city": "TULLINGE"
    },
    {
      "id": 4593,
      "postalCode": "14638",
      "city": "TULLINGE"
    },
    {
      "id": 4595,
      "postalCode": "14638",
      "city": "TULLINGE"
    },
    {
      "id": 4597,
      "postalCode": "14638",
      "city": "TULLINGE"
    },
    {
      "id": 4599,
      "postalCode": "14638",
      "city": "TULLINGE"
    },
    {
      "id": 4600,
      "postalCode": "14638",
      "city": "TULLINGE"
    },
    {
      "id": 4601,
      "postalCode": "14638",
      "city": "TULLINGE"
    },
    {
      "id": 4602,
      "postalCode": "14638",
      "city": "TULLINGE"
    },
    {
      "id": 4603,
      "postalCode": "14638",
      "city": "TULLINGE"
    },
    {
      "id": 4604,
      "postalCode": "14638",
      "city": "TULLINGE"
    },
    {
      "id": 4605,
      "postalCode": "14638",
      "city": "TULLINGE"
    },
    {
      "id": 4606,
      "postalCode": "14638",
      "city": "TULLINGE"
    },
    {
      "id": 4607,
      "postalCode": "14633",
      "city": "TULLINGE"
    },
    {
      "id": 4608,
      "postalCode": "14633",
      "city": "TULLINGE"
    },
    {
      "id": 4609,
      "postalCode": "14633",
      "city": "TULLINGE"
    },
    {
      "id": 4610,
      "postalCode": "14633",
      "city": "TULLINGE"
    },
    {
      "id": 4611,
      "postalCode": "14632",
      "city": "TULLINGE"
    },
    {
      "id": 4613,
      "postalCode": "14632",
      "city": "TULLINGE"
    },
    {
      "id": 4614,
      "postalCode": "14632",
      "city": "TULLINGE"
    },
    {
      "id": 4619,
      "postalCode": "14638",
      "city": "TULLINGE"
    },
    {
      "id": 4620,
      "postalCode": "14638",
      "city": "TULLINGE"
    },
    {
      "id": 4622,
      "postalCode": "14638",
      "city": "TULLINGE"
    },
    {
      "id": 4623,
      "postalCode": "14638",
      "city": "TULLINGE"
    },
    {
      "id": 4624,
      "postalCode": "14638",
      "city": "TULLINGE"
    },
    {
      "id": 4627,
      "postalCode": "14638",
      "city": "TULLINGE"
    },
    {
      "id": 4628,
      "postalCode": "14638",
      "city": "TULLINGE"
    },
    {
      "id": 4629,
      "postalCode": "14638",
      "city": "TULLINGE"
    },
    {
      "id": 4630,
      "postalCode": "14638",
      "city": "TULLINGE"
    },
    {
      "id": 4631,
      "postalCode": "14636",
      "city": "TULLINGE"
    },
    {
      "id": 4632,
      "postalCode": "14636",
      "city": "TULLINGE"
    },
    {
      "id": 4633,
      "postalCode": "14636",
      "city": "TULLINGE"
    },
    {
      "id": 4634,
      "postalCode": "14636",
      "city": "TULLINGE"
    },
    {
      "id": 4635,
      "postalCode": "14636",
      "city": "TULLINGE"
    },
    {
      "id": 4636,
      "postalCode": "14636",
      "city": "TULLINGE"
    },
    {
      "id": 4637,
      "postalCode": "14636",
      "city": "TULLINGE"
    },
    {
      "id": 4638,
      "postalCode": "14636",
      "city": "TULLINGE"
    },
    {
      "id": 4639,
      "postalCode": "14636",
      "city": "TULLINGE"
    },
    {
      "id": 4640,
      "postalCode": "14636",
      "city": "TULLINGE"
    },
    {
      "id": 4641,
      "postalCode": "14636",
      "city": "TULLINGE"
    },
    {
      "id": 4642,
      "postalCode": "14636",
      "city": "TULLINGE"
    },
    {
      "id": 4643,
      "postalCode": "14636",
      "city": "TULLINGE"
    },
    {
      "id": 4644,
      "postalCode": "14636",
      "city": "TULLINGE"
    },
    {
      "id": 4645,
      "postalCode": "14636",
      "city": "TULLINGE"
    },
    {
      "id": 4646,
      "postalCode": "14636",
      "city": "TULLINGE"
    },
    {
      "id": 4647,
      "postalCode": "14636",
      "city": "TULLINGE"
    },
    {
      "id": 4648,
      "postalCode": "14636",
      "city": "TULLINGE"
    },
    {
      "id": 4649,
      "postalCode": "14636",
      "city": "TULLINGE"
    },
    {
      "id": 4650,
      "postalCode": "14636",
      "city": "TULLINGE"
    },
    {
      "id": 4651,
      "postalCode": "14636",
      "city": "TULLINGE"
    },
    {
      "id": 4652,
      "postalCode": "14636",
      "city": "TULLINGE"
    },
    {
      "id": 4653,
      "postalCode": "14636",
      "city": "TULLINGE"
    },
    {
      "id": 4654,
      "postalCode": "14636",
      "city": "TULLINGE"
    },
    {
      "id": 4655,
      "postalCode": "14636",
      "city": "TULLINGE"
    },
    {
      "id": 4656,
      "postalCode": "14636",
      "city": "TULLINGE"
    },
    {
      "id": 4657,
      "postalCode": "14636",
      "city": "TULLINGE"
    },
    {
      "id": 4658,
      "postalCode": "14636",
      "city": "TULLINGE"
    },
    {
      "id": 4659,
      "postalCode": "14636",
      "city": "TULLINGE"
    },
    {
      "id": 4660,
      "postalCode": "14636",
      "city": "TULLINGE"
    },
    {
      "id": 4661,
      "postalCode": "14636",
      "city": "TULLINGE"
    },
    {
      "id": 4662,
      "postalCode": "14636",
      "city": "TULLINGE"
    },
    {
      "id": 4663,
      "postalCode": "14636",
      "city": "TULLINGE"
    },
    {
      "id": 4664,
      "postalCode": "14636",
      "city": "TULLINGE"
    },
    {
      "id": 4665,
      "postalCode": "14636",
      "city": "TULLINGE"
    },
    {
      "id": 4666,
      "postalCode": "14636",
      "city": "TULLINGE"
    },
    {
      "id": 4667,
      "postalCode": "14636",
      "city": "TULLINGE"
    },
    {
      "id": 4668,
      "postalCode": "14636",
      "city": "TULLINGE"
    },
    {
      "id": 4669,
      "postalCode": "14636",
      "city": "TULLINGE"
    },
    {
      "id": 4670,
      "postalCode": "14636",
      "city": "TULLINGE"
    },
    {
      "id": 4671,
      "postalCode": "14636",
      "city": "TULLINGE"
    },
    {
      "id": 4672,
      "postalCode": "14636",
      "city": "TULLINGE"
    },
    {
      "id": 4673,
      "postalCode": "14636",
      "city": "TULLINGE"
    },
    {
      "id": 4674,
      "postalCode": "14636",
      "city": "TULLINGE"
    },
    {
      "id": 4675,
      "postalCode": "14636",
      "city": "TULLINGE"
    },
    {
      "id": 4676,
      "postalCode": "14636",
      "city": "TULLINGE"
    },
    {
      "id": 4677,
      "postalCode": "14636",
      "city": "TULLINGE"
    },
    {
      "id": 4678,
      "postalCode": "14636",
      "city": "TULLINGE"
    },
    {
      "id": 4679,
      "postalCode": "14636",
      "city": "TULLINGE"
    },
    {
      "id": 4680,
      "postalCode": "14636",
      "city": "TULLINGE"
    },
    {
      "id": 4681,
      "postalCode": "14636",
      "city": "TULLINGE"
    },
    {
      "id": 4682,
      "postalCode": "14636",
      "city": "TULLINGE"
    },
    {
      "id": 4683,
      "postalCode": "14636",
      "city": "TULLINGE"
    },
    {
      "id": 4684,
      "postalCode": "14636",
      "city": "TULLINGE"
    },
    {
      "id": 4685,
      "postalCode": "14636",
      "city": "TULLINGE"
    },
    {
      "id": 4686,
      "postalCode": "14636",
      "city": "TULLINGE"
    },
    {
      "id": 4687,
      "postalCode": "14636",
      "city": "TULLINGE"
    },
    {
      "id": 4688,
      "postalCode": "14636",
      "city": "TULLINGE"
    },
    {
      "id": 4689,
      "postalCode": "14636",
      "city": "TULLINGE"
    },
    {
      "id": 4690,
      "postalCode": "14636",
      "city": "TULLINGE"
    },
    {
      "id": 4691,
      "postalCode": "14636",
      "city": "TULLINGE"
    },
    {
      "id": 4692,
      "postalCode": "14636",
      "city": "TULLINGE"
    },
    {
      "id": 4693,
      "postalCode": "14636",
      "city": "TULLINGE"
    },
    {
      "id": 4694,
      "postalCode": "14636",
      "city": "TULLINGE"
    },
    {
      "id": 4695,
      "postalCode": "14636",
      "city": "TULLINGE"
    },
    {
      "id": 4696,
      "postalCode": "14636",
      "city": "TULLINGE"
    },
    {
      "id": 4697,
      "postalCode": "14636",
      "city": "TULLINGE"
    },
    {
      "id": 4698,
      "postalCode": "14636",
      "city": "TULLINGE"
    },
    {
      "id": 4699,
      "postalCode": "14636",
      "city": "TULLINGE"
    },
    {
      "id": 4700,
      "postalCode": "14636",
      "city": "TULLINGE"
    },
    {
      "id": 4701,
      "postalCode": "14636",
      "city": "TULLINGE"
    },
    {
      "id": 4702,
      "postalCode": "14636",
      "city": "TULLINGE"
    },
    {
      "id": 4703,
      "postalCode": "14636",
      "city": "TULLINGE"
    },
    {
      "id": 4704,
      "postalCode": "14636",
      "city": "TULLINGE"
    },
    {
      "id": 4705,
      "postalCode": "14636",
      "city": "TULLINGE"
    },
    {
      "id": 4706,
      "postalCode": "14636",
      "city": "TULLINGE"
    },
    {
      "id": 4707,
      "postalCode": "14636",
      "city": "TULLINGE"
    },
    {
      "id": 4708,
      "postalCode": "14636",
      "city": "TULLINGE"
    },
    {
      "id": 4709,
      "postalCode": "14638",
      "city": "TULLINGE"
    },
    {
      "id": 4710,
      "postalCode": "14638",
      "city": "TULLINGE"
    },
    {
      "id": 4712,
      "postalCode": "14638",
      "city": "TULLINGE"
    },
    {
      "id": 4713,
      "postalCode": "14638",
      "city": "TULLINGE"
    },
    {
      "id": 4714,
      "postalCode": "14638",
      "city": "TULLINGE"
    },
    {
      "id": 4715,
      "postalCode": "14638",
      "city": "TULLINGE"
    },
    {
      "id": 4716,
      "postalCode": "14638",
      "city": "TULLINGE"
    },
    {
      "id": 4717,
      "postalCode": "14638",
      "city": "TULLINGE"
    },
    {
      "id": 4718,
      "postalCode": "14638",
      "city": "TULLINGE"
    },
    {
      "id": 4719,
      "postalCode": "14638",
      "city": "TULLINGE"
    },
    {
      "id": 4720,
      "postalCode": "14638",
      "city": "TULLINGE"
    },
    {
      "id": 4721,
      "postalCode": "14638",
      "city": "TULLINGE"
    },
    {
      "id": 4722,
      "postalCode": "14638",
      "city": "TULLINGE"
    },
    {
      "id": 4723,
      "postalCode": "14638",
      "city": "TULLINGE"
    },
    {
      "id": 4724,
      "postalCode": "14638",
      "city": "TULLINGE"
    },
    {
      "id": 4725,
      "postalCode": "14638",
      "city": "TULLINGE"
    },
    {
      "id": 4726,
      "postalCode": "14638",
      "city": "TULLINGE"
    },
    {
      "id": 4727,
      "postalCode": "14638",
      "city": "TULLINGE"
    },
    {
      "id": 4728,
      "postalCode": "14638",
      "city": "TULLINGE"
    },
    {
      "id": 4729,
      "postalCode": "14638",
      "city": "TULLINGE"
    },
    {
      "id": 4730,
      "postalCode": "14638",
      "city": "TULLINGE"
    },
    {
      "id": 4731,
      "postalCode": "14638",
      "city": "TULLINGE"
    },
    {
      "id": 4732,
      "postalCode": "14638",
      "city": "TULLINGE"
    },
    {
      "id": 4733,
      "postalCode": "14638",
      "city": "TULLINGE"
    },
    {
      "id": 4735,
      "postalCode": "14638",
      "city": "TULLINGE"
    },
    {
      "id": 4736,
      "postalCode": "14638",
      "city": "TULLINGE"
    },
    {
      "id": 4737,
      "postalCode": "14638",
      "city": "TULLINGE"
    },
    {
      "id": 4738,
      "postalCode": "14638",
      "city": "TULLINGE"
    },
    {
      "id": 4739,
      "postalCode": "14638",
      "city": "TULLINGE"
    },
    {
      "id": 4740,
      "postalCode": "14638",
      "city": "TULLINGE"
    },
    {
      "id": 4741,
      "postalCode": "14638",
      "city": "TULLINGE"
    },
    {
      "id": 4742,
      "postalCode": "14638",
      "city": "TULLINGE"
    },
    {
      "id": 4745,
      "postalCode": "14631",
      "city": "TULLINGE"
    },
    {
      "id": 4746,
      "postalCode": "14631",
      "city": "TULLINGE"
    },
    {
      "id": 4747,
      "postalCode": "14633",
      "city": "TULLINGE"
    },
    {
      "id": 4748,
      "postalCode": "14633",
      "city": "TULLINGE"
    },
    {
      "id": 4749,
      "postalCode": "14633",
      "city": "TULLINGE"
    },
    {
      "id": 4750,
      "postalCode": "14633",
      "city": "TULLINGE"
    },
    {
      "id": 4751,
      "postalCode": "14633",
      "city": "TULLINGE"
    },
    {
      "id": 4752,
      "postalCode": "14636",
      "city": "TULLINGE"
    },
    {
      "id": 4753,
      "postalCode": "14636",
      "city": "TULLINGE"
    },
    {
      "id": 4754,
      "postalCode": "14636",
      "city": "TULLINGE"
    },
    {
      "id": 4755,
      "postalCode": "14636",
      "city": "TULLINGE"
    },
    {
      "id": 4756,
      "postalCode": "14636",
      "city": "TULLINGE"
    },
    {
      "id": 4757,
      "postalCode": "14636",
      "city": "TULLINGE"
    },
    {
      "id": 4758,
      "postalCode": "14636",
      "city": "TULLINGE"
    },
    {
      "id": 4759,
      "postalCode": "14636",
      "city": "TULLINGE"
    },
    {
      "id": 4760,
      "postalCode": "14636",
      "city": "TULLINGE"
    },
    {
      "id": 4761,
      "postalCode": "14636",
      "city": "TULLINGE"
    },
    {
      "id": 4762,
      "postalCode": "14636",
      "city": "TULLINGE"
    },
    {
      "id": 4763,
      "postalCode": "14636",
      "city": "TULLINGE"
    },
    {
      "id": 4764,
      "postalCode": "14636",
      "city": "TULLINGE"
    },
    {
      "id": 4765,
      "postalCode": "14636",
      "city": "TULLINGE"
    },
    {
      "id": 4766,
      "postalCode": "14636",
      "city": "TULLINGE"
    },
    {
      "id": 4768,
      "postalCode": "14636",
      "city": "TULLINGE"
    },
    {
      "id": 4769,
      "postalCode": "14636",
      "city": "TULLINGE"
    },
    {
      "id": 4770,
      "postalCode": "14636",
      "city": "TULLINGE"
    },
    {
      "id": 4771,
      "postalCode": "14636",
      "city": "TULLINGE"
    },
    {
      "id": 4772,
      "postalCode": "14636",
      "city": "TULLINGE"
    },
    {
      "id": 4773,
      "postalCode": "14636",
      "city": "TULLINGE"
    },
    {
      "id": 4774,
      "postalCode": "14636",
      "city": "TULLINGE"
    },
    {
      "id": 4775,
      "postalCode": "14636",
      "city": "TULLINGE"
    },
    {
      "id": 4776,
      "postalCode": "14636",
      "city": "TULLINGE"
    },
    {
      "id": 4777,
      "postalCode": "14650",
      "city": "TULLINGE"
    },
    {
      "id": 4778,
      "postalCode": "14636",
      "city": "TULLINGE"
    },
    {
      "id": 4779,
      "postalCode": "14636",
      "city": "TULLINGE"
    },
    {
      "id": 4780,
      "postalCode": "14636",
      "city": "TULLINGE"
    },
    {
      "id": 4781,
      "postalCode": "14636",
      "city": "TULLINGE"
    },
    {
      "id": 4782,
      "postalCode": "14636",
      "city": "TULLINGE"
    },
    {
      "id": 4783,
      "postalCode": "14636",
      "city": "TULLINGE"
    },
    {
      "id": 4784,
      "postalCode": "14636",
      "city": "TULLINGE"
    },
    {
      "id": 4785,
      "postalCode": "14636",
      "city": "TULLINGE"
    },
    {
      "id": 4786,
      "postalCode": "14636",
      "city": "TULLINGE"
    },
    {
      "id": 4787,
      "postalCode": "14636",
      "city": "TULLINGE"
    },
    {
      "id": 4788,
      "postalCode": "14636",
      "city": "TULLINGE"
    },
    {
      "id": 4789,
      "postalCode": "14636",
      "city": "TULLINGE"
    },
    {
      "id": 4790,
      "postalCode": "14636",
      "city": "TULLINGE"
    },
    {
      "id": 4791,
      "postalCode": "14636",
      "city": "TULLINGE"
    },
    {
      "id": 4792,
      "postalCode": "14636",
      "city": "TULLINGE"
    },
    {
      "id": 4793,
      "postalCode": "14636",
      "city": "TULLINGE"
    },
    {
      "id": 4794,
      "postalCode": "14636",
      "city": "TULLINGE"
    },
    {
      "id": 4795,
      "postalCode": "14636",
      "city": "TULLINGE"
    },
    {
      "id": 4796,
      "postalCode": "14636",
      "city": "TULLINGE"
    },
    {
      "id": 4797,
      "postalCode": "14636",
      "city": "TULLINGE"
    },
    {
      "id": 4798,
      "postalCode": "14636",
      "city": "TULLINGE"
    },
    {
      "id": 4799,
      "postalCode": "14636",
      "city": "TULLINGE"
    },
    {
      "id": 4800,
      "postalCode": "14636",
      "city": "TULLINGE"
    },
    {
      "id": 4801,
      "postalCode": "14636",
      "city": "TULLINGE"
    },
    {
      "id": 4802,
      "postalCode": "14636",
      "city": "TULLINGE"
    },
    {
      "id": 4803,
      "postalCode": "14636",
      "city": "TULLINGE"
    },
    {
      "id": 4804,
      "postalCode": "14636",
      "city": "TULLINGE"
    },
    {
      "id": 4805,
      "postalCode": "14636",
      "city": "TULLINGE"
    },
    {
      "id": 4806,
      "postalCode": "14636",
      "city": "TULLINGE"
    },
    {
      "id": 4807,
      "postalCode": "14636",
      "city": "TULLINGE"
    },
    {
      "id": 4808,
      "postalCode": "14636",
      "city": "TULLINGE"
    },
    {
      "id": 4809,
      "postalCode": "14636",
      "city": "TULLINGE"
    },
    {
      "id": 4810,
      "postalCode": "14636",
      "city": "TULLINGE"
    },
    {
      "id": 4811,
      "postalCode": "14636",
      "city": "TULLINGE"
    },
    {
      "id": 4812,
      "postalCode": "14636",
      "city": "TULLINGE"
    },
    {
      "id": 4813,
      "postalCode": "14636",
      "city": "TULLINGE"
    },
    {
      "id": 4814,
      "postalCode": "14636",
      "city": "TULLINGE"
    },
    {
      "id": 4815,
      "postalCode": "14636",
      "city": "TULLINGE"
    },
    {
      "id": 4816,
      "postalCode": "14636",
      "city": "TULLINGE"
    },
    {
      "id": 4817,
      "postalCode": "14636",
      "city": "TULLINGE"
    },
    {
      "id": 4818,
      "postalCode": "14636",
      "city": "TULLINGE"
    },
    {
      "id": 4819,
      "postalCode": "14636",
      "city": "TULLINGE"
    },
    {
      "id": 4820,
      "postalCode": "14636",
      "city": "TULLINGE"
    },
    {
      "id": 4821,
      "postalCode": "14636",
      "city": "TULLINGE"
    },
    {
      "id": 4822,
      "postalCode": "14636",
      "city": "TULLINGE"
    },
    {
      "id": 4823,
      "postalCode": "14636",
      "city": "TULLINGE"
    },
    {
      "id": 4824,
      "postalCode": "14636",
      "city": "TULLINGE"
    },
    {
      "id": 4825,
      "postalCode": "14636",
      "city": "TULLINGE"
    },
    {
      "id": 4826,
      "postalCode": "14636",
      "city": "TULLINGE"
    },
    {
      "id": 4827,
      "postalCode": "14636",
      "city": "TULLINGE"
    },
    {
      "id": 4828,
      "postalCode": "14636",
      "city": "TULLINGE"
    },
    {
      "id": 4829,
      "postalCode": "14636",
      "city": "TULLINGE"
    },
    {
      "id": 4830,
      "postalCode": "14636",
      "city": "TULLINGE"
    },
    {
      "id": 4831,
      "postalCode": "14636",
      "city": "TULLINGE"
    },
    {
      "id": 4832,
      "postalCode": "14636",
      "city": "TULLINGE"
    },
    {
      "id": 4833,
      "postalCode": "14638",
      "city": "TULLINGE"
    },
    {
      "id": 4834,
      "postalCode": "14638",
      "city": "TULLINGE"
    },
    {
      "id": 4835,
      "postalCode": "14638",
      "city": "TULLINGE"
    },
    {
      "id": 4839,
      "postalCode": "14638",
      "city": "TULLINGE"
    },
    {
      "id": 4840,
      "postalCode": "14638",
      "city": "TULLINGE"
    },
    {
      "id": 4842,
      "postalCode": "14638",
      "city": "TULLINGE"
    },
    {
      "id": 4843,
      "postalCode": "14638",
      "city": "TULLINGE"
    },
    {
      "id": 4845,
      "postalCode": "14638",
      "city": "TULLINGE"
    },
    {
      "id": 4846,
      "postalCode": "14638",
      "city": "TULLINGE"
    },
    {
      "id": 4847,
      "postalCode": "14638",
      "city": "TULLINGE"
    },
    {
      "id": 4848,
      "postalCode": "14638",
      "city": "TULLINGE"
    },
    {
      "id": 4849,
      "postalCode": "14638",
      "city": "TULLINGE"
    },
    {
      "id": 4851,
      "postalCode": "14638",
      "city": "TULLINGE"
    },
    {
      "id": 4852,
      "postalCode": "14638",
      "city": "TULLINGE"
    },
    {
      "id": 4853,
      "postalCode": "14638",
      "city": "TULLINGE"
    },
    {
      "id": 4854,
      "postalCode": "14636",
      "city": "TULLINGE"
    },
    {
      "id": 4855,
      "postalCode": "14636",
      "city": "TULLINGE"
    },
    {
      "id": 4856,
      "postalCode": "14636",
      "city": "TULLINGE"
    },
    {
      "id": 4857,
      "postalCode": "14636",
      "city": "TULLINGE"
    },
    {
      "id": 4858,
      "postalCode": "14636",
      "city": "TULLINGE"
    },
    {
      "id": 4859,
      "postalCode": "14636",
      "city": "TULLINGE"
    },
    {
      "id": 4860,
      "postalCode": "14636",
      "city": "TULLINGE"
    },
    {
      "id": 4861,
      "postalCode": "14636",
      "city": "TULLINGE"
    },
    {
      "id": 4862,
      "postalCode": "14636",
      "city": "TULLINGE"
    },
    {
      "id": 4863,
      "postalCode": "14636",
      "city": "TULLINGE"
    },
    {
      "id": 4864,
      "postalCode": "14636",
      "city": "TULLINGE"
    },
    {
      "id": 4865,
      "postalCode": "14636",
      "city": "TULLINGE"
    },
    {
      "id": 4866,
      "postalCode": "14636",
      "city": "TULLINGE"
    },
    {
      "id": 4867,
      "postalCode": "14636",
      "city": "TULLINGE"
    },
    {
      "id": 4868,
      "postalCode": "14636",
      "city": "TULLINGE"
    },
    {
      "id": 4869,
      "postalCode": "14636",
      "city": "TULLINGE"
    },
    {
      "id": 4870,
      "postalCode": "14636",
      "city": "TULLINGE"
    },
    {
      "id": 4871,
      "postalCode": "14636",
      "city": "TULLINGE"
    },
    {
      "id": 4872,
      "postalCode": "14636",
      "city": "TULLINGE"
    },
    {
      "id": 4873,
      "postalCode": "14636",
      "city": "TULLINGE"
    },
    {
      "id": 4874,
      "postalCode": "14636",
      "city": "TULLINGE"
    },
    {
      "id": 4875,
      "postalCode": "14636",
      "city": "TULLINGE"
    },
    {
      "id": 4876,
      "postalCode": "14636",
      "city": "TULLINGE"
    },
    {
      "id": 4877,
      "postalCode": "14636",
      "city": "TULLINGE"
    },
    {
      "id": 4878,
      "postalCode": "14636",
      "city": "TULLINGE"
    },
    {
      "id": 4879,
      "postalCode": "14636",
      "city": "TULLINGE"
    },
    {
      "id": 4880,
      "postalCode": "14636",
      "city": "TULLINGE"
    },
    {
      "id": 4881,
      "postalCode": "14636",
      "city": "TULLINGE"
    },
    {
      "id": 4882,
      "postalCode": "14636",
      "city": "TULLINGE"
    },
    {
      "id": 4883,
      "postalCode": "14636",
      "city": "TULLINGE"
    },
    {
      "id": 4884,
      "postalCode": "14636",
      "city": "TULLINGE"
    },
    {
      "id": 4885,
      "postalCode": "14636",
      "city": "TULLINGE"
    },
    {
      "id": 4886,
      "postalCode": "14636",
      "city": "TULLINGE"
    },
    {
      "id": 4887,
      "postalCode": "14636",
      "city": "TULLINGE"
    },
    {
      "id": 4888,
      "postalCode": "14636",
      "city": "TULLINGE"
    },
    {
      "id": 4889,
      "postalCode": "14636",
      "city": "TULLINGE"
    },
    {
      "id": 4890,
      "postalCode": "14636",
      "city": "TULLINGE"
    },
    {
      "id": 4891,
      "postalCode": "14637",
      "city": "TULLINGE"
    },
    {
      "id": 4892,
      "postalCode": "14636",
      "city": "TULLINGE"
    },
    {
      "id": 4893,
      "postalCode": "14636",
      "city": "TULLINGE"
    },
    {
      "id": 4894,
      "postalCode": "14636",
      "city": "TULLINGE"
    },
    {
      "id": 4895,
      "postalCode": "14636",
      "city": "TULLINGE"
    },
    {
      "id": 4896,
      "postalCode": "14636",
      "city": "TULLINGE"
    },
    {
      "id": 4897,
      "postalCode": "14636",
      "city": "TULLINGE"
    },
    {
      "id": 4898,
      "postalCode": "14636",
      "city": "TULLINGE"
    },
    {
      "id": 4899,
      "postalCode": "14636",
      "city": "TULLINGE"
    },
    {
      "id": 4900,
      "postalCode": "14636",
      "city": "TULLINGE"
    },
    {
      "id": 4901,
      "postalCode": "14636",
      "city": "TULLINGE"
    },
    {
      "id": 4902,
      "postalCode": "14636",
      "city": "TULLINGE"
    },
    {
      "id": 4903,
      "postalCode": "14636",
      "city": "TULLINGE"
    },
    {
      "id": 4904,
      "postalCode": "14636",
      "city": "TULLINGE"
    },
    {
      "id": 4905,
      "postalCode": "14636",
      "city": "TULLINGE"
    },
    {
      "id": 4906,
      "postalCode": "14636",
      "city": "TULLINGE"
    },
    {
      "id": 4907,
      "postalCode": "14636",
      "city": "TULLINGE"
    },
    {
      "id": 4908,
      "postalCode": "14636",
      "city": "TULLINGE"
    },
    {
      "id": 4909,
      "postalCode": "14636",
      "city": "TULLINGE"
    },
    {
      "id": 4910,
      "postalCode": "14636",
      "city": "TULLINGE"
    },
    {
      "id": 4911,
      "postalCode": "14636",
      "city": "TULLINGE"
    },
    {
      "id": 4912,
      "postalCode": "14636",
      "city": "TULLINGE"
    },
    {
      "id": 4913,
      "postalCode": "14634",
      "city": "TULLINGE"
    },
    {
      "id": 4914,
      "postalCode": "14636",
      "city": "TULLINGE"
    },
    {
      "id": 4915,
      "postalCode": "14636",
      "city": "TULLINGE"
    },
    {
      "id": 4916,
      "postalCode": "14636",
      "city": "TULLINGE"
    },
    {
      "id": 4917,
      "postalCode": "14636",
      "city": "TULLINGE"
    },
    {
      "id": 4918,
      "postalCode": "14636",
      "city": "TULLINGE"
    },
    {
      "id": 4919,
      "postalCode": "14636",
      "city": "TULLINGE"
    },
    {
      "id": 4920,
      "postalCode": "14636",
      "city": "TULLINGE"
    },
    {
      "id": 4921,
      "postalCode": "14636",
      "city": "TULLINGE"
    },
    {
      "id": 4922,
      "postalCode": "14636",
      "city": "TULLINGE"
    },
    {
      "id": 4923,
      "postalCode": "14636",
      "city": "TULLINGE"
    },
    {
      "id": 4924,
      "postalCode": "14636",
      "city": "TULLINGE"
    },
    {
      "id": 4925,
      "postalCode": "14636",
      "city": "TULLINGE"
    },
    {
      "id": 4926,
      "postalCode": "14636",
      "city": "TULLINGE"
    },
    {
      "id": 4927,
      "postalCode": "14636",
      "city": "TULLINGE"
    },
    {
      "id": 4928,
      "postalCode": "14636",
      "city": "TULLINGE"
    },
    {
      "id": 4929,
      "postalCode": "14636",
      "city": "TULLINGE"
    },
    {
      "id": 4930,
      "postalCode": "14636",
      "city": "TULLINGE"
    },
    {
      "id": 4931,
      "postalCode": "14636",
      "city": "TULLINGE"
    },
    {
      "id": 4932,
      "postalCode": "14638",
      "city": "TULLINGE"
    },
    {
      "id": 4935,
      "postalCode": "14638",
      "city": "TULLINGE"
    },
    {
      "id": 4938,
      "postalCode": "14638",
      "city": "TULLINGE"
    },
    {
      "id": 4940,
      "postalCode": "14638",
      "city": "TULLINGE"
    },
    {
      "id": 4943,
      "postalCode": "14638",
      "city": "TULLINGE"
    },
    {
      "id": 4945,
      "postalCode": "14638",
      "city": "TULLINGE"
    },
    {
      "id": 4946,
      "postalCode": "14638",
      "city": "TULLINGE"
    },
    {
      "id": 4947,
      "postalCode": "14638",
      "city": "TULLINGE"
    },
    {
      "id": 4948,
      "postalCode": "14638",
      "city": "TULLINGE"
    },
    {
      "id": 4950,
      "postalCode": "14638",
      "city": "TULLINGE"
    },
    {
      "id": 4951,
      "postalCode": "14638",
      "city": "TULLINGE"
    },
    {
      "id": 4952,
      "postalCode": "14638",
      "city": "TULLINGE"
    },
    {
      "id": 4953,
      "postalCode": "14638",
      "city": "TULLINGE"
    },
    {
      "id": 4954,
      "postalCode": "14638",
      "city": "TULLINGE"
    },
    {
      "id": 4955,
      "postalCode": "14638",
      "city": "TULLINGE"
    },
    {
      "id": 4956,
      "postalCode": "14638",
      "city": "TULLINGE"
    },
    {
      "id": 4957,
      "postalCode": "14638",
      "city": "TULLINGE"
    },
    {
      "id": 4958,
      "postalCode": "14638",
      "city": "TULLINGE"
    },
    {
      "id": 4959,
      "postalCode": "14638",
      "city": "TULLINGE"
    },
    {
      "id": 4960,
      "postalCode": "14638",
      "city": "TULLINGE"
    },
    {
      "id": 4961,
      "postalCode": "14638",
      "city": "TULLINGE"
    },
    {
      "id": 4962,
      "postalCode": "14638",
      "city": "TULLINGE"
    },
    {
      "id": 4963,
      "postalCode": "14638",
      "city": "TULLINGE"
    },
    {
      "id": 4964,
      "postalCode": "14638",
      "city": "TULLINGE"
    },
    {
      "id": 4965,
      "postalCode": "14638",
      "city": "TULLINGE"
    },
    {
      "id": 4966,
      "postalCode": "14638",
      "city": "TULLINGE"
    },
    {
      "id": 4967,
      "postalCode": "14638",
      "city": "TULLINGE"
    },
    {
      "id": 4968,
      "postalCode": "14638",
      "city": "TULLINGE"
    },
    {
      "id": 4969,
      "postalCode": "14638",
      "city": "TULLINGE"
    },
    {
      "id": 4970,
      "postalCode": "14638",
      "city": "TULLINGE"
    },
    {
      "id": 4971,
      "postalCode": "14638",
      "city": "TULLINGE"
    },
    {
      "id": 4972,
      "postalCode": "14638",
      "city": "TULLINGE"
    },
    {
      "id": 4974,
      "postalCode": "14636",
      "city": "TULLINGE"
    },
    {
      "id": 4975,
      "postalCode": "14636",
      "city": "TULLINGE"
    },
    {
      "id": 4976,
      "postalCode": "14636",
      "city": "TULLINGE"
    },
    {
      "id": 4977,
      "postalCode": "14648",
      "city": "TULLINGE"
    },
    {
      "id": 4978,
      "postalCode": "14648",
      "city": "TULLINGE"
    },
    {
      "id": 4979,
      "postalCode": "14638",
      "city": "TULLINGE"
    },
    {
      "id": 4980,
      "postalCode": "14638",
      "city": "TULLINGE"
    },
    {
      "id": 4981,
      "postalCode": "14638",
      "city": "TULLINGE"
    },
    {
      "id": 4982,
      "postalCode": "14638",
      "city": "TULLINGE"
    },
    {
      "id": 4983,
      "postalCode": "14638",
      "city": "TULLINGE"
    },
    {
      "id": 4984,
      "postalCode": "14638",
      "city": "TULLINGE"
    },
    {
      "id": 4985,
      "postalCode": "14638",
      "city": "TULLINGE"
    },
    {
      "id": 4986,
      "postalCode": "14638",
      "city": "TULLINGE"
    },
    {
      "id": 4987,
      "postalCode": "14638",
      "city": "TULLINGE"
    },
    {
      "id": 4988,
      "postalCode": "14638",
      "city": "TULLINGE"
    },
    {
      "id": 4989,
      "postalCode": "14638",
      "city": "TULLINGE"
    },
    {
      "id": 4990,
      "postalCode": "14150",
      "city": "HUDDINGE"
    },
    {
      "id": 4991,
      "postalCode": "14744",
      "city": "TUMBA"
    },
    {
      "id": 4992,
      "postalCode": "14744",
      "city": "TUMBA"
    },
    {
      "id": 4993,
      "postalCode": "14744",
      "city": "TUMBA"
    },
    {
      "id": 4994,
      "postalCode": "14744",
      "city": "TUMBA"
    },
    {
      "id": 4995,
      "postalCode": "14744",
      "city": "TUMBA"
    },
    {
      "id": 4996,
      "postalCode": "14744",
      "city": "TUMBA"
    },
    {
      "id": 4997,
      "postalCode": "14744",
      "city": "TUMBA"
    },
    {
      "id": 4998,
      "postalCode": "14743",
      "city": "TUMBA"
    },
    {
      "id": 4999,
      "postalCode": "14743",
      "city": "TUMBA"
    },
    {
      "id": 5000,
      "postalCode": "14742",
      "city": "TUMBA"
    },
    {
      "id": 5001,
      "postalCode": "14742",
      "city": "TUMBA"
    },
    {
      "id": 5002,
      "postalCode": "14742",
      "city": "TUMBA"
    },
    {
      "id": 5003,
      "postalCode": "14742",
      "city": "TUMBA"
    },
    {
      "id": 5004,
      "postalCode": "14742",
      "city": "TUMBA"
    },
    {
      "id": 5005,
      "postalCode": "14742",
      "city": "TUMBA"
    },
    {
      "id": 5006,
      "postalCode": "14742",
      "city": "TUMBA"
    },
    {
      "id": 5007,
      "postalCode": "14745",
      "city": "TUMBA"
    },
    {
      "id": 5008,
      "postalCode": "14638",
      "city": "TULLINGE"
    },
    {
      "id": 5009,
      "postalCode": "14743",
      "city": "TUMBA"
    },
    {
      "id": 5010,
      "postalCode": "14743",
      "city": "TUMBA"
    },
    {
      "id": 5011,
      "postalCode": "14743",
      "city": "TUMBA"
    },
    {
      "id": 5012,
      "postalCode": "14743",
      "city": "TUMBA"
    },
    {
      "id": 5013,
      "postalCode": "14741",
      "city": "TUMBA"
    },
    {
      "id": 5015,
      "postalCode": "14741",
      "city": "TUMBA"
    },
    {
      "id": 5016,
      "postalCode": "14741",
      "city": "TUMBA"
    },
    {
      "id": 5018,
      "postalCode": "14742",
      "city": "TUMBA"
    },
    {
      "id": 5019,
      "postalCode": "14742",
      "city": "TUMBA"
    },
    {
      "id": 5020,
      "postalCode": "14742",
      "city": "TUMBA"
    },
    {
      "id": 5021,
      "postalCode": "14742",
      "city": "TUMBA"
    },
    {
      "id": 5022,
      "postalCode": "14742",
      "city": "TUMBA"
    },
    {
      "id": 5023,
      "postalCode": "14742",
      "city": "TUMBA"
    },
    {
      "id": 5024,
      "postalCode": "14742",
      "city": "TUMBA"
    },
    {
      "id": 5025,
      "postalCode": "14742",
      "city": "TUMBA"
    },
    {
      "id": 5026,
      "postalCode": "14742",
      "city": "TUMBA"
    },
    {
      "id": 5027,
      "postalCode": "14742",
      "city": "TUMBA"
    },
    {
      "id": 5028,
      "postalCode": "14742",
      "city": "TUMBA"
    },
    {
      "id": 5029,
      "postalCode": "14742",
      "city": "TUMBA"
    },
    {
      "id": 5030,
      "postalCode": "14742",
      "city": "TUMBA"
    },
    {
      "id": 5031,
      "postalCode": "14742",
      "city": "TUMBA"
    },
    {
      "id": 5032,
      "postalCode": "14742",
      "city": "TUMBA"
    },
    {
      "id": 5033,
      "postalCode": "14742",
      "city": "TUMBA"
    },
    {
      "id": 5034,
      "postalCode": "14742",
      "city": "TUMBA"
    },
    {
      "id": 5035,
      "postalCode": "14742",
      "city": "TUMBA"
    },
    {
      "id": 5036,
      "postalCode": "14742",
      "city": "TUMBA"
    },
    {
      "id": 5037,
      "postalCode": "14742",
      "city": "TUMBA"
    },
    {
      "id": 5038,
      "postalCode": "14742",
      "city": "TUMBA"
    },
    {
      "id": 5040,
      "postalCode": "14743",
      "city": "TUMBA"
    },
    {
      "id": 5041,
      "postalCode": "14743",
      "city": "TUMBA"
    },
    {
      "id": 5042,
      "postalCode": "14743",
      "city": "TUMBA"
    },
    {
      "id": 5043,
      "postalCode": "14743",
      "city": "TUMBA"
    },
    {
      "id": 5044,
      "postalCode": "14743",
      "city": "TUMBA"
    },
    {
      "id": 5046,
      "postalCode": "14743",
      "city": "TUMBA"
    },
    {
      "id": 5047,
      "postalCode": "14743",
      "city": "TUMBA"
    },
    {
      "id": 5048,
      "postalCode": "14743",
      "city": "TUMBA"
    },
    {
      "id": 5049,
      "postalCode": "14743",
      "city": "TUMBA"
    },
    {
      "id": 5050,
      "postalCode": "14743",
      "city": "TUMBA"
    },
    {
      "id": 5051,
      "postalCode": "14743",
      "city": "TUMBA"
    },
    {
      "id": 5052,
      "postalCode": "14743",
      "city": "TUMBA"
    },
    {
      "id": 5053,
      "postalCode": "14743",
      "city": "TUMBA"
    },
    {
      "id": 5054,
      "postalCode": "14743",
      "city": "TUMBA"
    },
    {
      "id": 5055,
      "postalCode": "14743",
      "city": "TUMBA"
    },
    {
      "id": 5056,
      "postalCode": "14743",
      "city": "TUMBA"
    },
    {
      "id": 5057,
      "postalCode": "14743",
      "city": "TUMBA"
    },
    {
      "id": 5058,
      "postalCode": "14743",
      "city": "TUMBA"
    },
    {
      "id": 5059,
      "postalCode": "14744",
      "city": "TUMBA"
    },
    {
      "id": 5060,
      "postalCode": "14785",
      "city": "TUMBA"
    },
    {
      "id": 5061,
      "postalCode": "14785",
      "city": "TUMBA"
    },
    {
      "id": 5062,
      "postalCode": "14730",
      "city": "TUMBA"
    },
    {
      "id": 5063,
      "postalCode": "14730",
      "city": "TUMBA"
    },
    {
      "id": 5064,
      "postalCode": "14785",
      "city": "TUMBA"
    },
    {
      "id": 5065,
      "postalCode": "14785",
      "city": "TUMBA"
    },
    {
      "id": 5066,
      "postalCode": "14785",
      "city": "TUMBA"
    },
    {
      "id": 5067,
      "postalCode": "14742",
      "city": "TUMBA"
    },
    {
      "id": 5068,
      "postalCode": "14742",
      "city": "TUMBA"
    },
    {
      "id": 5069,
      "postalCode": "14742",
      "city": "TUMBA"
    },
    {
      "id": 5070,
      "postalCode": "14742",
      "city": "TUMBA"
    },
    {
      "id": 5071,
      "postalCode": "14742",
      "city": "TUMBA"
    },
    {
      "id": 5072,
      "postalCode": "14742",
      "city": "TUMBA"
    },
    {
      "id": 5073,
      "postalCode": "14742",
      "city": "TUMBA"
    },
    {
      "id": 5074,
      "postalCode": "14743",
      "city": "TUMBA"
    },
    {
      "id": 5075,
      "postalCode": "14743",
      "city": "TUMBA"
    },
    {
      "id": 5076,
      "postalCode": "14743",
      "city": "TUMBA"
    },
    {
      "id": 5077,
      "postalCode": "14746",
      "city": "TUMBA"
    },
    {
      "id": 5078,
      "postalCode": "14746",
      "city": "TUMBA"
    },
    {
      "id": 5080,
      "postalCode": "14743",
      "city": "TUMBA"
    },
    {
      "id": 5081,
      "postalCode": "14743",
      "city": "TUMBA"
    },
    {
      "id": 5082,
      "postalCode": "14743",
      "city": "TUMBA"
    },
    {
      "id": 5083,
      "postalCode": "14743",
      "city": "TUMBA"
    },
    {
      "id": 5084,
      "postalCode": "14743",
      "city": "TUMBA"
    },
    {
      "id": 5087,
      "postalCode": "14740",
      "city": "TUMBA"
    },
    {
      "id": 5088,
      "postalCode": "14740",
      "city": "TUMBA"
    },
    {
      "id": 5089,
      "postalCode": "14740",
      "city": "TUMBA"
    },
    {
      "id": 5090,
      "postalCode": "14740",
      "city": "TUMBA"
    },
    {
      "id": 5091,
      "postalCode": "14741",
      "city": "TUMBA"
    },
    {
      "id": 5092,
      "postalCode": "14741",
      "city": "TUMBA"
    },
    {
      "id": 5093,
      "postalCode": "14741",
      "city": "TUMBA"
    },
    {
      "id": 5094,
      "postalCode": "14752",
      "city": "TUMBA"
    },
    {
      "id": 5095,
      "postalCode": "14752",
      "city": "TUMBA"
    },
    {
      "id": 5096,
      "postalCode": "14752",
      "city": "TUMBA"
    },
    {
      "id": 5097,
      "postalCode": "14752",
      "city": "TUMBA"
    },
    {
      "id": 5098,
      "postalCode": "14752",
      "city": "TUMBA"
    },
    {
      "id": 5099,
      "postalCode": "14743",
      "city": "TUMBA"
    },
    {
      "id": 5100,
      "postalCode": "14743",
      "city": "TUMBA"
    },
    {
      "id": 5101,
      "postalCode": "14743",
      "city": "TUMBA"
    },
    {
      "id": 5102,
      "postalCode": "14743",
      "city": "TUMBA"
    },
    {
      "id": 5103,
      "postalCode": "14743",
      "city": "TUMBA"
    },
    {
      "id": 5104,
      "postalCode": "14743",
      "city": "TUMBA"
    },
    {
      "id": 5105,
      "postalCode": "14743",
      "city": "TUMBA"
    },
    {
      "id": 5106,
      "postalCode": "14743",
      "city": "TUMBA"
    },
    {
      "id": 5107,
      "postalCode": "14743",
      "city": "TUMBA"
    },
    {
      "id": 5108,
      "postalCode": "14743",
      "city": "TUMBA"
    },
    {
      "id": 5109,
      "postalCode": "14743",
      "city": "TUMBA"
    },
    {
      "id": 5110,
      "postalCode": "14743",
      "city": "TUMBA"
    },
    {
      "id": 5111,
      "postalCode": "14743",
      "city": "TUMBA"
    },
    {
      "id": 5112,
      "postalCode": "14743",
      "city": "TUMBA"
    },
    {
      "id": 5113,
      "postalCode": "14743",
      "city": "TUMBA"
    },
    {
      "id": 5114,
      "postalCode": "14743",
      "city": "TUMBA"
    },
    {
      "id": 5115,
      "postalCode": "14743",
      "city": "TUMBA"
    },
    {
      "id": 5116,
      "postalCode": "14743",
      "city": "TUMBA"
    },
    {
      "id": 5117,
      "postalCode": "14743",
      "city": "TUMBA"
    },
    {
      "id": 5118,
      "postalCode": "14743",
      "city": "TUMBA"
    },
    {
      "id": 5119,
      "postalCode": "14743",
      "city": "TUMBA"
    },
    {
      "id": 5120,
      "postalCode": "14743",
      "city": "TUMBA"
    },
    {
      "id": 5121,
      "postalCode": "14743",
      "city": "TUMBA"
    },
    {
      "id": 5122,
      "postalCode": "14743",
      "city": "TUMBA"
    },
    {
      "id": 5123,
      "postalCode": "14743",
      "city": "TUMBA"
    },
    {
      "id": 5124,
      "postalCode": "14743",
      "city": "TUMBA"
    },
    {
      "id": 5125,
      "postalCode": "14743",
      "city": "TUMBA"
    },
    {
      "id": 5126,
      "postalCode": "14743",
      "city": "TUMBA"
    },
    {
      "id": 5127,
      "postalCode": "14743",
      "city": "TUMBA"
    },
    {
      "id": 5128,
      "postalCode": "14743",
      "city": "TUMBA"
    },
    {
      "id": 5129,
      "postalCode": "14743",
      "city": "TUMBA"
    },
    {
      "id": 5130,
      "postalCode": "14743",
      "city": "TUMBA"
    },
    {
      "id": 5131,
      "postalCode": "14743",
      "city": "TUMBA"
    },
    {
      "id": 5132,
      "postalCode": "14743",
      "city": "TUMBA"
    },
    {
      "id": 5133,
      "postalCode": "14743",
      "city": "TUMBA"
    },
    {
      "id": 5134,
      "postalCode": "14743",
      "city": "TUMBA"
    },
    {
      "id": 5135,
      "postalCode": "14743",
      "city": "TUMBA"
    },
    {
      "id": 5136,
      "postalCode": "14743",
      "city": "TUMBA"
    },
    {
      "id": 5137,
      "postalCode": "14743",
      "city": "TUMBA"
    },
    {
      "id": 5138,
      "postalCode": "14743",
      "city": "TUMBA"
    },
    {
      "id": 5140,
      "postalCode": "14741",
      "city": "TUMBA"
    },
    {
      "id": 5141,
      "postalCode": "14741",
      "city": "TUMBA"
    },
    {
      "id": 5143,
      "postalCode": "14741",
      "city": "TUMBA"
    },
    {
      "id": 5144,
      "postalCode": "14743",
      "city": "TUMBA"
    },
    {
      "id": 5145,
      "postalCode": "14743",
      "city": "TUMBA"
    },
    {
      "id": 5146,
      "postalCode": "14743",
      "city": "TUMBA"
    },
    {
      "id": 5147,
      "postalCode": "14744",
      "city": "TUMBA"
    },
    {
      "id": 5148,
      "postalCode": "14744",
      "city": "TUMBA"
    },
    {
      "id": 5149,
      "postalCode": "14744",
      "city": "TUMBA"
    },
    {
      "id": 5150,
      "postalCode": "14744",
      "city": "TUMBA"
    },
    {
      "id": 5151,
      "postalCode": "14744",
      "city": "TUMBA"
    },
    {
      "id": 5152,
      "postalCode": "14743",
      "city": "TUMBA"
    },
    {
      "id": 5153,
      "postalCode": "14743",
      "city": "TUMBA"
    },
    {
      "id": 5154,
      "postalCode": "14743",
      "city": "TUMBA"
    },
    {
      "id": 5155,
      "postalCode": "14743",
      "city": "TUMBA"
    },
    {
      "id": 5156,
      "postalCode": "14743",
      "city": "TUMBA"
    },
    {
      "id": 5157,
      "postalCode": "14743",
      "city": "TUMBA"
    },
    {
      "id": 5158,
      "postalCode": "14743",
      "city": "TUMBA"
    },
    {
      "id": 5159,
      "postalCode": "14743",
      "city": "TUMBA"
    },
    {
      "id": 5160,
      "postalCode": "14743",
      "city": "TUMBA"
    },
    {
      "id": 5161,
      "postalCode": "14743",
      "city": "TUMBA"
    },
    {
      "id": 5162,
      "postalCode": "14743",
      "city": "TUMBA"
    },
    {
      "id": 5163,
      "postalCode": "14743",
      "city": "TUMBA"
    },
    {
      "id": 5164,
      "postalCode": "14743",
      "city": "TUMBA"
    },
    {
      "id": 5165,
      "postalCode": "14743",
      "city": "TUMBA"
    },
    {
      "id": 5166,
      "postalCode": "14743",
      "city": "TUMBA"
    },
    {
      "id": 5167,
      "postalCode": "14743",
      "city": "TUMBA"
    },
    {
      "id": 5168,
      "postalCode": "14743",
      "city": "TUMBA"
    },
    {
      "id": 5169,
      "postalCode": "14731",
      "city": "TUMBA"
    },
    {
      "id": 5170,
      "postalCode": "14731",
      "city": "TUMBA"
    },
    {
      "id": 5171,
      "postalCode": "14731",
      "city": "TUMBA"
    },
    {
      "id": 5172,
      "postalCode": "14731",
      "city": "TUMBA"
    },
    {
      "id": 5174,
      "postalCode": "14733",
      "city": "TUMBA"
    },
    {
      "id": 5175,
      "postalCode": "14752",
      "city": "TUMBA"
    },
    {
      "id": 5176,
      "postalCode": "14752",
      "city": "TUMBA"
    },
    {
      "id": 5177,
      "postalCode": "14752",
      "city": "TUMBA"
    },
    {
      "id": 5178,
      "postalCode": "14752",
      "city": "TUMBA"
    },
    {
      "id": 5179,
      "postalCode": "14752",
      "city": "TUMBA"
    },
    {
      "id": 5180,
      "postalCode": "14752",
      "city": "TUMBA"
    },
    {
      "id": 5181,
      "postalCode": "14752",
      "city": "TUMBA"
    },
    {
      "id": 5182,
      "postalCode": "14752",
      "city": "TUMBA"
    },
    {
      "id": 5183,
      "postalCode": "14752",
      "city": "TUMBA"
    },
    {
      "id": 5184,
      "postalCode": "14752",
      "city": "TUMBA"
    },
    {
      "id": 5185,
      "postalCode": "14752",
      "city": "TUMBA"
    },
    {
      "id": 5186,
      "postalCode": "14752",
      "city": "TUMBA"
    },
    {
      "id": 5187,
      "postalCode": "14752",
      "city": "TUMBA"
    },
    {
      "id": 5188,
      "postalCode": "14752",
      "city": "TUMBA"
    },
    {
      "id": 5189,
      "postalCode": "14752",
      "city": "TUMBA"
    },
    {
      "id": 5190,
      "postalCode": "14752",
      "city": "TUMBA"
    },
    {
      "id": 5191,
      "postalCode": "14752",
      "city": "TUMBA"
    },
    {
      "id": 5192,
      "postalCode": "14752",
      "city": "TUMBA"
    },
    {
      "id": 5193,
      "postalCode": "14752",
      "city": "TUMBA"
    },
    {
      "id": 5194,
      "postalCode": "14752",
      "city": "TUMBA"
    },
    {
      "id": 5195,
      "postalCode": "14752",
      "city": "TUMBA"
    },
    {
      "id": 5196,
      "postalCode": "14752",
      "city": "TUMBA"
    },
    {
      "id": 5197,
      "postalCode": "14752",
      "city": "TUMBA"
    },
    {
      "id": 5198,
      "postalCode": "14752",
      "city": "TUMBA"
    },
    {
      "id": 5199,
      "postalCode": "14752",
      "city": "TUMBA"
    },
    {
      "id": 5200,
      "postalCode": "14752",
      "city": "TUMBA"
    },
    {
      "id": 5201,
      "postalCode": "14731",
      "city": "TUMBA"
    },
    {
      "id": 5202,
      "postalCode": "14731",
      "city": "TUMBA"
    },
    {
      "id": 5203,
      "postalCode": "14731",
      "city": "TUMBA"
    },
    {
      "id": 5204,
      "postalCode": "14731",
      "city": "TUMBA"
    },
    {
      "id": 5205,
      "postalCode": "14731",
      "city": "TUMBA"
    },
    {
      "id": 5206,
      "postalCode": "14731",
      "city": "TUMBA"
    },
    {
      "id": 5207,
      "postalCode": "14731",
      "city": "TUMBA"
    },
    {
      "id": 5208,
      "postalCode": "14731",
      "city": "TUMBA"
    },
    {
      "id": 5209,
      "postalCode": "14733",
      "city": "TUMBA"
    },
    {
      "id": 5210,
      "postalCode": "14733",
      "city": "TUMBA"
    },
    {
      "id": 5211,
      "postalCode": "14733",
      "city": "TUMBA"
    },
    {
      "id": 5212,
      "postalCode": "14733",
      "city": "TUMBA"
    },
    {
      "id": 5213,
      "postalCode": "14733",
      "city": "TUMBA"
    },
    {
      "id": 5214,
      "postalCode": "14733",
      "city": "TUMBA"
    },
    {
      "id": 5215,
      "postalCode": "14733",
      "city": "TUMBA"
    },
    {
      "id": 5216,
      "postalCode": "14733",
      "city": "TUMBA"
    },
    {
      "id": 5217,
      "postalCode": "14733",
      "city": "TUMBA"
    },
    {
      "id": 5218,
      "postalCode": "14733",
      "city": "TUMBA"
    },
    {
      "id": 5219,
      "postalCode": "14733",
      "city": "TUMBA"
    },
    {
      "id": 5220,
      "postalCode": "14733",
      "city": "TUMBA"
    },
    {
      "id": 5221,
      "postalCode": "14733",
      "city": "TUMBA"
    },
    {
      "id": 5222,
      "postalCode": "14733",
      "city": "TUMBA"
    },
    {
      "id": 5223,
      "postalCode": "14733",
      "city": "TUMBA"
    },
    {
      "id": 5224,
      "postalCode": "14733",
      "city": "TUMBA"
    },
    {
      "id": 5225,
      "postalCode": "14733",
      "city": "TUMBA"
    },
    {
      "id": 5226,
      "postalCode": "14733",
      "city": "TUMBA"
    },
    {
      "id": 5227,
      "postalCode": "14733",
      "city": "TUMBA"
    },
    {
      "id": 5229,
      "postalCode": "14733",
      "city": "TUMBA"
    },
    {
      "id": 5230,
      "postalCode": "14733",
      "city": "TUMBA"
    },
    {
      "id": 5231,
      "postalCode": "14733",
      "city": "TUMBA"
    },
    {
      "id": 5232,
      "postalCode": "14733",
      "city": "TUMBA"
    },
    {
      "id": 5233,
      "postalCode": "14733",
      "city": "TUMBA"
    },
    {
      "id": 5234,
      "postalCode": "14733",
      "city": "TUMBA"
    },
    {
      "id": 5235,
      "postalCode": "14733",
      "city": "TUMBA"
    },
    {
      "id": 5236,
      "postalCode": "14733",
      "city": "TUMBA"
    },
    {
      "id": 5237,
      "postalCode": "14733",
      "city": "TUMBA"
    },
    {
      "id": 5238,
      "postalCode": "14733",
      "city": "TUMBA"
    },
    {
      "id": 5239,
      "postalCode": "14733",
      "city": "TUMBA"
    },
    {
      "id": 5240,
      "postalCode": "14733",
      "city": "TUMBA"
    }
  ]