[
    {
      "id": 11663,
      "postalCode": "14732",
      "city": "TUMBA"
    },
    {
      "id": 11664,
      "postalCode": "14732",
      "city": "TUMBA"
    },
    {
      "id": 11665,
      "postalCode": "14732",
      "city": "TUMBA"
    },
    {
      "id": 11666,
      "postalCode": "14732",
      "city": "TUMBA"
    },
    {
      "id": 11667,
      "postalCode": "14732",
      "city": "TUMBA"
    },
    {
      "id": 11668,
      "postalCode": "14732",
      "city": "TUMBA"
    },
    {
      "id": 11669,
      "postalCode": "14732",
      "city": "TUMBA"
    },
    {
      "id": 11670,
      "postalCode": "14732",
      "city": "TUMBA"
    },
    {
      "id": 11671,
      "postalCode": "14732",
      "city": "TUMBA"
    },
    {
      "id": 11672,
      "postalCode": "14732",
      "city": "TUMBA"
    },
    {
      "id": 11673,
      "postalCode": "14732",
      "city": "TUMBA"
    },
    {
      "id": 11674,
      "postalCode": "14732",
      "city": "TUMBA"
    },
    {
      "id": 11675,
      "postalCode": "14732",
      "city": "TUMBA"
    },
    {
      "id": 11676,
      "postalCode": "14732",
      "city": "TUMBA"
    },
    {
      "id": 11677,
      "postalCode": "14732",
      "city": "TUMBA"
    },
    {
      "id": 11678,
      "postalCode": "14732",
      "city": "TUMBA"
    },
    {
      "id": 11679,
      "postalCode": "14732",
      "city": "TUMBA"
    },
    {
      "id": 11680,
      "postalCode": "14732",
      "city": "TUMBA"
    },
    {
      "id": 11681,
      "postalCode": "14732",
      "city": "TUMBA"
    },
    {
      "id": 11682,
      "postalCode": "14732",
      "city": "TUMBA"
    },
    {
      "id": 11683,
      "postalCode": "14732",
      "city": "TUMBA"
    },
    {
      "id": 11684,
      "postalCode": "14732",
      "city": "TUMBA"
    },
    {
      "id": 11685,
      "postalCode": "14732",
      "city": "TUMBA"
    },
    {
      "id": 11686,
      "postalCode": "14732",
      "city": "TUMBA"
    },
    {
      "id": 11687,
      "postalCode": "14732",
      "city": "TUMBA"
    },
    {
      "id": 11688,
      "postalCode": "14732",
      "city": "TUMBA"
    },
    {
      "id": 11689,
      "postalCode": "14732",
      "city": "TUMBA"
    },
    {
      "id": 11690,
      "postalCode": "14732",
      "city": "TUMBA"
    },
    {
      "id": 11691,
      "postalCode": "14734",
      "city": "TUMBA"
    },
    {
      "id": 11692,
      "postalCode": "14733",
      "city": "TUMBA"
    },
    {
      "id": 11693,
      "postalCode": "14733",
      "city": "TUMBA"
    },
    {
      "id": 11694,
      "postalCode": "14733",
      "city": "TUMBA"
    },
    {
      "id": 11695,
      "postalCode": "14733",
      "city": "TUMBA"
    },
    {
      "id": 11696,
      "postalCode": "14734",
      "city": "TUMBA"
    },
    {
      "id": 11697,
      "postalCode": "14551",
      "city": "NORSBORG"
    },
    {
      "id": 11698,
      "postalCode": "14551",
      "city": "NORSBORG"
    },
    {
      "id": 11699,
      "postalCode": "14763",
      "city": "TUMBA"
    },
    {
      "id": 11700,
      "postalCode": "14763",
      "city": "TUMBA"
    },
    {
      "id": 11701,
      "postalCode": "14763",
      "city": "TUMBA"
    },
    {
      "id": 11702,
      "postalCode": "14763",
      "city": "TUMBA"
    },
    {
      "id": 11703,
      "postalCode": "14763",
      "city": "TUMBA"
    },
    {
      "id": 11704,
      "postalCode": "14763",
      "city": "TUMBA"
    },
    {
      "id": 11705,
      "postalCode": "14763",
      "city": "TUMBA"
    },
    {
      "id": 11706,
      "postalCode": "14763",
      "city": "TUMBA"
    },
    {
      "id": 11707,
      "postalCode": "14763",
      "city": "TUMBA"
    },
    {
      "id": 11708,
      "postalCode": "14763",
      "city": "TUMBA"
    },
    {
      "id": 11709,
      "postalCode": "14763",
      "city": "TUMBA"
    },
    {
      "id": 11710,
      "postalCode": "14763",
      "city": "TUMBA"
    },
    {
      "id": 11711,
      "postalCode": "14763",
      "city": "TUMBA"
    },
    {
      "id": 11712,
      "postalCode": "14763",
      "city": "TUMBA"
    },
    {
      "id": 11713,
      "postalCode": "14763",
      "city": "TUMBA"
    },
    {
      "id": 11714,
      "postalCode": "14763",
      "city": "TUMBA"
    },
    {
      "id": 11715,
      "postalCode": "14763",
      "city": "TUMBA"
    },
    {
      "id": 11716,
      "postalCode": "14763",
      "city": "TUMBA"
    },
    {
      "id": 11717,
      "postalCode": "14763",
      "city": "TUMBA"
    },
    {
      "id": 11718,
      "postalCode": "14763",
      "city": "TUMBA"
    },
    {
      "id": 11719,
      "postalCode": "14763",
      "city": "TUMBA"
    },
    {
      "id": 11720,
      "postalCode": "14763",
      "city": "TUMBA"
    },
    {
      "id": 11721,
      "postalCode": "14638",
      "city": "TULLINGE"
    },
    {
      "id": 11722,
      "postalCode": "14638",
      "city": "TULLINGE"
    },
    {
      "id": 11723,
      "postalCode": "14638",
      "city": "TULLINGE"
    },
    {
      "id": 11724,
      "postalCode": "14763",
      "city": "TUMBA"
    },
    {
      "id": 11725,
      "postalCode": "14763",
      "city": "TUMBA"
    },
    {
      "id": 11726,
      "postalCode": "14763",
      "city": "TUMBA"
    },
    {
      "id": 11727,
      "postalCode": "14763",
      "city": "TUMBA"
    },
    {
      "id": 11728,
      "postalCode": "14763",
      "city": "TUMBA"
    },
    {
      "id": 11729,
      "postalCode": "14763",
      "city": "TUMBA"
    },
    {
      "id": 11730,
      "postalCode": "14763",
      "city": "TUMBA"
    },
    {
      "id": 11731,
      "postalCode": "14763",
      "city": "UTTRAN"
    },
    {
      "id": 11732,
      "postalCode": "14763",
      "city": "TUMBA"
    },
    {
      "id": 11733,
      "postalCode": "14763",
      "city": "TUMBA"
    },
    {
      "id": 11734,
      "postalCode": "14763",
      "city": "TUMBA"
    },
    {
      "id": 11735,
      "postalCode": "14733",
      "city": "TUMBA"
    },
    {
      "id": 11736,
      "postalCode": "14733",
      "city": "TUMBA"
    },
    {
      "id": 11737,
      "postalCode": "14733",
      "city": "TUMBA"
    },
    {
      "id": 11738,
      "postalCode": "14732",
      "city": "TUMBA"
    },
    {
      "id": 11739,
      "postalCode": "14732",
      "city": "TUMBA"
    },
    {
      "id": 11740,
      "postalCode": "14590",
      "city": "NORSBORG"
    },
    {
      "id": 11741,
      "postalCode": "147 30",
      "city": "TUMBA"
    },
    {
      "id": 11742,
      "postalCode": "14734",
      "city": "TUMBA"
    },
    {
      "id": 11743,
      "postalCode": "14731",
      "city": "TUMBA"
    },
    {
      "id": 11744,
      "postalCode": "14731",
      "city": "TUMBA"
    },
    {
      "id": 11746,
      "postalCode": "14650",
      "city": "TULLINGE"
    },
    {
      "id": 11747,
      "postalCode": "14733",
      "city": "TUMBA"
    },
    {
      "id": 11748,
      "postalCode": "14640",
      "city": "TULLINGE"
    },
    {
      "id": 11749,
      "postalCode": "14640",
      "city": "TULLINGE"
    },
    {
      "id": 11750,
      "postalCode": "14640",
      "city": "TULLINGE"
    },
    {
      "id": 11751,
      "postalCode": "14640",
      "city": "TULLINGE"
    },
    {
      "id": 11752,
      "postalCode": "14640",
      "city": "TULLINGE"
    },
    {
      "id": 11753,
      "postalCode": "14640",
      "city": "TULLINGE"
    },
    {
      "id": 11754,
      "postalCode": "14640",
      "city": "TULLINGE"
    },
    {
      "id": 11755,
      "postalCode": "14640",
      "city": "TULLINGE"
    },
    {
      "id": 11756,
      "postalCode": "14640",
      "city": "TULLINGE"
    },
    {
      "id": 11757,
      "postalCode": "14638",
      "city": "TULLINGE"
    },
    {
      "id": 11758,
      "postalCode": "14638",
      "city": "TULLINGE"
    },
    {
      "id": 11759,
      "postalCode": "14638",
      "city": "TULLINGE"
    },
    {
      "id": 11760,
      "postalCode": "14638",
      "city": "TULLINGE"
    },
    {
      "id": 11761,
      "postalCode": "14638",
      "city": "TULLINGE"
    },
    {
      "id": 11762,
      "postalCode": "14638",
      "city": "TULLINGE"
    },
    {
      "id": 11763,
      "postalCode": "14638",
      "city": "TULLINGE"
    },
    {
      "id": 11764,
      "postalCode": "14638",
      "city": "TULLINGE"
    },
    {
      "id": 11765,
      "postalCode": "14638",
      "city": "TULLINGE"
    },
    {
      "id": 11766,
      "postalCode": "14638",
      "city": "TULLINGE"
    },
    {
      "id": 11767,
      "postalCode": "14638",
      "city": "TULLINGE"
    },
    {
      "id": 11768,
      "postalCode": "14733",
      "city": "TUMBA"
    },
    {
      "id": 11769,
      "postalCode": "14733",
      "city": "TUMBA"
    },
    {
      "id": 11770,
      "postalCode": "14630",
      "city": "TULLINGE"
    },
    {
      "id": 11771,
      "postalCode": "14630",
      "city": "TULLINGE"
    },
    {
      "id": 11772,
      "postalCode": "14733",
      "city": "TUMBA"
    },
    {
      "id": 11773,
      "postalCode": "14763",
      "city": "TUMBA"
    },
    {
      "id": 11774,
      "postalCode": "14763",
      "city": "TUMBA"
    },
    {
      "id": 11775,
      "postalCode": "14763",
      "city": "TUMBA"
    },
    {
      "id": 11776,
      "postalCode": "14763",
      "city": "TUMBA"
    },
    {
      "id": 11777,
      "postalCode": "14763",
      "city": "TUMBA"
    },
    {
      "id": 11778,
      "postalCode": "14763",
      "city": "TUMBA"
    },
    {
      "id": 11779,
      "postalCode": "14763",
      "city": "TUMBA"
    },
    {
      "id": 11780,
      "postalCode": "14763",
      "city": "TUMBA"
    },
    {
      "id": 11781,
      "postalCode": "14763",
      "city": "TUMBA"
    },
    {
      "id": 11782,
      "postalCode": "14763",
      "city": "TUMBA"
    },
    {
      "id": 11783,
      "postalCode": "14763",
      "city": "TUMBA"
    },
    {
      "id": 11784,
      "postalCode": "14763",
      "city": "TUMBA"
    },
    {
      "id": 11785,
      "postalCode": "14763",
      "city": "TUMBA"
    },
    {
      "id": 11786,
      "postalCode": "14763",
      "city": "TUMBA"
    },
    {
      "id": 11787,
      "postalCode": "14763",
      "city": "TUMBA"
    },
    {
      "id": 11788,
      "postalCode": "14763",
      "city": "TUMBA"
    },
    {
      "id": 11789,
      "postalCode": "14763",
      "city": "TUMBA"
    },
    {
      "id": 11790,
      "postalCode": "14763",
      "city": "TUMBA"
    },
    {
      "id": 11791,
      "postalCode": "14763",
      "city": "TUMBA"
    },
    {
      "id": 11792,
      "postalCode": "14763",
      "city": "TUMBA"
    },
    {
      "id": 11793,
      "postalCode": "14763",
      "city": "TUMBA"
    },
    {
      "id": 11794,
      "postalCode": "14763",
      "city": "TUMBA"
    },
    {
      "id": 11795,
      "postalCode": "14763",
      "city": "TUMBA"
    },
    {
      "id": 11796,
      "postalCode": "14763",
      "city": "TUMBA"
    },
    {
      "id": 11797,
      "postalCode": "14763",
      "city": "TUMBA"
    },
    {
      "id": 11798,
      "postalCode": "14763",
      "city": "TUMBA"
    },
    {
      "id": 11799,
      "postalCode": "14763",
      "city": "TUMBA"
    },
    {
      "id": 11800,
      "postalCode": "14763",
      "city": "TUMBA"
    },
    {
      "id": 11801,
      "postalCode": "14763",
      "city": "TUMBA"
    },
    {
      "id": 11802,
      "postalCode": "14763",
      "city": "TUMBA"
    },
    {
      "id": 11803,
      "postalCode": "14630",
      "city": "TULLINGE"
    },
    {
      "id": 11804,
      "postalCode": "14630",
      "city": "TULLINGE"
    },
    {
      "id": 11805,
      "postalCode": "14630",
      "city": "TULLINGE"
    },
    {
      "id": 11806,
      "postalCode": "14630",
      "city": "TULLINGE"
    },
    {
      "id": 11807,
      "postalCode": "14630",
      "city": "TULLINGE"
    },
    {
      "id": 11808,
      "postalCode": "14630",
      "city": "TULLINGE"
    },
    {
      "id": 11809,
      "postalCode": "14640",
      "city": "TULLINGE"
    },
    {
      "id": 11810,
      "postalCode": "14640",
      "city": "TULLINGE"
    },
    {
      "id": 11811,
      "postalCode": "14640",
      "city": "TULLINGE"
    },
    {
      "id": 11812,
      "postalCode": "14640",
      "city": "TULLINGE"
    },
    {
      "id": 11813,
      "postalCode": "14640",
      "city": "TULLINGE"
    },
    {
      "id": 11814,
      "postalCode": "14640",
      "city": "TULLINGE"
    },
    {
      "id": 11815,
      "postalCode": "14640",
      "city": "TULLINGE"
    },
    {
      "id": 11816,
      "postalCode": "14640",
      "city": "TULLINGE"
    },
    {
      "id": 11817,
      "postalCode": "14640",
      "city": "TULLINGE"
    },
    {
      "id": 11818,
      "postalCode": "14640",
      "city": "TULLINGE"
    },
    {
      "id": 11819,
      "postalCode": "14730",
      "city": "TUMBA"
    },
    {
      "id": 11820,
      "postalCode": "14732",
      "city": "TUMBA"
    },
    {
      "id": 11821,
      "postalCode": "14732",
      "city": "TUMBA"
    },
    {
      "id": 11822,
      "postalCode": "14732",
      "city": "TUMBA"
    },
    {
      "id": 11823,
      "postalCode": "14732",
      "city": "TUMBA"
    },
    {
      "id": 11824,
      "postalCode": "14732",
      "city": "TUMBA"
    },
    {
      "id": 11825,
      "postalCode": "14732",
      "city": "TUMBA"
    },
    {
      "id": 11826,
      "postalCode": "14732",
      "city": "TUMBA"
    },
    {
      "id": 11827,
      "postalCode": "14732",
      "city": "TUMBA"
    },
    {
      "id": 11828,
      "postalCode": "14732",
      "city": "TUMBA"
    },
    {
      "id": 11829,
      "postalCode": "14732",
      "city": "TUMBA"
    },
    {
      "id": 11830,
      "postalCode": "14732",
      "city": "TUMBA"
    },
    {
      "id": 11831,
      "postalCode": "14732",
      "city": "TUMBA"
    },
    {
      "id": 11832,
      "postalCode": "14732",
      "city": "TUMBA"
    },
    {
      "id": 11833,
      "postalCode": "14732",
      "city": "TUMBA"
    },
    {
      "id": 11834,
      "postalCode": "14732",
      "city": "TUMBA"
    },
    {
      "id": 11835,
      "postalCode": "14732",
      "city": "TUMBA"
    },
    {
      "id": 11836,
      "postalCode": "14732",
      "city": "TUMBA"
    },
    {
      "id": 11837,
      "postalCode": "14732",
      "city": "TUMBA"
    },
    {
      "id": 11838,
      "postalCode": "14734",
      "city": "TUMBA"
    },
    {
      "id": 11839,
      "postalCode": "14734",
      "city": "TUMBA"
    },
    {
      "id": 11840,
      "postalCode": "14734",
      "city": "TUMBA"
    },
    {
      "id": 11841,
      "postalCode": "14731",
      "city": "TUMBA"
    },
    {
      "id": 11842,
      "postalCode": "14734",
      "city": "TUMBA"
    },
    {
      "id": 11843,
      "postalCode": "14734",
      "city": "TUMBA"
    },
    {
      "id": 11844,
      "postalCode": "14734",
      "city": "TUMBA"
    },
    {
      "id": 11845,
      "postalCode": "14734",
      "city": "TUMBA"
    },
    {
      "id": 11846,
      "postalCode": "14734",
      "city": "TUMBA"
    },
    {
      "id": 11847,
      "postalCode": "14731",
      "city": "TUMBA"
    },
    {
      "id": 11848,
      "postalCode": "14590",
      "city": "NORSBORG"
    },
    {
      "id": 11849,
      "postalCode": "14590",
      "city": "NORSBORG"
    },
    {
      "id": 11850,
      "postalCode": "14590",
      "city": "NORSBORG"
    },
    {
      "id": 11851,
      "postalCode": "14590",
      "city": "NORSBORG"
    },
    {
      "id": 11852,
      "postalCode": "145 50",
      "city": "Norsborg"
    },
    {
      "id": 11853,
      "postalCode": "145 50",
      "city": "Norsborg"
    },
    {
      "id": 11854,
      "postalCode": "14638",
      "city": "TULLINGE"
    },
    {
      "id": 11855,
      "postalCode": "14638",
      "city": "TULLINGE"
    },
    {
      "id": 11856,
      "postalCode": "14638",
      "city": "TULLINGE"
    },
    {
      "id": 11857,
      "postalCode": "14638",
      "city": "TULLINGE"
    },
    {
      "id": 11858,
      "postalCode": "14638",
      "city": "TULLINGE"
    },
    {
      "id": 11859,
      "postalCode": "14638",
      "city": "TULLINGE"
    },
    {
      "id": 11860,
      "postalCode": "14638",
      "city": "TULLINGE"
    },
    {
      "id": 11861,
      "postalCode": "14638",
      "city": "TULLINGE"
    },
    {
      "id": 11862,
      "postalCode": "14638",
      "city": "TULLINGE"
    },
    {
      "id": 11863,
      "postalCode": "14638",
      "city": "TULLINGE"
    },
    {
      "id": 11864,
      "postalCode": "14638",
      "city": "TULLINGE"
    },
    {
      "id": 11865,
      "postalCode": "14638",
      "city": "TULLINGE"
    },
    {
      "id": 11866,
      "postalCode": "146 38",
      "city": "TULLINGE"
    },
    {
      "id": 11867,
      "postalCode": "14638",
      "city": "TULLINGE"
    },
    {
      "id": 11868,
      "postalCode": "14733",
      "city": "TUMBA"
    },
    {
      "id": 11869,
      "postalCode": "14731",
      "city": "TUMBA"
    },
    {
      "id": 11870,
      "postalCode": "14731",
      "city": "TUMBA"
    },
    {
      "id": 11871,
      "postalCode": "14634",
      "city": "TULLINGE"
    },
    {
      "id": 11872,
      "postalCode": "14634",
      "city": "TULLINGE"
    },
    {
      "id": 11873,
      "postalCode": "14634",
      "city": "TULLINGE"
    },
    {
      "id": 11874,
      "postalCode": "14634",
      "city": "TULLINGE"
    },
    {
      "id": 11875,
      "postalCode": "14634",
      "city": "TULLINGE"
    },
    {
      "id": 11876,
      "postalCode": "14634",
      "city": "TULLINGE"
    },
    {
      "id": 11877,
      "postalCode": "14634",
      "city": "TULLINGE"
    },
    {
      "id": 11878,
      "postalCode": "14634",
      "city": "TULLINGE"
    },
    {
      "id": 11879,
      "postalCode": "14634",
      "city": "TULLINGE"
    },
    {
      "id": 11880,
      "postalCode": "14634",
      "city": "TULLINGE"
    },
    {
      "id": 11881,
      "postalCode": "14634",
      "city": "TULLINGE"
    },
    {
      "id": 11882,
      "postalCode": "14634",
      "city": "TULLINGE"
    },
    {
      "id": 11883,
      "postalCode": "14634",
      "city": "TULLINGE"
    },
    {
      "id": 11884,
      "postalCode": "14638",
      "city": "TULLINGE"
    },
    {
      "id": 11885,
      "postalCode": "14638",
      "city": "TULLINGE"
    },
    {
      "id": 11886,
      "postalCode": "14638",
      "city": "TULLINGE"
    },
    {
      "id": 11887,
      "postalCode": "14634",
      "city": "TULLINGE"
    },
    {
      "id": 11888,
      "postalCode": "14637",
      "city": "TULLINGE"
    },
    {
      "id": 11889,
      "postalCode": "14637",
      "city": "TULLINGE"
    },
    {
      "id": 11890,
      "postalCode": "14648",
      "city": "TULLINGE"
    },
    {
      "id": 11891,
      "postalCode": "146 48",
      "city": "TULLINGE"
    },
    {
      "id": 11892,
      "postalCode": "146 48",
      "city": "TULLINGE"
    },
    {
      "id": 11893,
      "postalCode": "14648",
      "city": "TULLINGE"
    },
    {
      "id": 11894,
      "postalCode": "14648",
      "city": "TULLINGE"
    },
    {
      "id": 11895,
      "postalCode": "14648",
      "city": "TULLINGE"
    },
    {
      "id": 11896,
      "postalCode": "14648",
      "city": "TULLINGE"
    },
    {
      "id": 11897,
      "postalCode": "14648",
      "city": "TULLINGE"
    },
    {
      "id": 11898,
      "postalCode": "14743",
      "city": "TUMBA"
    },
    {
      "id": 11899,
      "postalCode": "14743",
      "city": "TUMBA"
    },
    {
      "id": 11900,
      "postalCode": "14741",
      "city": "TUMBA"
    },
    {
      "id": 11901,
      "postalCode": "14741",
      "city": "TUMBA"
    },
    {
      "id": 11902,
      "postalCode": "14741",
      "city": "TUMBA"
    },
    {
      "id": 11903,
      "postalCode": "14741",
      "city": "TUMBA"
    },
    {
      "id": 11904,
      "postalCode": "14634",
      "city": "TULLINGE"
    },
    {
      "id": 11905,
      "postalCode": "14634",
      "city": "TULLINGE"
    },
    {
      "id": 11906,
      "postalCode": "14634",
      "city": "TULLINGE"
    },
    {
      "id": 11907,
      "postalCode": "14634",
      "city": "TULLINGE"
    },
    {
      "id": 11908,
      "postalCode": "14634",
      "city": "TULLINGE"
    },
    {
      "id": 11909,
      "postalCode": "14634",
      "city": "TULLINGE"
    },
    {
      "id": 11910,
      "postalCode": "14634",
      "city": "TULLINGE"
    },
    {
      "id": 11911,
      "postalCode": "14634",
      "city": "TULLINGE"
    },
    {
      "id": 11912,
      "postalCode": "14634",
      "city": "TULLINGE"
    },
    {
      "id": 11913,
      "postalCode": "14634",
      "city": "TULLINGE"
    },
    {
      "id": 11914,
      "postalCode": "14634",
      "city": "TULLINGE"
    },
    {
      "id": 11915,
      "postalCode": "14634",
      "city": "TULLINGE"
    },
    {
      "id": 11916,
      "postalCode": "14634",
      "city": "TULLINGE"
    },
    {
      "id": 11917,
      "postalCode": "14634",
      "city": "TULLINGE"
    },
    {
      "id": 11918,
      "postalCode": "14634",
      "city": "TULLINGE"
    },
    {
      "id": 11919,
      "postalCode": "14634",
      "city": "TULLINGE"
    },
    {
      "id": 11920,
      "postalCode": "14634",
      "city": "TULLINGE"
    },
    {
      "id": 11921,
      "postalCode": "14634",
      "city": "TULLINGE"
    },
    {
      "id": 11922,
      "postalCode": "14634",
      "city": "TULLINGE"
    },
    {
      "id": 11923,
      "postalCode": "14638",
      "city": "TULLINGE"
    },
    {
      "id": 11924,
      "postalCode": "14638",
      "city": "TULLINGE"
    },
    {
      "id": 11925,
      "postalCode": "14638",
      "city": "TULLINGE"
    },
    {
      "id": 11926,
      "postalCode": "14638",
      "city": "TULLINGE"
    },
    {
      "id": 11927,
      "postalCode": "14638",
      "city": "TULLINGE"
    },
    {
      "id": 11928,
      "postalCode": "14733",
      "city": "TUMBA"
    },
    {
      "id": 11929,
      "postalCode": "14733",
      "city": "TUMBA"
    },
    {
      "id": 11930,
      "postalCode": "14733",
      "city": "TUMBA"
    },
    {
      "id": 11931,
      "postalCode": "14733",
      "city": "TUMBA"
    },
    {
      "id": 11932,
      "postalCode": "14763",
      "city": "TUMBA"
    },
    {
      "id": 11933,
      "postalCode": "14553",
      "city": "NORSBORG"
    },
    {
      "id": 11934,
      "postalCode": "14553",
      "city": "NORSBORG"
    },
    {
      "id": 11935,
      "postalCode": "14553",
      "city": "NORSBORG"
    },
    {
      "id": 11936,
      "postalCode": "14553",
      "city": "NORSBORG"
    },
    {
      "id": 11937,
      "postalCode": "14638",
      "city": "TULLINGE"
    },
    {
      "id": 11938,
      "postalCode": "14741",
      "city": "TUMBA"
    },
    {
      "id": 11939,
      "postalCode": "14560",
      "city": "NORSBORG"
    },
    {
      "id": 11940,
      "postalCode": "14560",
      "city": "NORSBORG"
    },
    {
      "id": 11941,
      "postalCode": "14560",
      "city": "NORSBORG"
    },
    {
      "id": 11942,
      "postalCode": "14560",
      "city": "NORSBORG"
    },
    {
      "id": 11943,
      "postalCode": "14560",
      "city": "NORSBORG"
    },
    {
      "id": 11944,
      "postalCode": "14560",
      "city": "NORSBORG"
    },
    {
      "id": 11945,
      "postalCode": "14560",
      "city": "NORSBORG"
    },
    {
      "id": 11946,
      "postalCode": "14638",
      "city": "TULLINGE"
    },
    {
      "id": 11947,
      "postalCode": "14638",
      "city": "TULLINGE"
    },
    {
      "id": 11948,
      "postalCode": "14638",
      "city": "TULLINGE"
    },
    {
      "id": 11949,
      "postalCode": "14638",
      "city": "TULLINGE"
    },
    {
      "id": 11950,
      "postalCode": "14731",
      "city": "TUMBA"
    },
    {
      "id": 11951,
      "postalCode": "14731",
      "city": "TUMBA"
    },
    {
      "id": 11952,
      "postalCode": "14731",
      "city": "TUMBA"
    },
    {
      "id": 11953,
      "postalCode": "14731",
      "city": "TUMBA"
    },
    {
      "id": 11954,
      "postalCode": "14640",
      "city": "TULLINGE"
    },
    {
      "id": 11955,
      "postalCode": "14640",
      "city": "TULLINGE"
    },
    {
      "id": 11956,
      "postalCode": "14636",
      "city": "TULLINGE"
    },
    {
      "id": 11957,
      "postalCode": "14636",
      "city": "TULLINGE"
    },
    {
      "id": 11958,
      "postalCode": "14641",
      "city": "TULLINGE"
    },
    {
      "id": 11959,
      "postalCode": "14732",
      "city": "TUMBA"
    },
    {
      "id": 11960,
      "postalCode": "14638",
      "city": "TULLINGE"
    },
    {
      "id": 11961,
      "postalCode": "14638",
      "city": "TULLINGE"
    },
    {
      "id": 11962,
      "postalCode": "14638",
      "city": "TULLINGE"
    },
    {
      "id": 11963,
      "postalCode": "14638",
      "city": "TULLINGE"
    },
    {
      "id": 11964,
      "postalCode": "14638",
      "city": "TULLINGE"
    },
    {
      "id": 11965,
      "postalCode": "14638",
      "city": "TULLINGE"
    },
    {
      "id": 11966,
      "postalCode": "14638",
      "city": "TULLINGE"
    },
    {
      "id": 11967,
      "postalCode": "14638",
      "city": "TULLINGE"
    },
    {
      "id": 11968,
      "postalCode": "14638",
      "city": "TULLINGE"
    },
    {
      "id": 11969,
      "postalCode": "14638",
      "city": "TULLINGE"
    },
    {
      "id": 11971,
      "postalCode": "14638",
      "city": "TULLINGE"
    },
    {
      "id": 11972,
      "postalCode": "14638",
      "city": "TULLINGE"
    },
    {
      "id": 11973,
      "postalCode": "14638",
      "city": "TULLINGE"
    },
    {
      "id": 11974,
      "postalCode": "14763",
      "city": "TUMBA"
    },
    {
      "id": 11975,
      "postalCode": "14763",
      "city": "TUMBA"
    },
    {
      "id": 11976,
      "postalCode": "14763",
      "city": "TUMBA"
    },
    {
      "id": 11977,
      "postalCode": "14763",
      "city": "TUMBA"
    },
    {
      "id": 11978,
      "postalCode": "14763",
      "city": "TUMBA"
    },
    {
      "id": 11979,
      "postalCode": "14763",
      "city": "TUMBA"
    },
    {
      "id": 11980,
      "postalCode": "14763",
      "city": "TUMBA"
    },
    {
      "id": 11981,
      "postalCode": "14763",
      "city": "TUMBA"
    },
    {
      "id": 11982,
      "postalCode": "14763",
      "city": "TUMBA"
    },
    {
      "id": 11983,
      "postalCode": "14763",
      "city": "TUMBA"
    },
    {
      "id": 11984,
      "postalCode": "14763",
      "city": "TUMBA"
    },
    {
      "id": 11985,
      "postalCode": "14763",
      "city": "TUMBA"
    },
    {
      "id": 11986,
      "postalCode": "14763",
      "city": "TUMBA"
    },
    {
      "id": 11987,
      "postalCode": "14763",
      "city": "TUMBA"
    },
    {
      "id": 11988,
      "postalCode": "14733",
      "city": "TUMBA"
    },
    {
      "id": 11989,
      "postalCode": "14650",
      "city": "TULLINGE"
    },
    {
      "id": 11990,
      "postalCode": "14730",
      "city": "TUMBA"
    },
    {
      "id": 11991,
      "postalCode": "14731",
      "city": "TUMBA"
    },
    {
      "id": 11992,
      "postalCode": "14731",
      "city": "TUMBA"
    },
    {
      "id": 11993,
      "postalCode": "14731",
      "city": "TUMBA"
    },
    {
      "id": 11994,
      "postalCode": "14731",
      "city": "TUMBA"
    },
    {
      "id": 11995,
      "postalCode": "14731",
      "city": "TUMBA"
    },
    {
      "id": 11996,
      "postalCode": "14731",
      "city": "TUMBA"
    },
    {
      "id": 11997,
      "postalCode": "14731",
      "city": "TUMBA"
    },
    {
      "id": 11998,
      "postalCode": "14731",
      "city": "TUMBA"
    },
    {
      "id": 11999,
      "postalCode": "14731",
      "city": "TUMBA"
    },
    {
      "id": 12000,
      "postalCode": "14730",
      "city": "TUMBA"
    },
    {
      "id": 12001,
      "postalCode": "14730",
      "city": "TUMBA"
    },
    {
      "id": 12002,
      "postalCode": "14731",
      "city": "TUMBA"
    },
    {
      "id": 12003,
      "postalCode": "14732",
      "city": "TUMBA"
    },
    {
      "id": 12004,
      "postalCode": "14730",
      "city": "TUMBA"
    },
    {
      "id": 12005,
      "postalCode": "14730",
      "city": "TUMBA"
    },
    {
      "id": 12006,
      "postalCode": "14650",
      "city": "TULLINGE"
    },
    {
      "id": 12007,
      "postalCode": "14640",
      "city": "TULLINGE"
    },
    {
      "id": 12008,
      "postalCode": "14640",
      "city": "TULLINGE"
    },
    {
      "id": 12009,
      "postalCode": "14640",
      "city": "TULLINGE"
    },
    {
      "id": 12010,
      "postalCode": "14640",
      "city": "TULLINGE"
    },
    {
      "id": 12011,
      "postalCode": "14640",
      "city": "TULLINGE"
    },
    {
      "id": 12012,
      "postalCode": "14741",
      "city": "TUMBA"
    },
    {
      "id": 12013,
      "postalCode": "14741",
      "city": "TUMBA"
    },
    {
      "id": 12014,
      "postalCode": "14634",
      "city": "TULLINGE"
    },
    {
      "id": 12015,
      "postalCode": "14634",
      "city": "TULLINGE"
    },
    {
      "id": 12016,
      "postalCode": "14634",
      "city": "TULLINGE"
    },
    {
      "id": 12017,
      "postalCode": "14634",
      "city": "TULLINGE"
    },
    {
      "id": 12018,
      "postalCode": "14634",
      "city": "TULLINGE"
    },
    {
      "id": 12019,
      "postalCode": "14634",
      "city": "TULLINGE"
    },
    {
      "id": 12020,
      "postalCode": "14634",
      "city": "TULLINGE"
    },
    {
      "id": 12021,
      "postalCode": "14634",
      "city": "TULLINGE"
    },
    {
      "id": 12022,
      "postalCode": "14731",
      "city": "TUMBA"
    },
    {
      "id": 12023,
      "postalCode": "14573",
      "city": "NORSBORG"
    },
    {
      "id": 12024,
      "postalCode": "14573",
      "city": "NORSBORG"
    },
    {
      "id": 12025,
      "postalCode": "14563",
      "city": "NORSBORG"
    },
    {
      "id": 12026,
      "postalCode": "14792",
      "city": "GRÖDINGE"
    },
    {
      "id": 12027,
      "postalCode": "14590",
      "city": "NORSBORG"
    },
    {
      "id": 12028,
      "postalCode": "14565",
      "city": "NORSBORG"
    },
    {
      "id": 12029,
      "postalCode": "14565",
      "city": "NORSBORG"
    },
    {
      "id": 12030,
      "postalCode": "14565",
      "city": "NORSBORG"
    },
    {
      "id": 12031,
      "postalCode": "14565",
      "city": "NORSBORG"
    },
    {
      "id": 12032,
      "postalCode": "14564",
      "city": "NORSBORG"
    },
    {
      "id": 12033,
      "postalCode": "14590",
      "city": "NORSBORG"
    },
    {
      "id": 12034,
      "postalCode": "14565",
      "city": "NORSBORG"
    },
    {
      "id": 12035,
      "postalCode": "14571",
      "city": "NORSBORG"
    },
    {
      "id": 12036,
      "postalCode": "14641",
      "city": "TULLINGE"
    },
    {
      "id": 12037,
      "postalCode": "14741",
      "city": "TUMBA"
    },
    {
      "id": 12038,
      "postalCode": "14563",
      "city": "NORSBORG"
    },
    {
      "id": 12039,
      "postalCode": "14563",
      "city": "NORSBORG"
    },
    {
      "id": 12040,
      "postalCode": "14634",
      "city": "TULLINGE"
    },
    {
      "id": 12041,
      "postalCode": "14634",
      "city": "TULLINGE"
    },
    {
      "id": 12042,
      "postalCode": "14634",
      "city": "TULLINGE"
    },
    {
      "id": 12043,
      "postalCode": "14634",
      "city": "TULLINGE"
    },
    {
      "id": 12044,
      "postalCode": "14634",
      "city": "TULLINGE"
    },
    {
      "id": 12045,
      "postalCode": "14634",
      "city": "TULLINGE"
    },
    {
      "id": 12046,
      "postalCode": "14634",
      "city": "TULLINGE"
    },
    {
      "id": 12047,
      "postalCode": "14634",
      "city": "TULLINGE"
    },
    {
      "id": 12048,
      "postalCode": "14634",
      "city": "TULLINGE"
    },
    {
      "id": 12049,
      "postalCode": "14634",
      "city": "TULLINGE"
    },
    {
      "id": 12050,
      "postalCode": "14634",
      "city": "TULLINGE"
    },
    {
      "id": 12051,
      "postalCode": "14634",
      "city": "TULLINGE"
    },
    {
      "id": 12052,
      "postalCode": "14743",
      "city": "TUMBA"
    },
    {
      "id": 12053,
      "postalCode": "14733",
      "city": "TUMBA"
    },
    {
      "id": 12054,
      "postalCode": "14733",
      "city": "TUMBA"
    },
    {
      "id": 12055,
      "postalCode": "14733",
      "city": "TUMBA"
    },
    {
      "id": 12056,
      "postalCode": "14733",
      "city": "TUMBA"
    },
    {
      "id": 12057,
      "postalCode": "14733",
      "city": "TUMBA"
    },
    {
      "id": 12058,
      "postalCode": "14733",
      "city": "TUMBA"
    },
    {
      "id": 12059,
      "postalCode": "14733",
      "city": "TUMBA"
    },
    {
      "id": 12060,
      "postalCode": "14733",
      "city": "TUMBA"
    },
    {
      "id": 12061,
      "postalCode": "14733",
      "city": "TUMBA"
    },
    {
      "id": 12062,
      "postalCode": "14638",
      "city": "TULLINGE"
    },
    {
      "id": 12063,
      "postalCode": "14638",
      "city": "TULLINGE"
    },
    {
      "id": 12064,
      "postalCode": "14638",
      "city": "TULLINGE"
    },
    {
      "id": 12065,
      "postalCode": "14638",
      "city": "TULLINGE"
    },
    {
      "id": 12066,
      "postalCode": "14638",
      "city": "TULLINGE"
    },
    {
      "id": 12067,
      "postalCode": "14638",
      "city": "TULLINGE"
    },
    {
      "id": 12068,
      "postalCode": "14638",
      "city": "TULLINGE"
    },
    {
      "id": 12069,
      "postalCode": "14638",
      "city": "TULLINGE"
    },
    {
      "id": 12070,
      "postalCode": "14638",
      "city": "TULLINGE"
    },
    {
      "id": 12071,
      "postalCode": "14638",
      "city": "TULLINGE"
    },
    {
      "id": 12072,
      "postalCode": "14638",
      "city": "TULLINGE"
    },
    {
      "id": 12073,
      "postalCode": "14638",
      "city": "TULLINGE"
    },
    {
      "id": 12074,
      "postalCode": "14638",
      "city": "TULLINGE"
    },
    {
      "id": 12075,
      "postalCode": "14638",
      "city": "TULLINGE"
    },
    {
      "id": 12076,
      "postalCode": "14763",
      "city": "TUMBA"
    },
    {
      "id": 12077,
      "postalCode": "14739",
      "city": "TUMBA"
    },
    {
      "id": 12080,
      "postalCode": "14739",
      "city": "TUMBA"
    },
    {
      "id": 12081,
      "postalCode": "14739",
      "city": "TUMBA"
    },
    {
      "id": 12082,
      "postalCode": "14739",
      "city": "TUMBA"
    },
    {
      "id": 12083,
      "postalCode": "14739",
      "city": "TUMBA"
    },
    {
      "id": 12084,
      "postalCode": "14739",
      "city": "TUMBA"
    },
    {
      "id": 12085,
      "postalCode": "14792",
      "city": "GRÖDINGE"
    },
    {
      "id": 12087,
      "postalCode": "14638",
      "city": "TULLINGE"
    },
    {
      "id": 12088,
      "postalCode": "14638",
      "city": "TULLINGE"
    },
    {
      "id": 12089,
      "postalCode": "14791",
      "city": "GRÖDINGE"
    },
    {
      "id": 12090,
      "postalCode": "14563",
      "city": "NORSBORG"
    },
    {
      "id": 12091,
      "postalCode": "14563",
      "city": "NORSBORG"
    },
    {
      "id": 12092,
      "postalCode": "14638",
      "city": "TULLINGE"
    },
    {
      "id": 12093,
      "postalCode": "14638",
      "city": "TULLINGE"
    },
    {
      "id": 12094,
      "postalCode": "14638",
      "city": "TULLINGE"
    },
    {
      "id": 12095,
      "postalCode": "14638",
      "city": "TULLINGE"
    },
    {
      "id": 12096,
      "postalCode": "14638",
      "city": "TULLINGE"
    },
    {
      "id": 12097,
      "postalCode": "14652",
      "city": "TULLINGE"
    },
    {
      "id": 12098,
      "postalCode": "14652",
      "city": "TULLINGE"
    },
    {
      "id": 12099,
      "postalCode": "14742",
      "city": "TUMBA"
    },
    {
      "id": 12100,
      "postalCode": "14742",
      "city": "TUMBA"
    },
    {
      "id": 12101,
      "postalCode": "14734",
      "city": "TUMBA"
    },
    {
      "id": 12102,
      "postalCode": "147 34",
      "city": "Tumba"
    },
    {
      "id": 12103,
      "postalCode": "147 34",
      "city": "Tumba"
    },
    {
      "id": 12104,
      "postalCode": "14654",
      "city": "TULLINGE"
    },
    {
      "id": 12105,
      "postalCode": "14763",
      "city": "TUMBA"
    },
    {
      "id": 12106,
      "postalCode": "14763",
      "city": "TUMBA"
    },
    {
      "id": 12107,
      "postalCode": "14763",
      "city": "TUMBA"
    },
    {
      "id": 12108,
      "postalCode": "14763",
      "city": "TUMBA"
    },
    {
      "id": 12109,
      "postalCode": "14763",
      "city": "TUMBA"
    },
    {
      "id": 12110,
      "postalCode": "14763",
      "city": "TUMBA"
    },
    {
      "id": 12111,
      "postalCode": "14763",
      "city": "TUMBA"
    },
    {
      "id": 12112,
      "postalCode": "14763",
      "city": "TUMBA"
    },
    {
      "id": 12113,
      "postalCode": "14763",
      "city": "TUMBA"
    },
    {
      "id": 12114,
      "postalCode": "14763",
      "city": "TUMBA"
    },
    {
      "id": 12115,
      "postalCode": "14763",
      "city": "TUMBA"
    },
    {
      "id": 12116,
      "postalCode": "14763",
      "city": "TUMBA"
    },
    {
      "id": 12117,
      "postalCode": "14763",
      "city": "TUMBA"
    },
    {
      "id": 12118,
      "postalCode": "14763",
      "city": "TUMBA"
    },
    {
      "id": 12119,
      "postalCode": "14763",
      "city": "TUMBA"
    },
    {
      "id": 12120,
      "postalCode": "14763",
      "city": "TUMBA"
    },
    {
      "id": 12121,
      "postalCode": "14763",
      "city": "TUMBA"
    },
    {
      "id": 12122,
      "postalCode": "14763",
      "city": "TUMBA"
    },
    {
      "id": 12123,
      "postalCode": "14763",
      "city": "TUMBA"
    },
    {
      "id": 12124,
      "postalCode": "14763",
      "city": "TUMBA"
    },
    {
      "id": 12125,
      "postalCode": "14763",
      "city": "TUMBA"
    },
    {
      "id": 12126,
      "postalCode": "14763",
      "city": "TUMBA"
    },
    {
      "id": 12127,
      "postalCode": "14734",
      "city": "TUMBA"
    },
    {
      "id": 12128,
      "postalCode": "14734",
      "city": "TUMBA"
    },
    {
      "id": 12129,
      "postalCode": "14734",
      "city": "TUMBA"
    },
    {
      "id": 12130,
      "postalCode": "14734",
      "city": "TUMBA"
    },
    {
      "id": 12131,
      "postalCode": "14734",
      "city": "TUMBA"
    },
    {
      "id": 12132,
      "postalCode": "14734",
      "city": "TUMBA"
    },
    {
      "id": 12133,
      "postalCode": "14734",
      "city": "TUMBA"
    },
    {
      "id": 12134,
      "postalCode": "14734",
      "city": "TUMBA"
    },
    {
      "id": 12135,
      "postalCode": "14734",
      "city": "TUMBA"
    },
    {
      "id": 12136,
      "postalCode": "14731",
      "city": "TUMBA"
    },
    {
      "id": 12137,
      "postalCode": "14731",
      "city": "TUMBA"
    },
    {
      "id": 12138,
      "postalCode": "14733",
      "city": "TUMBA"
    },
    {
      "id": 12139,
      "postalCode": "14733",
      "city": "TUMBA"
    },
    {
      "id": 12140,
      "postalCode": "14652",
      "city": "TULLINGE"
    },
    {
      "id": 12141,
      "postalCode": "14652",
      "city": "TULLINGE"
    },
    {
      "id": 12142,
      "postalCode": "14652",
      "city": "TULLINGE"
    },
    {
      "id": 12143,
      "postalCode": "14652",
      "city": "TULLINGE"
    },
    {
      "id": 12144,
      "postalCode": "14652",
      "city": "TULLINGE"
    },
    {
      "id": 12145,
      "postalCode": "14652",
      "city": "TULLINGE"
    },
    {
      "id": 12146,
      "postalCode": "14652",
      "city": "TULLINGE"
    },
    {
      "id": 12147,
      "postalCode": "14652",
      "city": "TULLINGE"
    },
    {
      "id": 12148,
      "postalCode": "14652",
      "city": "TULLINGE"
    },
    {
      "id": 12149,
      "postalCode": "14652",
      "city": "TULLINGE"
    },
    {
      "id": 12150,
      "postalCode": "14652",
      "city": "TULLINGE"
    },
    {
      "id": 12151,
      "postalCode": "14652",
      "city": "TULLINGE"
    },
    {
      "id": 12152,
      "postalCode": "14652",
      "city": "TULLINGE"
    },
    {
      "id": 12153,
      "postalCode": "14652",
      "city": "TULLINGE"
    },
    {
      "id": 12154,
      "postalCode": "14652",
      "city": "TULLINGE"
    },
    {
      "id": 12155,
      "postalCode": "14648",
      "city": "TULLINGE"
    },
    {
      "id": 12156,
      "postalCode": "14648",
      "city": "TULLINGE"
    },
    {
      "id": 12157,
      "postalCode": "14648",
      "city": "TULLINGE"
    },
    {
      "id": 12158,
      "postalCode": "14648",
      "city": "TULLINGE"
    },
    {
      "id": 12159,
      "postalCode": "14648",
      "city": "TULLINGE"
    },
    {
      "id": 12160,
      "postalCode": "14648",
      "city": "TULLINGE"
    },
    {
      "id": 12161,
      "postalCode": "14648",
      "city": "TULLINGE"
    },
    {
      "id": 12163,
      "postalCode": "14648",
      "city": "TULLINGE"
    },
    {
      "id": 12164,
      "postalCode": "14650",
      "city": "TULLINGE"
    },
    {
      "id": 12165,
      "postalCode": "14650",
      "city": "TULLINGE"
    },
    {
      "id": 12166,
      "postalCode": "14650",
      "city": "TULLINGE"
    },
    {
      "id": 12167,
      "postalCode": "14650",
      "city": "TULLINGE"
    },
    {
      "id": 12168,
      "postalCode": "14650",
      "city": "TULLINGE"
    },
    {
      "id": 12169,
      "postalCode": "14650",
      "city": "TULLINGE"
    },
    {
      "id": 12170,
      "postalCode": "14752",
      "city": "TUMBA"
    },
    {
      "id": 12171,
      "postalCode": "14650",
      "city": "TULLINGE"
    },
    {
      "id": 12172,
      "postalCode": "14650",
      "city": "TULLINGE"
    },
    {
      "id": 12173,
      "postalCode": "14650",
      "city": "TULLINGE"
    },
    {
      "id": 12174,
      "postalCode": "14650",
      "city": "TULLINGE"
    },
    {
      "id": 12175,
      "postalCode": "14650",
      "city": "TULLINGE"
    },
    {
      "id": 12176,
      "postalCode": "14650",
      "city": "TULLINGE"
    },
    {
      "id": 12177,
      "postalCode": "14650",
      "city": "TULLINGE"
    },
    {
      "id": 12178,
      "postalCode": "14638",
      "city": "TULLINGE"
    },
    {
      "id": 12179,
      "postalCode": "14638",
      "city": "TULLINGE"
    },
    {
      "id": 12180,
      "postalCode": "14638",
      "city": "TULLINGE"
    },
    {
      "id": 12181,
      "postalCode": "14734",
      "city": "TUMBA"
    },
    {
      "id": 12182,
      "postalCode": "14734",
      "city": "TUMBA"
    },
    {
      "id": 12183,
      "postalCode": "14734",
      "city": "TUMBA"
    },
    {
      "id": 12184,
      "postalCode": "14734",
      "city": "TUMBA"
    },
    {
      "id": 12185,
      "postalCode": "14734",
      "city": "TUMBA"
    },
    {
      "id": 12186,
      "postalCode": "14754",
      "city": "TUMBA"
    },
    {
      "id": 12187,
      "postalCode": "14634",
      "city": "TULLINGE"
    },
    {
      "id": 12188,
      "postalCode": "14634",
      "city": "TULLINGE"
    },
    {
      "id": 12189,
      "postalCode": "14634",
      "city": "TULLINGE"
    },
    {
      "id": 12190,
      "postalCode": "14731",
      "city": "TUMBA"
    },
    {
      "id": 12191,
      "postalCode": "14731",
      "city": "TUMBA"
    },
    {
      "id": 12192,
      "postalCode": "14731",
      "city": "TUMBA"
    },
    {
      "id": 12193,
      "postalCode": "14752",
      "city": "TUMBA"
    },
    {
      "id": 12194,
      "postalCode": "14752",
      "city": "TUMBA"
    },
    {
      "id": 12195,
      "postalCode": "14752",
      "city": "TUMBA"
    },
    {
      "id": 12196,
      "postalCode": "14752",
      "city": "TUMBA"
    },
    {
      "id": 12197,
      "postalCode": "14752",
      "city": "TUMBA"
    },
    {
      "id": 12198,
      "postalCode": "14746",
      "city": "TUMBA"
    },
    {
      "id": 12199,
      "postalCode": "14746",
      "city": "TUMBA"
    },
    {
      "id": 12200,
      "postalCode": "14746",
      "city": "TUMBA"
    },
    {
      "id": 12201,
      "postalCode": "14746",
      "city": "TUMBA"
    },
    {
      "id": 12202,
      "postalCode": "14746",
      "city": "TUMBA"
    },
    {
      "id": 12203,
      "postalCode": "14746",
      "city": "TUMBA"
    },
    {
      "id": 12204,
      "postalCode": "14746",
      "city": "TUMBA"
    },
    {
      "id": 12205,
      "postalCode": "14746",
      "city": "TUMBA"
    },
    {
      "id": 12206,
      "postalCode": "14746",
      "city": "TUMBA"
    },
    {
      "id": 12207,
      "postalCode": "14746",
      "city": "TUMBA"
    },
    {
      "id": 12208,
      "postalCode": "14746",
      "city": "TUMBA"
    },
    {
      "id": 12209,
      "postalCode": "14746",
      "city": "TUMBA"
    },
    {
      "id": 12210,
      "postalCode": "14746",
      "city": "TUMBA"
    },
    {
      "id": 12211,
      "postalCode": "14746",
      "city": "TUMBA"
    },
    {
      "id": 12212,
      "postalCode": "14746",
      "city": "TUMBA"
    },
    {
      "id": 12213,
      "postalCode": "14746",
      "city": "TUMBA"
    },
    {
      "id": 12214,
      "postalCode": "14746",
      "city": "TUMBA"
    },
    {
      "id": 12215,
      "postalCode": "14746",
      "city": "TUMBA"
    },
    {
      "id": 12216,
      "postalCode": "14746",
      "city": "TUMBA"
    },
    {
      "id": 12217,
      "postalCode": "14746",
      "city": "TUMBA"
    },
    {
      "id": 12218,
      "postalCode": "14746",
      "city": "TUMBA"
    },
    {
      "id": 12219,
      "postalCode": "14746",
      "city": "TUMBA"
    },
    {
      "id": 12220,
      "postalCode": "14746",
      "city": "TUMBA"
    },
    {
      "id": 12221,
      "postalCode": "14746",
      "city": "TUMBA"
    },
    {
      "id": 12222,
      "postalCode": "14746",
      "city": "TUMBA"
    },
    {
      "id": 12223,
      "postalCode": "14746",
      "city": "TUMBA"
    },
    {
      "id": 12224,
      "postalCode": "14746",
      "city": "TUMBA"
    },
    {
      "id": 12225,
      "postalCode": "14746",
      "city": "TUMBA"
    },
    {
      "id": 12226,
      "postalCode": "14746",
      "city": "TUMBA"
    },
    {
      "id": 12227,
      "postalCode": "14734",
      "city": "TUMBA"
    },
    {
      "id": 12228,
      "postalCode": "14734",
      "city": "TUMBA"
    },
    {
      "id": 12229,
      "postalCode": "14634",
      "city": "TULLINGE"
    },
    {
      "id": 12230,
      "postalCode": "14743",
      "city": "TUMBA"
    },
    {
      "id": 12231,
      "postalCode": "14648",
      "city": "TULLINGE"
    },
    {
      "id": 12232,
      "postalCode": "14638",
      "city": "TULLINGE"
    },
    {
      "id": 12233,
      "postalCode": "14654",
      "city": "TULLINGE"
    },
    {
      "id": 12234,
      "postalCode": "14654",
      "city": "TULLINGE"
    },
    {
      "id": 12235,
      "postalCode": "14654",
      "city": "TULLINGE"
    },
    {
      "id": 12236,
      "postalCode": "14763",
      "city": "TUMBA"
    },
    {
      "id": 12237,
      "postalCode": "14763",
      "city": "TUMBA"
    },
    {
      "id": 12238,
      "postalCode": "14763",
      "city": "TUMBA"
    },
    {
      "id": 12239,
      "postalCode": "14563",
      "city": "NORSBORG"
    },
    {
      "id": 12240,
      "postalCode": "14563",
      "city": "NORSBORG"
    },
    {
      "id": 12241,
      "postalCode": "14563",
      "city": "NORSBORG"
    },
    {
      "id": 12242,
      "postalCode": "14563",
      "city": "NORSBORG"
    },
    {
      "id": 12243,
      "postalCode": "14563",
      "city": "NORSBORG"
    },
    {
      "id": 12244,
      "postalCode": "14731",
      "city": "TUMBA"
    },
    {
      "id": 12245,
      "postalCode": "14560",
      "city": "NORSBORG"
    },
    {
      "id": 12246,
      "postalCode": "14560",
      "city": "NORSBORG"
    },
    {
      "id": 12247,
      "postalCode": "14560",
      "city": "NORSBORG"
    },
    {
      "id": 12248,
      "postalCode": "14731",
      "city": "TUMBA"
    },
    {
      "id": 12249,
      "postalCode": "14731",
      "city": "TUMBA"
    },
    {
      "id": 12251,
      "postalCode": "14731",
      "city": "TUMBA"
    },
    {
      "id": 12252,
      "postalCode": "14731",
      "city": "TUMBA"
    },
    {
      "id": 12253,
      "postalCode": "14731",
      "city": "TUMBA"
    },
    {
      "id": 12254,
      "postalCode": "14731",
      "city": "TUMBA"
    },
    {
      "id": 12255,
      "postalCode": "14731",
      "city": "TUMBA"
    },
    {
      "id": 12256,
      "postalCode": "14732",
      "city": "TUMBA"
    },
    {
      "id": 12257,
      "postalCode": "14570",
      "city": "NORSBORG"
    },
    {
      "id": 12258,
      "postalCode": "14650",
      "city": "TULLINGE"
    },
    {
      "id": 12259,
      "postalCode": "14650",
      "city": "TULLINGE"
    },
    {
      "id": 12260,
      "postalCode": "14652",
      "city": "TULLINGE"
    },
    {
      "id": 12261,
      "postalCode": "14652",
      "city": "TULLINGE"
    },
    {
      "id": 12262,
      "postalCode": "14755",
      "city": "TUMBA"
    },
    {
      "id": 12263,
      "postalCode": "14755",
      "city": "TUMBA"
    },
    {
      "id": 12264,
      "postalCode": "14755",
      "city": "TUMBA"
    },
    {
      "id": 12265,
      "postalCode": "14755",
      "city": "TUMBA"
    },
    {
      "id": 12266,
      "postalCode": "14755",
      "city": "TUMBA"
    },
    {
      "id": 12267,
      "postalCode": "14763",
      "city": "TUMBA"
    },
    {
      "id": 12268,
      "postalCode": "14763",
      "city": "TUMBA"
    },
    {
      "id": 12269,
      "postalCode": "14763",
      "city": "TUMBA"
    },
    {
      "id": 12270,
      "postalCode": "14763",
      "city": "TUMBA"
    },
    {
      "id": 12271,
      "postalCode": "14763",
      "city": "TUMBA"
    },
    {
      "id": 12272,
      "postalCode": "14763",
      "city": "TUMBA"
    },
    {
      "id": 12273,
      "postalCode": "14763",
      "city": "TUMBA"
    },
    {
      "id": 12274,
      "postalCode": "14763",
      "city": "TUMBA"
    },
    {
      "id": 12275,
      "postalCode": "14763",
      "city": "TUMBA"
    },
    {
      "id": 12276,
      "postalCode": "14763",
      "city": "TUMBA"
    },
    {
      "id": 12277,
      "postalCode": "14763",
      "city": "TUMBA"
    },
    {
      "id": 12278,
      "postalCode": "14763",
      "city": "TUMBA"
    },
    {
      "id": 12279,
      "postalCode": "14763",
      "city": "TUMBA"
    },
    {
      "id": 12280,
      "postalCode": "14763",
      "city": "TUMBA"
    },
    {
      "id": 12281,
      "postalCode": "14763",
      "city": "TUMBA"
    },
    {
      "id": 12282,
      "postalCode": "14763",
      "city": "TUMBA"
    },
    {
      "id": 12283,
      "postalCode": "14763",
      "city": "TUMBA"
    },
    {
      "id": 12284,
      "postalCode": "14763",
      "city": "TUMBA"
    },
    {
      "id": 12285,
      "postalCode": "14763",
      "city": "TUMBA"
    },
    {
      "id": 12286,
      "postalCode": "14763",
      "city": "TUMBA"
    },
    {
      "id": 12287,
      "postalCode": "14763",
      "city": "TUMBA"
    },
    {
      "id": 12288,
      "postalCode": "14763",
      "city": "TUMBA"
    },
    {
      "id": 12289,
      "postalCode": "14763",
      "city": "TUMBA"
    },
    {
      "id": 12290,
      "postalCode": "14743",
      "city": "TUMBA"
    },
    {
      "id": 12291,
      "postalCode": "14743",
      "city": "TUMBA"
    },
    {
      "id": 12292,
      "postalCode": "14743",
      "city": "TUMBA"
    },
    {
      "id": 12293,
      "postalCode": "14743",
      "city": "TUMBA"
    },
    {
      "id": 12294,
      "postalCode": "14743",
      "city": "TUMBA"
    },
    {
      "id": 12295,
      "postalCode": "14743",
      "city": "TUMBA"
    },
    {
      "id": 12296,
      "postalCode": "14743",
      "city": "TUMBA"
    },
    {
      "id": 12297,
      "postalCode": "14743",
      "city": "TUMBA"
    },
    {
      "id": 12298,
      "postalCode": "14743",
      "city": "TUMBA"
    },
    {
      "id": 12299,
      "postalCode": "14743",
      "city": "TUMBA"
    },
    {
      "id": 12300,
      "postalCode": "14743",
      "city": "TUMBA"
    },
    {
      "id": 12301,
      "postalCode": "14743",
      "city": "TUMBA"
    },
    {
      "id": 12302,
      "postalCode": "14743",
      "city": "TUMBA"
    },
    {
      "id": 12303,
      "postalCode": "14743",
      "city": "TUMBA"
    },
    {
      "id": 12304,
      "postalCode": "14743",
      "city": "TUMBA"
    },
    {
      "id": 12305,
      "postalCode": "14743",
      "city": "TUMBA"
    },
    {
      "id": 12306,
      "postalCode": "14743",
      "city": "TUMBA"
    },
    {
      "id": 12307,
      "postalCode": "14743",
      "city": "TUMBA"
    },
    {
      "id": 12308,
      "postalCode": "14743",
      "city": "TUMBA"
    },
    {
      "id": 12309,
      "postalCode": "14743",
      "city": "TUMBA"
    },
    {
      "id": 12310,
      "postalCode": "14743",
      "city": "TUMBA"
    },
    {
      "id": 12311,
      "postalCode": "14743",
      "city": "TUMBA"
    },
    {
      "id": 12312,
      "postalCode": "14743",
      "city": "TUMBA"
    },
    {
      "id": 12313,
      "postalCode": "14743",
      "city": "TUMBA"
    },
    {
      "id": 12314,
      "postalCode": "14743",
      "city": "TUMBA"
    },
    {
      "id": 12315,
      "postalCode": "14743",
      "city": "TUMBA"
    },
    {
      "id": 12316,
      "postalCode": "14743",
      "city": "TUMBA"
    },
    {
      "id": 12317,
      "postalCode": "14743",
      "city": "TUMBA"
    },
    {
      "id": 12318,
      "postalCode": "14743",
      "city": "TUMBA"
    },
    {
      "id": 12319,
      "postalCode": "14743",
      "city": "TUMBA"
    },
    {
      "id": 12320,
      "postalCode": "14743",
      "city": "TUMBA"
    },
    {
      "id": 12321,
      "postalCode": "14743",
      "city": "TUMBA"
    },
    {
      "id": 12322,
      "postalCode": "14743",
      "city": "TUMBA"
    },
    {
      "id": 12323,
      "postalCode": "14743",
      "city": "TUMBA"
    },
    {
      "id": 12324,
      "postalCode": "14743",
      "city": "TUMBA"
    },
    {
      "id": 12325,
      "postalCode": "14743",
      "city": "TUMBA"
    },
    {
      "id": 12326,
      "postalCode": "14743",
      "city": "TUMBA"
    },
    {
      "id": 12327,
      "postalCode": "14653",
      "city": "TULLINGE"
    },
    {
      "id": 12328,
      "postalCode": "14731",
      "city": "TUMBA"
    },
    {
      "id": 12329,
      "postalCode": "14654",
      "city": "TULLINGE"
    },
    {
      "id": 12330,
      "postalCode": "14654",
      "city": "TULLINGE"
    },
    {
      "id": 12331,
      "postalCode": "14654",
      "city": "TULLINGE"
    },
    {
      "id": 12332,
      "postalCode": "14654",
      "city": "TULLINGE"
    },
    {
      "id": 12333,
      "postalCode": "14654",
      "city": "TULLINGE"
    },
    {
      "id": 12334,
      "postalCode": "14763",
      "city": "UTTRAN"
    },
    {
      "id": 12335,
      "postalCode": "14763",
      "city": "UTTRAN"
    },
    {
      "id": 12336,
      "postalCode": "14763",
      "city": "TUMBA"
    },
    {
      "id": 12337,
      "postalCode": "14763",
      "city": "TUMBA"
    },
    {
      "id": 12338,
      "postalCode": "14763",
      "city": "TUMBA"
    },
    {
      "id": 12339,
      "postalCode": "14763",
      "city": "TUMBA"
    },
    {
      "id": 12340,
      "postalCode": "14763",
      "city": "TUMBA"
    },
    {
      "id": 12341,
      "postalCode": "14763",
      "city": "TUMBA"
    },
    {
      "id": 12342,
      "postalCode": "14763",
      "city": "TUMBA"
    },
    {
      "id": 12343,
      "postalCode": "14763",
      "city": "TUMBA"
    },
    {
      "id": 12344,
      "postalCode": "14763",
      "city": "TUMBA"
    },
    {
      "id": 12345,
      "postalCode": "14634",
      "city": "TULLINGE"
    },
    {
      "id": 12346,
      "postalCode": "14634",
      "city": "TULLINGE"
    },
    {
      "id": 12347,
      "postalCode": "14634",
      "city": "TULLINGE"
    },
    {
      "id": 12348,
      "postalCode": "14634",
      "city": "TULLINGE"
    },
    {
      "id": 12349,
      "postalCode": "14744",
      "city": "TUMBA"
    },
    {
      "id": 12350,
      "postalCode": "14744",
      "city": "TUMBA"
    },
    {
      "id": 12351,
      "postalCode": "14744",
      "city": "TUMBA"
    },
    {
      "id": 12352,
      "postalCode": "14744",
      "city": "TUMBA"
    },
    {
      "id": 12353,
      "postalCode": "14744",
      "city": "TUMBA"
    },
    {
      "id": 12354,
      "postalCode": "14744",
      "city": "TUMBA"
    },
    {
      "id": 12355,
      "postalCode": "14744",
      "city": "TUMBA"
    },
    {
      "id": 12356,
      "postalCode": "14744",
      "city": "TUMBA"
    },
    {
      "id": 12357,
      "postalCode": "14744",
      "city": "TUMBA"
    },
    {
      "id": 12358,
      "postalCode": "14744",
      "city": "TUMBA"
    },
    {
      "id": 12359,
      "postalCode": "14744",
      "city": "TUMBA"
    },
    {
      "id": 12360,
      "postalCode": "14744",
      "city": "TUMBA"
    },
    {
      "id": 12361,
      "postalCode": "14744",
      "city": "TUMBA"
    },
    {
      "id": 12362,
      "postalCode": "14744",
      "city": "TUMBA"
    },
    {
      "id": 12363,
      "postalCode": "14744",
      "city": "TUMBA"
    },
    {
      "id": 12364,
      "postalCode": "14791",
      "city": "GRÖDINGE"
    },
    {
      "id": 12365,
      "postalCode": "14791",
      "city": "GRÖDINGE"
    },
    {
      "id": 12366,
      "postalCode": "14791",
      "city": "GRÖDINGE"
    },
    {
      "id": 12367,
      "postalCode": "14650",
      "city": "TULLINGE"
    },
    {
      "id": 12368,
      "postalCode": "14734",
      "city": "TUMBA"
    },
    {
      "id": 12369,
      "postalCode": "14734",
      "city": "TUMBA"
    },
    {
      "id": 12370,
      "postalCode": "14734",
      "city": "TUMBA"
    },
    {
      "id": 12371,
      "postalCode": "14734",
      "city": "TUMBA"
    },
    {
      "id": 12372,
      "postalCode": "14791",
      "city": "GRÖDINGE"
    },
    {
      "id": 12373,
      "postalCode": "14791",
      "city": "GRÖDINGE"
    },
    {
      "id": 12374,
      "postalCode": "14791",
      "city": "GRÖDINGE"
    },
    {
      "id": 12375,
      "postalCode": "14791",
      "city": "GRÖDINGE"
    },
    {
      "id": 12376,
      "postalCode": "14791",
      "city": "GRÖDINGE"
    },
    {
      "id": 12377,
      "postalCode": "14791",
      "city": "GRÖDINGE"
    },
    {
      "id": 12378,
      "postalCode": "14791",
      "city": "GRÖDINGE"
    },
    {
      "id": 12379,
      "postalCode": "14791",
      "city": "GRÖDINGE"
    },
    {
      "id": 12380,
      "postalCode": "14791",
      "city": "GRÖDINGE"
    },
    {
      "id": 12381,
      "postalCode": "14763",
      "city": "TUMBA"
    },
    {
      "id": 12382,
      "postalCode": "14763",
      "city": "TUMBA"
    },
    {
      "id": 12383,
      "postalCode": "14763",
      "city": "TUMBA"
    },
    {
      "id": 12384,
      "postalCode": "14763",
      "city": "TUMBA"
    },
    {
      "id": 12385,
      "postalCode": "14763",
      "city": "TUMBA"
    },
    {
      "id": 12386,
      "postalCode": "14763",
      "city": "TUMBA"
    },
    {
      "id": 12387,
      "postalCode": "14763",
      "city": "TUMBA"
    },
    {
      "id": 12388,
      "postalCode": "14763",
      "city": "TUMBA"
    },
    {
      "id": 12389,
      "postalCode": "14763",
      "city": "TUMBA"
    },
    {
      "id": 12390,
      "postalCode": "14763",
      "city": "TUMBA"
    },
    {
      "id": 12391,
      "postalCode": "14763",
      "city": "TUMBA"
    },
    {
      "id": 12392,
      "postalCode": "14763",
      "city": "TUMBA"
    },
    {
      "id": 12393,
      "postalCode": "14763",
      "city": "TUMBA"
    },
    {
      "id": 12394,
      "postalCode": "14763",
      "city": "TUMBA"
    },
    {
      "id": 12395,
      "postalCode": "14763",
      "city": "TUMBA"
    },
    {
      "id": 12396,
      "postalCode": "14763",
      "city": "TUMBA"
    },
    {
      "id": 12397,
      "postalCode": "14763",
      "city": "TUMBA"
    },
    {
      "id": 12398,
      "postalCode": "14763",
      "city": "TUMBA"
    },
    {
      "id": 12399,
      "postalCode": "14763",
      "city": "TUMBA"
    },
    {
      "id": 12400,
      "postalCode": "14763",
      "city": "TUMBA"
    },
    {
      "id": 12401,
      "postalCode": "14732",
      "city": "TUMBA"
    },
    {
      "id": 12402,
      "postalCode": "14732",
      "city": "TUMBA"
    },
    {
      "id": 12403,
      "postalCode": "14732",
      "city": "TUMBA"
    },
    {
      "id": 12404,
      "postalCode": "14732",
      "city": "TUMBA"
    },
    {
      "id": 12405,
      "postalCode": "14633",
      "city": "TULLINGE"
    },
    {
      "id": 12406,
      "postalCode": "14633",
      "city": "TULLINGE"
    },
    {
      "id": 12407,
      "postalCode": "14633",
      "city": "TULLINGE"
    },
    {
      "id": 12408,
      "postalCode": "14652",
      "city": "TULLINGE"
    },
    {
      "id": 12409,
      "postalCode": "14652",
      "city": "TULLINGE"
    },
    {
      "id": 12410,
      "postalCode": "14652",
      "city": "TULLINGE"
    },
    {
      "id": 12411,
      "postalCode": "14652",
      "city": "TULLINGE"
    },
    {
      "id": 12412,
      "postalCode": "14650",
      "city": "TULLINGE"
    },
    {
      "id": 12413,
      "postalCode": "14763",
      "city": "TUMBA"
    },
    {
      "id": 12414,
      "postalCode": "14732",
      "city": "TUMBA"
    },
    {
      "id": 12415,
      "postalCode": "14732",
      "city": "TUMBA"
    },
    {
      "id": 12416,
      "postalCode": "14732",
      "city": "TUMBA"
    },
    {
      "id": 12417,
      "postalCode": "14732",
      "city": "TUMBA"
    },
    {
      "id": 12418,
      "postalCode": "14650",
      "city": "TULLINGE"
    },
    {
      "id": 12419,
      "postalCode": "14650",
      "city": "TULLINGE"
    },
    {
      "id": 12420,
      "postalCode": "14650",
      "city": "TULLINGE"
    },
    {
      "id": 12421,
      "postalCode": "14650",
      "city": "TULLINGE"
    },
    {
      "id": 12422,
      "postalCode": "14650",
      "city": "TULLINGE"
    },
    {
      "id": 12423,
      "postalCode": "14650",
      "city": "TULLINGE"
    },
    {
      "id": 12424,
      "postalCode": "14745",
      "city": "TUMBA"
    },
    {
      "id": 12425,
      "postalCode": "14745",
      "city": "TUMBA"
    },
    {
      "id": 12426,
      "postalCode": "14745",
      "city": "TUMBA"
    },
    {
      "id": 12427,
      "postalCode": "14745",
      "city": "TUMBA"
    },
    {
      "id": 12428,
      "postalCode": "14634",
      "city": "TULLINGE"
    },
    {
      "id": 12429,
      "postalCode": "14634",
      "city": "TULLINGE"
    },
    {
      "id": 12430,
      "postalCode": "14634",
      "city": "TULLINGE"
    },
    {
      "id": 12431,
      "postalCode": "14634",
      "city": "TULLINGE"
    },
    {
      "id": 12432,
      "postalCode": "14634",
      "city": "TULLINGE"
    },
    {
      "id": 12433,
      "postalCode": "14634",
      "city": "TULLINGE"
    },
    {
      "id": 12434,
      "postalCode": "14650",
      "city": "TULLINGE"
    },
    {
      "id": 12435,
      "postalCode": "14650",
      "city": "TULLINGE"
    },
    {
      "id": 12436,
      "postalCode": "146 50",
      "city": "Tullinge"
    },
    {
      "id": 12437,
      "postalCode": "14650",
      "city": "TULLINGE"
    },
    {
      "id": 12438,
      "postalCode": "14652",
      "city": "TULLINGE"
    },
    {
      "id": 12439,
      "postalCode": "14652",
      "city": "TULLINGE"
    },
    {
      "id": 12440,
      "postalCode": "14652",
      "city": "TULLINGE"
    },
    {
      "id": 12441,
      "postalCode": "14652",
      "city": "TULLINGE"
    },
    {
      "id": 12442,
      "postalCode": "14652",
      "city": "TULLINGE"
    },
    {
      "id": 12443,
      "postalCode": "14652",
      "city": "TULLINGE"
    },
    {
      "id": 12444,
      "postalCode": "14652",
      "city": "TULLINGE"
    },
    {
      "id": 12445,
      "postalCode": "14652",
      "city": "TULLINGE"
    },
    {
      "id": 12447,
      "postalCode": "14652",
      "city": "TULLINGE"
    },
    {
      "id": 12448,
      "postalCode": "14652",
      "city": "TULLINGE"
    },
    {
      "id": 12449,
      "postalCode": "14652",
      "city": "TULLINGE"
    },
    {
      "id": 12450,
      "postalCode": "14652",
      "city": "TULLINGE"
    },
    {
      "id": 12451,
      "postalCode": "14652",
      "city": "TULLINGE"
    },
    {
      "id": 12452,
      "postalCode": "14652",
      "city": "TULLINGE"
    },
    {
      "id": 12453,
      "postalCode": "14630",
      "city": "TULLINGE"
    },
    {
      "id": 12454,
      "postalCode": "14630",
      "city": "TULLINGE"
    },
    {
      "id": 12455,
      "postalCode": "14630",
      "city": "TULLINGE"
    },
    {
      "id": 12456,
      "postalCode": "14640",
      "city": "TULLINGE"
    },
    {
      "id": 12457,
      "postalCode": "14640",
      "city": "TULLINGE"
    },
    {
      "id": 12458,
      "postalCode": "14640",
      "city": "TULLINGE"
    },
    {
      "id": 12459,
      "postalCode": "14640",
      "city": "TULLINGE"
    },
    {
      "id": 12460,
      "postalCode": "14640",
      "city": "TULLINGE"
    },
    {
      "id": 12461,
      "postalCode": "14640",
      "city": "TULLINGE"
    },
    {
      "id": 12462,
      "postalCode": "14640",
      "city": "TULLINGE"
    },
    {
      "id": 12463,
      "postalCode": "14640",
      "city": "TULLINGE"
    },
    {
      "id": 12464,
      "postalCode": "14640",
      "city": "TULLINGE"
    },
    {
      "id": 12465,
      "postalCode": "14640",
      "city": "TULLINGE"
    },
    {
      "id": 12466,
      "postalCode": "14630",
      "city": "TULLINGE"
    },
    {
      "id": 12467,
      "postalCode": "14640",
      "city": "TULLINGE"
    },
    {
      "id": 12468,
      "postalCode": "14652",
      "city": "TULLINGE"
    },
    {
      "id": 12469,
      "postalCode": "14652",
      "city": "TULLINGE"
    },
    {
      "id": 12470,
      "postalCode": "14652",
      "city": "TULLINGE"
    },
    {
      "id": 12471,
      "postalCode": "14763",
      "city": "TUMBA"
    },
    {
      "id": 12472,
      "postalCode": "14763",
      "city": "TUMBA"
    },
    {
      "id": 12473,
      "postalCode": "14763",
      "city": "TUMBA"
    },
    {
      "id": 12474,
      "postalCode": "14763",
      "city": "TUMBA"
    },
    {
      "id": 12475,
      "postalCode": "14763",
      "city": "TUMBA"
    },
    {
      "id": 12476,
      "postalCode": "14763",
      "city": "TUMBA"
    },
    {
      "id": 12477,
      "postalCode": "14763",
      "city": "TUMBA"
    },
    {
      "id": 12478,
      "postalCode": "14763",
      "city": "TUMBA"
    },
    {
      "id": 12479,
      "postalCode": "14763",
      "city": "TUMBA"
    },
    {
      "id": 12480,
      "postalCode": "14763",
      "city": "TUMBA"
    },
    {
      "id": 12481,
      "postalCode": "14763",
      "city": "TUMBA"
    },
    {
      "id": 12482,
      "postalCode": "14763",
      "city": "TUMBA"
    },
    {
      "id": 12483,
      "postalCode": "14763",
      "city": "TUMBA"
    },
    {
      "id": 12484,
      "postalCode": "14763",
      "city": "TUMBA"
    },
    {
      "id": 12485,
      "postalCode": "14791",
      "city": "GRÖDINGE"
    },
    {
      "id": 12486,
      "postalCode": "14791",
      "city": "GRÖDINGE"
    },
    {
      "id": 12487,
      "postalCode": "14791",
      "city": "GRÖDINGE"
    },
    {
      "id": 12488,
      "postalCode": "14791",
      "city": "GRÖDINGE"
    },
    {
      "id": 12489,
      "postalCode": "14791",
      "city": "GRÖDINGE"
    },
    {
      "id": 12490,
      "postalCode": "14791",
      "city": "GRÖDINGE"
    },
    {
      "id": 12491,
      "postalCode": "14652",
      "city": "TULLINGE"
    },
    {
      "id": 12493,
      "postalCode": "14650",
      "city": "TULLINGE"
    },
    {
      "id": 12494,
      "postalCode": "14650",
      "city": "TULLINGE"
    },
    {
      "id": 12495,
      "postalCode": "14650",
      "city": "TULLINGE"
    },
    {
      "id": 12496,
      "postalCode": "146 30",
      "city": "TULLINGE"
    },
    {
      "id": 12497,
      "postalCode": "146 30",
      "city": "TULLINGE"
    },
    {
      "id": 12498,
      "postalCode": "14630",
      "city": "TULLINGE"
    },
    {
      "id": 12499,
      "postalCode": "14630",
      "city": "TULLINGE"
    },
    {
      "id": 12500,
      "postalCode": "14630",
      "city": "TULLINGE"
    },
    {
      "id": 12501,
      "postalCode": "14752",
      "city": "TUMBA"
    },
    {
      "id": 12502,
      "postalCode": "14752",
      "city": "TUMBA"
    },
    {
      "id": 12503,
      "postalCode": "14752",
      "city": "TUMBA"
    },
    {
      "id": 12504,
      "postalCode": "14752",
      "city": "TUMBA"
    },
    {
      "id": 12505,
      "postalCode": "14752",
      "city": "TUMBA"
    },
    {
      "id": 12506,
      "postalCode": "14752",
      "city": "TUMBA"
    },
    {
      "id": 12507,
      "postalCode": "14792",
      "city": "GRÖDINGE"
    },
    {
      "id": 12508,
      "postalCode": "14792",
      "city": "GRÖDINGE"
    },
    {
      "id": 12509,
      "postalCode": "14731",
      "city": "TUMBA"
    },
    {
      "id": 12510,
      "postalCode": "14733",
      "city": "TUMBA"
    },
    {
      "id": 12511,
      "postalCode": "14652",
      "city": "TULLINGE"
    },
    {
      "id": 12512,
      "postalCode": "14652",
      "city": "TULLINGE"
    },
    {
      "id": 12513,
      "postalCode": "14652",
      "city": "TULLINGE"
    },
    {
      "id": 12514,
      "postalCode": "14652",
      "city": "TULLINGE"
    },
    {
      "id": 12515,
      "postalCode": "14652",
      "city": "TULLINGE"
    },
    {
      "id": 12516,
      "postalCode": "14652",
      "city": "TULLINGE"
    },
    {
      "id": 12517,
      "postalCode": "14652",
      "city": "TULLINGE"
    },
    {
      "id": 12518,
      "postalCode": "14652",
      "city": "TULLINGE"
    },
    {
      "id": 12519,
      "postalCode": "14652",
      "city": "TULLINGE"
    },
    {
      "id": 12520,
      "postalCode": "14652",
      "city": "TULLINGE"
    },
    {
      "id": 12521,
      "postalCode": "14630",
      "city": "TULLINGE"
    },
    {
      "id": 12522,
      "postalCode": "14630",
      "city": "TULLINGE"
    },
    {
      "id": 12523,
      "postalCode": "14630",
      "city": "TULLINGE"
    },
    {
      "id": 12524,
      "postalCode": "14630",
      "city": "TULLINGE"
    },
    {
      "id": 12525,
      "postalCode": "14630",
      "city": "TULLINGE"
    },
    {
      "id": 12526,
      "postalCode": "14630",
      "city": "TULLINGE"
    },
    {
      "id": 12527,
      "postalCode": "14630",
      "city": "TULLINGE"
    },
    {
      "id": 12528,
      "postalCode": "14630",
      "city": "TULLINGE"
    },
    {
      "id": 12529,
      "postalCode": "14630",
      "city": "TULLINGE"
    },
    {
      "id": 12530,
      "postalCode": "14630",
      "city": "TULLINGE"
    },
    {
      "id": 12531,
      "postalCode": "14630",
      "city": "TULLINGE"
    },
    {
      "id": 12532,
      "postalCode": "14763",
      "city": "TUMBA"
    },
    {
      "id": 12533,
      "postalCode": "14763",
      "city": "TUMBA"
    },
    {
      "id": 12534,
      "postalCode": "14763",
      "city": "TUMBA"
    },
    {
      "id": 12535,
      "postalCode": "14763",
      "city": "TUMBA"
    },
    {
      "id": 12536,
      "postalCode": "14731",
      "city": "TUMBA"
    },
    {
      "id": 12537,
      "postalCode": "14731",
      "city": "TUMBA"
    },
    {
      "id": 12538,
      "postalCode": "14731",
      "city": "TUMBA"
    },
    {
      "id": 12539,
      "postalCode": "14649",
      "city": "TULLINGE"
    },
    {
      "id": 12540,
      "postalCode": "14649",
      "city": "TULLINGE"
    },
    {
      "id": 12541,
      "postalCode": "14649",
      "city": "TULLINGE"
    },
    {
      "id": 12542,
      "postalCode": "14649",
      "city": "TULLINGE"
    },
    {
      "id": 12543,
      "postalCode": "14649",
      "city": "TULLINGE"
    },
    {
      "id": 12544,
      "postalCode": "14649",
      "city": "TULLINGE"
    },
    {
      "id": 12545,
      "postalCode": "14649",
      "city": "TULLINGE"
    },
    {
      "id": 12546,
      "postalCode": "14649",
      "city": "TULLINGE"
    },
    {
      "id": 12547,
      "postalCode": "14649",
      "city": "TULLINGE"
    },
    {
      "id": 12548,
      "postalCode": "14649",
      "city": "TULLINGE"
    },
    {
      "id": 12549,
      "postalCode": "14649",
      "city": "TULLINGE"
    },
    {
      "id": 12550,
      "postalCode": "14649",
      "city": "TULLINGE"
    },
    {
      "id": 12551,
      "postalCode": "14649",
      "city": "TULLINGE"
    },
    {
      "id": 12552,
      "postalCode": "14648",
      "city": "TULLINGE"
    },
    {
      "id": 12553,
      "postalCode": "14648",
      "city": "TULLINGE"
    },
    {
      "id": 12554,
      "postalCode": "14654",
      "city": "TULLINGE"
    },
    {
      "id": 12555,
      "postalCode": "14654",
      "city": "TULLINGE"
    },
    {
      "id": 12556,
      "postalCode": "14654",
      "city": "TULLINGE"
    },
    {
      "id": 12557,
      "postalCode": "14650",
      "city": "TULLINGE"
    },
    {
      "id": 12558,
      "postalCode": "14650",
      "city": "TULLINGE"
    },
    {
      "id": 12559,
      "postalCode": "14650",
      "city": "TULLINGE"
    },
    {
      "id": 12560,
      "postalCode": "14650",
      "city": "TULLINGE"
    },
    {
      "id": 12561,
      "postalCode": "14650",
      "city": "TULLINGE"
    },
    {
      "id": 12562,
      "postalCode": "14650",
      "city": "TULLINGE"
    },
    {
      "id": 12563,
      "postalCode": "14650",
      "city": "TULLINGE"
    },
    {
      "id": 12564,
      "postalCode": "14746",
      "city": "TUMBA"
    },
    {
      "id": 12565,
      "postalCode": "14746",
      "city": "TUMBA"
    },
    {
      "id": 12566,
      "postalCode": "14746",
      "city": "TUMBA"
    },
    {
      "id": 12567,
      "postalCode": "14746",
      "city": "TUMBA"
    },
    {
      "id": 12568,
      "postalCode": "14746",
      "city": "TUMBA"
    },
    {
      "id": 12569,
      "postalCode": "14746",
      "city": "TUMBA"
    },
    {
      "id": 12570,
      "postalCode": "14746",
      "city": "TUMBA"
    },
    {
      "id": 12571,
      "postalCode": "14746",
      "city": "TUMBA"
    },
    {
      "id": 12572,
      "postalCode": "14746",
      "city": "TUMBA"
    },
    {
      "id": 12573,
      "postalCode": "14746",
      "city": "TUMBA"
    },
    {
      "id": 12574,
      "postalCode": "14746",
      "city": "TUMBA"
    },
    {
      "id": 12575,
      "postalCode": "14746",
      "city": "TUMBA"
    },
    {
      "id": 12576,
      "postalCode": "14746",
      "city": "TUMBA"
    },
    {
      "id": 12577,
      "postalCode": "14746",
      "city": "TUMBA"
    },
    {
      "id": 12578,
      "postalCode": "14746",
      "city": "TUMBA"
    },
    {
      "id": 12579,
      "postalCode": "14746",
      "city": "TUMBA"
    },
    {
      "id": 12580,
      "postalCode": "14746",
      "city": "TUMBA"
    },
    {
      "id": 12581,
      "postalCode": "14746",
      "city": "TUMBA"
    },
    {
      "id": 12582,
      "postalCode": "14648",
      "city": "TULLINGE"
    },
    {
      "id": 12583,
      "postalCode": "14648",
      "city": "TULLINGE"
    },
    {
      "id": 12584,
      "postalCode": "14638",
      "city": "TULLINGE"
    },
    {
      "id": 12585,
      "postalCode": "14638",
      "city": "TULLINGE"
    },
    {
      "id": 12586,
      "postalCode": "14638",
      "city": "TULLINGE"
    },
    {
      "id": 12587,
      "postalCode": "14638",
      "city": "TULLINGE"
    },
    {
      "id": 12588,
      "postalCode": "14638",
      "city": "TULLINGE"
    },
    {
      "id": 12589,
      "postalCode": "14638",
      "city": "TULLINGE"
    },
    {
      "id": 12590,
      "postalCode": "14638",
      "city": "TULLINGE"
    },
    {
      "id": 12591,
      "postalCode": "14638",
      "city": "TULLINGE"
    },
    {
      "id": 12592,
      "postalCode": "14638",
      "city": "TULLINGE"
    },
    {
      "id": 12593,
      "postalCode": "14638",
      "city": "TULLINGE"
    },
    {
      "id": 12594,
      "postalCode": "14638",
      "city": "TULLINGE"
    },
    {
      "id": 12595,
      "postalCode": "14638",
      "city": "TULLINGE"
    },
    {
      "id": 12596,
      "postalCode": "14552",
      "city": "NORSBORG"
    },
    {
      "id": 12597,
      "postalCode": "14740",
      "city": "TUMBA"
    },
    {
      "id": 12598,
      "postalCode": "14734",
      "city": "TUMBA"
    },
    {
      "id": 12599,
      "postalCode": "14734",
      "city": "TUMBA"
    },
    {
      "id": 12600,
      "postalCode": "14734",
      "city": "TUMBA"
    },
    {
      "id": 12601,
      "postalCode": "14734",
      "city": "TUMBA"
    },
    {
      "id": 12602,
      "postalCode": "14734",
      "city": "TUMBA"
    },
    {
      "id": 12603,
      "postalCode": "14734",
      "city": "TUMBA"
    },
    {
      "id": 12604,
      "postalCode": "14734",
      "city": "TUMBA"
    },
    {
      "id": 12605,
      "postalCode": "14734",
      "city": "TUMBA"
    },
    {
      "id": 12606,
      "postalCode": "14734",
      "city": "TUMBA"
    },
    {
      "id": 12607,
      "postalCode": "14734",
      "city": "TUMBA"
    },
    {
      "id": 12608,
      "postalCode": "14734",
      "city": "TUMBA"
    },
    {
      "id": 12609,
      "postalCode": "14734",
      "city": "TUMBA"
    },
    {
      "id": 12610,
      "postalCode": "14734",
      "city": "TUMBA"
    },
    {
      "id": 12611,
      "postalCode": "14734",
      "city": "TUMBA"
    },
    {
      "id": 12612,
      "postalCode": "14648",
      "city": "TULLINGE"
    },
    {
      "id": 12613,
      "postalCode": "14648",
      "city": "TULLINGE"
    },
    {
      "id": 12614,
      "postalCode": "14648",
      "city": "TULLINGE"
    },
    {
      "id": 12615,
      "postalCode": "14648",
      "city": "TULLINGE"
    },
    {
      "id": 12616,
      "postalCode": "14648",
      "city": "TULLINGE"
    },
    {
      "id": 12617,
      "postalCode": "14648",
      "city": "TULLINGE"
    },
    {
      "id": 12618,
      "postalCode": "14648",
      "city": "TULLINGE"
    },
    {
      "id": 12619,
      "postalCode": "14648",
      "city": "TULLINGE"
    },
    {
      "id": 12620,
      "postalCode": "14650",
      "city": "TULLINGE"
    },
    {
      "id": 12621,
      "postalCode": "14650",
      "city": "TULLINGE"
    },
    {
      "id": 12622,
      "postalCode": "14650",
      "city": "TULLINGE"
    },
    {
      "id": 12623,
      "postalCode": "14650",
      "city": "TULLINGE"
    },
    {
      "id": 12624,
      "postalCode": "14650",
      "city": "TULLINGE"
    },
    {
      "id": 12625,
      "postalCode": "14650",
      "city": "TULLINGE"
    },
    {
      "id": 12626,
      "postalCode": "14763",
      "city": "TUMBA"
    },
    {
      "id": 12627,
      "postalCode": "14763",
      "city": "TUMBA"
    },
    {
      "id": 12628,
      "postalCode": "14763",
      "city": "TUMBA"
    },
    {
      "id": 12629,
      "postalCode": "14763",
      "city": "TUMBA"
    },
    {
      "id": 12630,
      "postalCode": "14763",
      "city": "TUMBA"
    },
    {
      "id": 12631,
      "postalCode": "14763",
      "city": "TUMBA"
    },
    {
      "id": 12632,
      "postalCode": "14763",
      "city": "TUMBA"
    },
    {
      "id": 12633,
      "postalCode": "14763",
      "city": "TUMBA"
    },
    {
      "id": 12634,
      "postalCode": "14763",
      "city": "TUMBA"
    },
    {
      "id": 12635,
      "postalCode": "14763",
      "city": "TUMBA"
    },
    {
      "id": 12636,
      "postalCode": "14763",
      "city": "TUMBA"
    },
    {
      "id": 12637,
      "postalCode": "14763",
      "city": "TUMBA"
    },
    {
      "id": 12638,
      "postalCode": "14763",
      "city": "TUMBA"
    },
    {
      "id": 12639,
      "postalCode": "14763",
      "city": "TUMBA"
    },
    {
      "id": 12640,
      "postalCode": "14791",
      "city": "GRÖDINGE"
    },
    {
      "id": 12641,
      "postalCode": "14791",
      "city": "GRÖDINGE"
    },
    {
      "id": 12642,
      "postalCode": "147 91",
      "city": "GRÖDINGE"
    },
    {
      "id": 12643,
      "postalCode": "14791",
      "city": "GRÖDINGE"
    },
    {
      "id": 12644,
      "postalCode": "14791",
      "city": "GRÖDINGE"
    },
    {
      "id": 12645,
      "postalCode": "14791",
      "city": "GRÖDINGE"
    },
    {
      "id": 12646,
      "postalCode": "14791",
      "city": "GRÖDINGE"
    },
    {
      "id": 12647,
      "postalCode": "14791",
      "city": "GRÖDINGE"
    },
    {
      "id": 12648,
      "postalCode": "14791",
      "city": "GRÖDINGE"
    },
    {
      "id": 12649,
      "postalCode": "14791",
      "city": "GRÖDINGE"
    },
    {
      "id": 12650,
      "postalCode": "14557",
      "city": "NORSBORG"
    },
    {
      "id": 12651,
      "postalCode": "14557",
      "city": "NORSBORG"
    },
    {
      "id": 12652,
      "postalCode": "14557",
      "city": "NORSBORG"
    },
    {
      "id": 12653,
      "postalCode": "14743",
      "city": "TUMBA"
    },
    {
      "id": 12654,
      "postalCode": "14743",
      "city": "TUMBA"
    },
    {
      "id": 12655,
      "postalCode": "14743",
      "city": "TUMBA"
    },
    {
      "id": 12656,
      "postalCode": "14763",
      "city": "TUMBA"
    },
    {
      "id": 12658,
      "postalCode": "14734",
      "city": "TUMBA"
    },
    {
      "id": 12659,
      "postalCode": "14734",
      "city": "TUMBA"
    },
    {
      "id": 12661,
      "postalCode": "14653",
      "city": "TULLINGE"
    },
    {
      "id": 12662,
      "postalCode": "14654",
      "city": "TULLINGE"
    },
    {
      "id": 12663,
      "postalCode": "14653",
      "city": "TULLINGE"
    },
    {
      "id": 12664,
      "postalCode": "14760",
      "city": "TUMBA"
    },
    {
      "id": 12665,
      "postalCode": "14760",
      "city": "TUMBA"
    },
    {
      "id": 12666,
      "postalCode": "14760",
      "city": "TUMBA"
    },
    {
      "id": 12667,
      "postalCode": "14760",
      "city": "TUMBA"
    },
    {
      "id": 12668,
      "postalCode": "14760",
      "city": "TUMBA"
    },
    {
      "id": 12669,
      "postalCode": "14565",
      "city": "NORSBORG"
    },
    {
      "id": 12670,
      "postalCode": "14565",
      "city": "NORSBORG"
    },
    {
      "id": 12671,
      "postalCode": "14565",
      "city": "NORSBORG"
    },
    {
      "id": 12672,
      "postalCode": "14565",
      "city": "NORSBORG"
    },
    {
      "id": 12673,
      "postalCode": "14731",
      "city": "TUMBA"
    }
  ]