[
    {
      "id": 8593,
      "postalCode": "14763",
      "city": "UTTRAN"
    },
    {
      "id": 8595,
      "postalCode": "14763",
      "city": "UTTRAN"
    },
    {
      "id": 8596,
      "postalCode": "14763",
      "city": "UTTRAN"
    },
    {
      "id": 8597,
      "postalCode": "14763",
      "city": "UTTRAN"
    },
    {
      "id": 8598,
      "postalCode": "14763",
      "city": "UTTRAN"
    },
    {
      "id": 8599,
      "postalCode": "14763",
      "city": "UTTRAN"
    },
    {
      "id": 8600,
      "postalCode": "14763",
      "city": "UTTRAN"
    },
    {
      "id": 8601,
      "postalCode": "14763",
      "city": "UTTRAN"
    },
    {
      "id": 8602,
      "postalCode": "14638",
      "city": "TULLINGE"
    },
    {
      "id": 8603,
      "postalCode": "14731",
      "city": "TUMBA"
    },
    {
      "id": 8604,
      "postalCode": "14638",
      "city": "TULLINGE"
    },
    {
      "id": 8605,
      "postalCode": "14638",
      "city": "TULLINGE"
    },
    {
      "id": 8606,
      "postalCode": "14638",
      "city": "TULLINGE"
    },
    {
      "id": 8607,
      "postalCode": "14638",
      "city": "TULLINGE"
    },
    {
      "id": 8608,
      "postalCode": "14638",
      "city": "TULLINGE"
    },
    {
      "id": 8609,
      "postalCode": "14638",
      "city": "TULLINGE"
    },
    {
      "id": 8610,
      "postalCode": "14648",
      "city": "TULLINGE"
    },
    {
      "id": 8611,
      "postalCode": "14638",
      "city": "TULLINGE"
    },
    {
      "id": 8612,
      "postalCode": "14638",
      "city": "TULLINGE"
    },
    {
      "id": 8613,
      "postalCode": "14654",
      "city": "TULLINGE"
    },
    {
      "id": 8614,
      "postalCode": "14640",
      "city": "TULLINGE"
    },
    {
      "id": 8615,
      "postalCode": "14640",
      "city": "TULLINGE"
    },
    {
      "id": 8616,
      "postalCode": "14638",
      "city": "TULLINGE"
    },
    {
      "id": 8617,
      "postalCode": "14652",
      "city": "TULLINGE"
    },
    {
      "id": 8618,
      "postalCode": "14638",
      "city": "TULLINGE"
    },
    {
      "id": 8619,
      "postalCode": "14636",
      "city": "TULLINGE"
    },
    {
      "id": 8620,
      "postalCode": "14636",
      "city": "TULLINGE"
    },
    {
      "id": 8621,
      "postalCode": "14638",
      "city": "TULLINGE"
    },
    {
      "id": 8622,
      "postalCode": "14636",
      "city": "TULLINGE"
    },
    {
      "id": 8623,
      "postalCode": "14652",
      "city": "TULLINGE"
    },
    {
      "id": 8624,
      "postalCode": "14638",
      "city": "TULLINGE"
    },
    {
      "id": 8625,
      "postalCode": "14638",
      "city": "TULLINGE"
    },
    {
      "id": 8626,
      "postalCode": "14638",
      "city": "TULLINGE"
    },
    {
      "id": 8627,
      "postalCode": "14638",
      "city": "TULLINGE"
    },
    {
      "id": 8628,
      "postalCode": "14650",
      "city": "TULLINGE"
    },
    {
      "id": 8629,
      "postalCode": "14631",
      "city": "TULLINGE"
    },
    {
      "id": 8630,
      "postalCode": "14654",
      "city": "TULLINGE"
    },
    {
      "id": 8631,
      "postalCode": "14652",
      "city": "TULLINGE"
    },
    {
      "id": 8632,
      "postalCode": "14654",
      "city": "TULLINGE"
    },
    {
      "id": 8633,
      "postalCode": "14652",
      "city": "TULLINGE"
    },
    {
      "id": 8634,
      "postalCode": "14652",
      "city": "TULLINGE"
    },
    {
      "id": 8635,
      "postalCode": "14650",
      "city": "TULLINGE"
    },
    {
      "id": 8636,
      "postalCode": "14638",
      "city": "TULLINGE"
    },
    {
      "id": 8637,
      "postalCode": "14650",
      "city": "TULLINGE"
    },
    {
      "id": 8638,
      "postalCode": "14650",
      "city": "TULLINGE"
    },
    {
      "id": 8639,
      "postalCode": "14654",
      "city": "TULLINGE"
    },
    {
      "id": 8640,
      "postalCode": "14654",
      "city": "TULLINGE"
    },
    {
      "id": 8641,
      "postalCode": "14650",
      "city": "TULLINGE"
    },
    {
      "id": 8642,
      "postalCode": "14654",
      "city": "TULLINGE"
    },
    {
      "id": 8643,
      "postalCode": "14654",
      "city": "TULLINGE"
    },
    {
      "id": 8644,
      "postalCode": "14640",
      "city": "TULLINGE"
    },
    {
      "id": 8645,
      "postalCode": "14640",
      "city": "TULLINGE"
    },
    {
      "id": 8646,
      "postalCode": "14654",
      "city": "TULLINGE"
    },
    {
      "id": 8647,
      "postalCode": "14654",
      "city": "TULLINGE"
    },
    {
      "id": 8648,
      "postalCode": "14640",
      "city": "TULLINGE"
    },
    {
      "id": 8649,
      "postalCode": "14640",
      "city": "TULLINGE"
    },
    {
      "id": 8650,
      "postalCode": "14640",
      "city": "TULLINGE"
    },
    {
      "id": 8651,
      "postalCode": "14640",
      "city": "TULLINGE"
    },
    {
      "id": 8652,
      "postalCode": "14650",
      "city": "TULLINGE"
    },
    {
      "id": 8653,
      "postalCode": "14652",
      "city": "TULLINGE"
    },
    {
      "id": 8654,
      "postalCode": "14652",
      "city": "TULLINGE"
    },
    {
      "id": 8655,
      "postalCode": "14652",
      "city": "TULLINGE"
    },
    {
      "id": 8656,
      "postalCode": "14641",
      "city": "TULLINGE"
    },
    {
      "id": 8657,
      "postalCode": "14641",
      "city": "TULLINGE"
    },
    {
      "id": 8658,
      "postalCode": "14640",
      "city": "TULLINGE"
    },
    {
      "id": 8659,
      "postalCode": "14654",
      "city": "TULLINGE"
    },
    {
      "id": 8660,
      "postalCode": "14638",
      "city": "TULLINGE"
    },
    {
      "id": 8661,
      "postalCode": "14654",
      "city": "TULLINGE"
    },
    {
      "id": 8662,
      "postalCode": "14652",
      "city": "TULLINGE"
    },
    {
      "id": 8663,
      "postalCode": "14652",
      "city": "TULLINGE"
    },
    {
      "id": 8664,
      "postalCode": "14652",
      "city": "TULLINGE"
    },
    {
      "id": 8665,
      "postalCode": "14650",
      "city": "TULLINGE"
    },
    {
      "id": 8667,
      "postalCode": "14650",
      "city": "TULLINGE"
    },
    {
      "id": 8668,
      "postalCode": "14650",
      "city": "TULLINGE"
    },
    {
      "id": 8669,
      "postalCode": "14648",
      "city": "TULLINGE"
    },
    {
      "id": 8671,
      "postalCode": "14653",
      "city": "TULLINGE"
    },
    {
      "id": 8673,
      "postalCode": "14652",
      "city": "TULLINGE"
    },
    {
      "id": 8676,
      "postalCode": "14553",
      "city": "NORSBORG"
    },
    {
      "id": 8677,
      "postalCode": "14650",
      "city": "TULLINGE"
    },
    {
      "id": 8678,
      "postalCode": "14638",
      "city": "TULLINGE"
    },
    {
      "id": 8679,
      "postalCode": "14763",
      "city": "UTTRAN"
    },
    {
      "id": 8680,
      "postalCode": "14576",
      "city": "NORSBORG"
    },
    {
      "id": 8682,
      "postalCode": "14731",
      "city": "TUMBA"
    },
    {
      "id": 8683,
      "postalCode": "14731",
      "city": "TUMBA"
    },
    {
      "id": 8684,
      "postalCode": "14763",
      "city": "UTTRAN"
    },
    {
      "id": 8685,
      "postalCode": "14760",
      "city": "UTTRAN"
    },
    {
      "id": 8686,
      "postalCode": "14760",
      "city": "UTTRAN"
    },
    {
      "id": 8687,
      "postalCode": "14760",
      "city": "UTTRAN"
    },
    {
      "id": 8688,
      "postalCode": "14760",
      "city": "UTTRAN"
    },
    {
      "id": 8689,
      "postalCode": "14763",
      "city": "UTTRAN"
    },
    {
      "id": 8690,
      "postalCode": "14763",
      "city": "UTTRAN"
    },
    {
      "id": 8691,
      "postalCode": "14733",
      "city": "TUMBA"
    },
    {
      "id": 8692,
      "postalCode": "14752",
      "city": "TUMBA"
    },
    {
      "id": 8693,
      "postalCode": "14636",
      "city": "TULLINGE"
    },
    {
      "id": 8694,
      "postalCode": "14636",
      "city": "TULLINGE"
    },
    {
      "id": 8695,
      "postalCode": "14638",
      "city": "TULLINGE"
    },
    {
      "id": 8696,
      "postalCode": "14636",
      "city": "TULLINGE"
    },
    {
      "id": 8697,
      "postalCode": "14733",
      "city": "TUMBA"
    },
    {
      "id": 8698,
      "postalCode": "14731",
      "city": "TUMBA"
    },
    {
      "id": 8699,
      "postalCode": "14650",
      "city": "TULLINGE"
    },
    {
      "id": 8700,
      "postalCode": "14763",
      "city": "UTTRAN"
    },
    {
      "id": 8701,
      "postalCode": "14763",
      "city": "UTTRAN"
    },
    {
      "id": 8702,
      "postalCode": "14636",
      "city": "TULLINGE"
    },
    {
      "id": 8703,
      "postalCode": "14638",
      "city": "TULLINGE"
    },
    {
      "id": 8704,
      "postalCode": "14638",
      "city": "TULLINGE"
    },
    {
      "id": 8705,
      "postalCode": "14638",
      "city": "TULLINGE"
    },
    {
      "id": 8706,
      "postalCode": "14652",
      "city": "TULLINGE"
    },
    {
      "id": 8707,
      "postalCode": "14733",
      "city": "TUMBA"
    },
    {
      "id": 8708,
      "postalCode": "14638",
      "city": "TULLINGE"
    },
    {
      "id": 8709,
      "postalCode": "14636",
      "city": "TULLINGE"
    },
    {
      "id": 8710,
      "postalCode": "14636",
      "city": "TULLINGE"
    },
    {
      "id": 8711,
      "postalCode": "14648",
      "city": "TULLINGE"
    },
    {
      "id": 8712,
      "postalCode": "14650",
      "city": "TULLINGE"
    },
    {
      "id": 8713,
      "postalCode": "14652",
      "city": "TULLINGE"
    },
    {
      "id": 8714,
      "postalCode": "14653",
      "city": "TULLINGE"
    },
    {
      "id": 8715,
      "postalCode": "14654",
      "city": "TULLINGE"
    },
    {
      "id": 8716,
      "postalCode": "14733",
      "city": "TUMBA"
    },
    {
      "id": 8717,
      "postalCode": "14638",
      "city": "TULLINGE"
    },
    {
      "id": 8718,
      "postalCode": "14653",
      "city": "TULLINGE"
    },
    {
      "id": 8719,
      "postalCode": "14638",
      "city": "TULLINGE"
    },
    {
      "id": 8720,
      "postalCode": "14636",
      "city": "TULLINGE"
    },
    {
      "id": 8721,
      "postalCode": "14636",
      "city": "TULLINGE"
    },
    {
      "id": 8722,
      "postalCode": "14654",
      "city": "TULLINGE"
    },
    {
      "id": 8723,
      "postalCode": "14652",
      "city": "TULLINGE"
    },
    {
      "id": 8724,
      "postalCode": "14654",
      "city": "TULLINGE"
    },
    {
      "id": 8725,
      "postalCode": "14652",
      "city": "TULLINGE"
    },
    {
      "id": 8726,
      "postalCode": "14652",
      "city": "TULLINGE"
    },
    {
      "id": 8727,
      "postalCode": "14654",
      "city": "TULLINGE"
    },
    {
      "id": 8728,
      "postalCode": "14576",
      "city": "NORSBORG"
    },
    {
      "id": 8729,
      "postalCode": "14732",
      "city": "TUMBA"
    },
    {
      "id": 8730,
      "postalCode": "14654",
      "city": "TULLINGE"
    },
    {
      "id": 8731,
      "postalCode": "14650",
      "city": "TULLINGE"
    },
    {
      "id": 8732,
      "postalCode": "14733",
      "city": "TUMBA"
    },
    {
      "id": 8733,
      "postalCode": "14763",
      "city": "UTTRAN"
    },
    {
      "id": 8734,
      "postalCode": "14731",
      "city": "TUMBA"
    },
    {
      "id": 8735,
      "postalCode": "14734",
      "city": "TUMBA"
    },
    {
      "id": 8736,
      "postalCode": "14763",
      "city": "UTTRAN"
    },
    {
      "id": 8737,
      "postalCode": "14763",
      "city": "UTTRAN"
    },
    {
      "id": 8738,
      "postalCode": "14734",
      "city": "TUMBA"
    },
    {
      "id": 8739,
      "postalCode": "14733",
      "city": "TUMBA"
    },
    {
      "id": 8740,
      "postalCode": "14763",
      "city": "UTTRAN"
    },
    {
      "id": 8741,
      "postalCode": "14731",
      "city": "TUMBA"
    },
    {
      "id": 8742,
      "postalCode": "14731",
      "city": "TUMBA"
    },
    {
      "id": 8743,
      "postalCode": "14733",
      "city": "TUMBA"
    },
    {
      "id": 8744,
      "postalCode": "14734",
      "city": "TUMBA"
    },
    {
      "id": 8745,
      "postalCode": "14731",
      "city": "TUMBA"
    },
    {
      "id": 8746,
      "postalCode": "14731",
      "city": "TUMBA"
    },
    {
      "id": 8747,
      "postalCode": "14760",
      "city": "UTTRAN"
    },
    {
      "id": 8748,
      "postalCode": "14751",
      "city": "TUMBA"
    },
    {
      "id": 8749,
      "postalCode": "14733",
      "city": "TUMBA"
    },
    {
      "id": 8750,
      "postalCode": "14763",
      "city": "UTTRAN"
    },
    {
      "id": 8751,
      "postalCode": "14763",
      "city": "UTTRAN"
    },
    {
      "id": 8752,
      "postalCode": "14763",
      "city": "UTTRAN"
    },
    {
      "id": 8753,
      "postalCode": "14752",
      "city": "TUMBA"
    },
    {
      "id": 8754,
      "postalCode": "14760",
      "city": "UTTRAN"
    },
    {
      "id": 8755,
      "postalCode": "14763",
      "city": "UTTRAN"
    },
    {
      "id": 8756,
      "postalCode": "14763",
      "city": "UTTRAN"
    },
    {
      "id": 8757,
      "postalCode": "14763",
      "city": "UTTRAN"
    },
    {
      "id": 8758,
      "postalCode": "14763",
      "city": "UTTRAN"
    },
    {
      "id": 8759,
      "postalCode": "14763",
      "city": "UTTRAN"
    },
    {
      "id": 8760,
      "postalCode": "14763",
      "city": "UTTRAN"
    },
    {
      "id": 8761,
      "postalCode": "14763",
      "city": "UTTRAN"
    },
    {
      "id": 8762,
      "postalCode": "14746",
      "city": "TUMBA"
    },
    {
      "id": 8763,
      "postalCode": "14636",
      "city": "TULLINGE"
    },
    {
      "id": 8764,
      "postalCode": "14760",
      "city": "UTTRAN"
    },
    {
      "id": 8765,
      "postalCode": "14760",
      "city": "UTTRAN"
    },
    {
      "id": 8766,
      "postalCode": "14760",
      "city": "UTTRAN"
    },
    {
      "id": 8767,
      "postalCode": "14760",
      "city": "UTTRAN"
    },
    {
      "id": 8769,
      "postalCode": "14746",
      "city": "TUMBA"
    },
    {
      "id": 8770,
      "postalCode": "14791",
      "city": "GRÖDINGE"
    },
    {
      "id": 8771,
      "postalCode": "14746",
      "city": "TUMBA"
    },
    {
      "id": 8772,
      "postalCode": "14763",
      "city": "UTTRAN"
    },
    {
      "id": 8773,
      "postalCode": "14763",
      "city": "UTTRAN"
    },
    {
      "id": 8774,
      "postalCode": "14792",
      "city": "GRÖDINGE"
    },
    {
      "id": 8775,
      "postalCode": "14763",
      "city": "UTTRAN"
    },
    {
      "id": 8776,
      "postalCode": "14763",
      "city": "UTTRAN"
    },
    {
      "id": 8777,
      "postalCode": "14763",
      "city": "UTTRAN"
    },
    {
      "id": 8778,
      "postalCode": "14731",
      "city": "TUMBA"
    },
    {
      "id": 8779,
      "postalCode": "14760",
      "city": "UTTRAN"
    },
    {
      "id": 8780,
      "postalCode": "14752",
      "city": "TUMBA"
    },
    {
      "id": 8781,
      "postalCode": "14763",
      "city": "UTTRAN"
    },
    {
      "id": 8782,
      "postalCode": "14734",
      "city": "TUMBA"
    },
    {
      "id": 8783,
      "postalCode": "14763",
      "city": "UTTRAN"
    },
    {
      "id": 8784,
      "postalCode": "14763",
      "city": "UTTRAN"
    },
    {
      "id": 8785,
      "postalCode": "14734",
      "city": "TUMBA"
    },
    {
      "id": 8786,
      "postalCode": "14733",
      "city": "TUMBA"
    },
    {
      "id": 8787,
      "postalCode": "14763",
      "city": "UTTRAN"
    },
    {
      "id": 8788,
      "postalCode": "14731",
      "city": "TUMBA"
    },
    {
      "id": 8789,
      "postalCode": "14763",
      "city": "UTTRAN"
    },
    {
      "id": 8790,
      "postalCode": "14734",
      "city": "TUMBA"
    },
    {
      "id": 8791,
      "postalCode": "14763",
      "city": "UTTRAN"
    },
    {
      "id": 8792,
      "postalCode": "14782",
      "city": "TUMBA"
    },
    {
      "id": 8795,
      "postalCode": "14771",
      "city": "GRÖDINGE"
    },
    {
      "id": 8796,
      "postalCode": "14771",
      "city": "GRÖDINGE"
    },
    {
      "id": 8797,
      "postalCode": "14771",
      "city": "GRÖDINGE"
    },
    {
      "id": 8798,
      "postalCode": "14771",
      "city": "GRÖDINGE"
    },
    {
      "id": 8799,
      "postalCode": "14771",
      "city": "GRÖDINGE"
    },
    {
      "id": 8800,
      "postalCode": "14771",
      "city": "GRÖDINGE"
    },
    {
      "id": 8801,
      "postalCode": "14771",
      "city": "GRÖDINGE"
    },
    {
      "id": 8802,
      "postalCode": "14771",
      "city": "GRÖDINGE"
    },
    {
      "id": 8803,
      "postalCode": "14771",
      "city": "GRÖDINGE"
    },
    {
      "id": 8804,
      "postalCode": "14648",
      "city": "TULLINGE"
    },
    {
      "id": 8805,
      "postalCode": "14650",
      "city": "TULLINGE"
    },
    {
      "id": 8806,
      "postalCode": "14650",
      "city": "TULLINGE"
    },
    {
      "id": 8807,
      "postalCode": "14650",
      "city": "TULLINGE"
    },
    {
      "id": 8808,
      "postalCode": "14654",
      "city": "TULLINGE"
    },
    {
      "id": 8809,
      "postalCode": "14650",
      "city": "TULLINGE"
    },
    {
      "id": 8810,
      "postalCode": "14763",
      "city": "UTTRAN"
    },
    {
      "id": 8811,
      "postalCode": "14654",
      "city": "TULLINGE"
    },
    {
      "id": 8812,
      "postalCode": "14654",
      "city": "TULLINGE"
    },
    {
      "id": 8813,
      "postalCode": "14654",
      "city": "TULLINGE"
    },
    {
      "id": 8814,
      "postalCode": "14654",
      "city": "TULLINGE"
    },
    {
      "id": 8815,
      "postalCode": "14650",
      "city": "TULLINGE"
    },
    {
      "id": 8816,
      "postalCode": "14654",
      "city": "TULLINGE"
    },
    {
      "id": 8817,
      "postalCode": "14654",
      "city": "TULLINGE"
    },
    {
      "id": 8818,
      "postalCode": "14654",
      "city": "TULLINGE"
    },
    {
      "id": 8819,
      "postalCode": "14648",
      "city": "TULLINGE"
    },
    {
      "id": 8820,
      "postalCode": "14640",
      "city": "TULLINGE"
    },
    {
      "id": 8821,
      "postalCode": "14640",
      "city": "TULLINGE"
    },
    {
      "id": 8822,
      "postalCode": "14640",
      "city": "TULLINGE"
    },
    {
      "id": 8823,
      "postalCode": "14654",
      "city": "TULLINGE"
    },
    {
      "id": 8824,
      "postalCode": "14640",
      "city": "TULLINGE"
    },
    {
      "id": 8825,
      "postalCode": "14640",
      "city": "TULLINGE"
    },
    {
      "id": 8826,
      "postalCode": "14640",
      "city": "TULLINGE"
    },
    {
      "id": 8827,
      "postalCode": "14640",
      "city": "TULLINGE"
    },
    {
      "id": 8828,
      "postalCode": "14640",
      "city": "TULLINGE"
    },
    {
      "id": 8829,
      "postalCode": "14640",
      "city": "TULLINGE"
    },
    {
      "id": 8830,
      "postalCode": "14640",
      "city": "TULLINGE"
    },
    {
      "id": 8831,
      "postalCode": "14640",
      "city": "TULLINGE"
    },
    {
      "id": 8832,
      "postalCode": "14652",
      "city": "TULLINGE"
    },
    {
      "id": 8833,
      "postalCode": "14650",
      "city": "TULLINGE"
    },
    {
      "id": 8834,
      "postalCode": "14654",
      "city": "TULLINGE"
    },
    {
      "id": 8835,
      "postalCode": "14654",
      "city": "TULLINGE"
    },
    {
      "id": 8836,
      "postalCode": "14760",
      "city": "UTTRAN"
    },
    {
      "id": 8837,
      "postalCode": "14760",
      "city": "UTTRAN"
    },
    {
      "id": 8838,
      "postalCode": "14652",
      "city": "TULLINGE"
    },
    {
      "id": 8839,
      "postalCode": "14648",
      "city": "TULLINGE"
    },
    {
      "id": 8840,
      "postalCode": "14553",
      "city": "NORSBORG"
    },
    {
      "id": 8841,
      "postalCode": "14654",
      "city": "TULLINGE"
    },
    {
      "id": 8842,
      "postalCode": "14650",
      "city": "TULLINGE"
    },
    {
      "id": 8843,
      "postalCode": "14741",
      "city": "TUMBA"
    },
    {
      "id": 8844,
      "postalCode": "14640",
      "city": "TULLINGE"
    },
    {
      "id": 8845,
      "postalCode": "14654",
      "city": "TULLINGE"
    },
    {
      "id": 8846,
      "postalCode": "14652",
      "city": "TULLINGE"
    },
    {
      "id": 8847,
      "postalCode": "14734",
      "city": "TUMBA"
    },
    {
      "id": 8848,
      "postalCode": "14640",
      "city": "TULLINGE"
    },
    {
      "id": 8849,
      "postalCode": "14640",
      "city": "TULLINGE"
    },
    {
      "id": 8850,
      "postalCode": "14640",
      "city": "TULLINGE"
    },
    {
      "id": 8851,
      "postalCode": "14640",
      "city": "TULLINGE"
    },
    {
      "id": 8852,
      "postalCode": "14640",
      "city": "TULLINGE"
    },
    {
      "id": 8853,
      "postalCode": "14640",
      "city": "TULLINGE"
    },
    {
      "id": 8854,
      "postalCode": "14650",
      "city": "TULLINGE"
    },
    {
      "id": 8855,
      "postalCode": "14650",
      "city": "TULLINGE"
    },
    {
      "id": 8856,
      "postalCode": "14652",
      "city": "TULLINGE"
    },
    {
      "id": 8857,
      "postalCode": "14652",
      "city": "TULLINGE"
    },
    {
      "id": 8858,
      "postalCode": "14652",
      "city": "TULLINGE"
    },
    {
      "id": 8859,
      "postalCode": "14652",
      "city": "TULLINGE"
    },
    {
      "id": 8860,
      "postalCode": "14640",
      "city": "TULLINGE"
    },
    {
      "id": 8861,
      "postalCode": "14654",
      "city": "TULLINGE"
    },
    {
      "id": 8862,
      "postalCode": "14654",
      "city": "TULLINGE"
    },
    {
      "id": 8863,
      "postalCode": "14654",
      "city": "TULLINGE"
    },
    {
      "id": 8864,
      "postalCode": "14741",
      "city": "TUMBA"
    },
    {
      "id": 8865,
      "postalCode": "14741",
      "city": "TUMBA"
    },
    {
      "id": 8866,
      "postalCode": "14743",
      "city": "TUMBA"
    },
    {
      "id": 8867,
      "postalCode": "14743",
      "city": "TUMBA"
    },
    {
      "id": 8868,
      "postalCode": "14652",
      "city": "TULLINGE"
    },
    {
      "id": 8869,
      "postalCode": "14743",
      "city": "TUMBA"
    },
    {
      "id": 8870,
      "postalCode": "14654",
      "city": "TULLINGE"
    },
    {
      "id": 8871,
      "postalCode": "14574",
      "city": "NORSBORG"
    },
    {
      "id": 8872,
      "postalCode": "14652",
      "city": "TULLINGE"
    },
    {
      "id": 8873,
      "postalCode": "14652",
      "city": "TULLINGE"
    },
    {
      "id": 8874,
      "postalCode": "14654",
      "city": "TULLINGE"
    },
    {
      "id": 8875,
      "postalCode": "14654",
      "city": "TULLINGE"
    },
    {
      "id": 8876,
      "postalCode": "14654",
      "city": "TULLINGE"
    },
    {
      "id": 8877,
      "postalCode": "14640",
      "city": "TULLINGE"
    },
    {
      "id": 8878,
      "postalCode": "14654",
      "city": "TULLINGE"
    },
    {
      "id": 8879,
      "postalCode": "14654",
      "city": "TULLINGE"
    },
    {
      "id": 8880,
      "postalCode": "14654",
      "city": "TULLINGE"
    },
    {
      "id": 8881,
      "postalCode": "14654",
      "city": "TULLINGE"
    },
    {
      "id": 8882,
      "postalCode": "14654",
      "city": "TULLINGE"
    },
    {
      "id": 8883,
      "postalCode": "14654",
      "city": "TULLINGE"
    },
    {
      "id": 8884,
      "postalCode": "14760",
      "city": "UTTRAN"
    },
    {
      "id": 8885,
      "postalCode": "14760",
      "city": "UTTRAN"
    },
    {
      "id": 8886,
      "postalCode": "",
      "city": ""
    },
    {
      "id": 8887,
      "postalCode": "14641",
      "city": "TULLINGE"
    },
    {
      "id": 8888,
      "postalCode": "14654",
      "city": "TULLINGE"
    },
    {
      "id": 8889,
      "postalCode": "14650",
      "city": "TULLINGE"
    },
    {
      "id": 8890,
      "postalCode": "14652",
      "city": "TULLINGE"
    },
    {
      "id": 8891,
      "postalCode": "14652",
      "city": "TULLINGE"
    },
    {
      "id": 8892,
      "postalCode": "14654",
      "city": "TULLINGE"
    },
    {
      "id": 8893,
      "postalCode": "14650",
      "city": "TULLINGE"
    },
    {
      "id": 8894,
      "postalCode": "14731",
      "city": "TUMBA"
    },
    {
      "id": 8895,
      "postalCode": "14640",
      "city": "TULLINGE"
    },
    {
      "id": 8896,
      "postalCode": "14652",
      "city": "TULLINGE"
    },
    {
      "id": 8897,
      "postalCode": "14653",
      "city": "TULLINGE"
    },
    {
      "id": 8898,
      "postalCode": "14650",
      "city": "TULLINGE"
    },
    {
      "id": 8899,
      "postalCode": "14640",
      "city": "TULLINGE"
    },
    {
      "id": 8900,
      "postalCode": "14650",
      "city": "TULLINGE"
    },
    {
      "id": 8901,
      "postalCode": "14654",
      "city": "TULLINGE"
    },
    {
      "id": 8902,
      "postalCode": "14654",
      "city": "TULLINGE"
    },
    {
      "id": 8903,
      "postalCode": "14654",
      "city": "TULLINGE"
    },
    {
      "id": 8904,
      "postalCode": "14652",
      "city": "TULLINGE"
    },
    {
      "id": 8905,
      "postalCode": "14640",
      "city": "TULLINGE"
    },
    {
      "id": 8906,
      "postalCode": "14640",
      "city": "TULLINGE"
    },
    {
      "id": 8907,
      "postalCode": "14653",
      "city": "TULLINGE"
    },
    {
      "id": 8908,
      "postalCode": "14653",
      "city": "TULLINGE"
    },
    {
      "id": 8909,
      "postalCode": "14638",
      "city": "TULLINGE"
    },
    {
      "id": 8910,
      "postalCode": "14650",
      "city": "TULLINGE"
    },
    {
      "id": 8911,
      "postalCode": "14640",
      "city": "TULLINGE"
    },
    {
      "id": 8912,
      "postalCode": "14640",
      "city": "TULLINGE"
    },
    {
      "id": 8913,
      "postalCode": "14652",
      "city": "TULLINGE"
    },
    {
      "id": 8914,
      "postalCode": "14650",
      "city": "TULLINGE"
    },
    {
      "id": 8915,
      "postalCode": "14654",
      "city": "TULLINGE"
    },
    {
      "id": 8916,
      "postalCode": "14654",
      "city": "TULLINGE"
    },
    {
      "id": 8917,
      "postalCode": "14653",
      "city": "TULLINGE"
    },
    {
      "id": 8918,
      "postalCode": "14654",
      "city": "TULLINGE"
    },
    {
      "id": 8919,
      "postalCode": "14654",
      "city": "TULLINGE"
    },
    {
      "id": 8920,
      "postalCode": "14654",
      "city": "TULLINGE"
    },
    {
      "id": 8921,
      "postalCode": "14654",
      "city": "TULLINGE"
    },
    {
      "id": 8922,
      "postalCode": "14654",
      "city": "TULLINGE"
    },
    {
      "id": 8923,
      "postalCode": "14654",
      "city": "TULLINGE"
    },
    {
      "id": 8924,
      "postalCode": "14654",
      "city": "TULLINGE"
    },
    {
      "id": 8925,
      "postalCode": "14653",
      "city": "TULLINGE"
    },
    {
      "id": 8926,
      "postalCode": "14653",
      "city": "TULLINGE"
    },
    {
      "id": 8927,
      "postalCode": "14652",
      "city": "TULLINGE"
    },
    {
      "id": 8928,
      "postalCode": "14650",
      "city": "TULLINGE"
    },
    {
      "id": 8929,
      "postalCode": "14650",
      "city": "TULLINGE"
    },
    {
      "id": 8930,
      "postalCode": "14650",
      "city": "TULLINGE"
    },
    {
      "id": 8931,
      "postalCode": "14650",
      "city": "TULLINGE"
    },
    {
      "id": 8932,
      "postalCode": "14650",
      "city": "TULLINGE"
    },
    {
      "id": 8933,
      "postalCode": "14650",
      "city": "TULLINGE"
    },
    {
      "id": 8934,
      "postalCode": "14650",
      "city": "TULLINGE"
    },
    {
      "id": 8935,
      "postalCode": "14650",
      "city": "TULLINGE"
    },
    {
      "id": 8936,
      "postalCode": "14648",
      "city": "TULLINGE"
    },
    {
      "id": 8937,
      "postalCode": "14648",
      "city": "TULLINGE"
    },
    {
      "id": 8938,
      "postalCode": "14648",
      "city": "TULLINGE"
    },
    {
      "id": 8939,
      "postalCode": "14653",
      "city": "TULLINGE"
    },
    {
      "id": 8940,
      "postalCode": "14652",
      "city": "TULLINGE"
    },
    {
      "id": 8941,
      "postalCode": "14630",
      "city": "TULLINGE"
    },
    {
      "id": 8942,
      "postalCode": "14630",
      "city": "TULLINGE"
    },
    {
      "id": 8943,
      "postalCode": "14650",
      "city": "TULLINGE"
    },
    {
      "id": 8944,
      "postalCode": "14571",
      "city": "NORSBORG"
    },
    {
      "id": 8947,
      "postalCode": "14792",
      "city": "GRÖDINGE"
    },
    {
      "id": 8948,
      "postalCode": "14744",
      "city": "TUMBA"
    },
    {
      "id": 8951,
      "postalCode": "14760",
      "city": "UTTRAN"
    },
    {
      "id": 8952,
      "postalCode": "14590",
      "city": "NORSBORG"
    },
    {
      "id": 8953,
      "postalCode": "14792",
      "city": "GRÖDINGE"
    },
    {
      "id": 8954,
      "postalCode": "14654",
      "city": "TULLINGE"
    },
    {
      "id": 8955,
      "postalCode": "14652",
      "city": "TULLINGE"
    },
    {
      "id": 8956,
      "postalCode": "14652",
      "city": "TULLINGE"
    },
    {
      "id": 8957,
      "postalCode": "14652",
      "city": "TULLINGE"
    },
    {
      "id": 8958,
      "postalCode": "14652",
      "city": "TULLINGE"
    },
    {
      "id": 8959,
      "postalCode": "14652",
      "city": "TULLINGE"
    },
    {
      "id": 8960,
      "postalCode": "14652",
      "city": "TULLINGE"
    },
    {
      "id": 8961,
      "postalCode": "14652",
      "city": "TULLINGE"
    },
    {
      "id": 8962,
      "postalCode": "14650",
      "city": "TULLINGE"
    },
    {
      "id": 8963,
      "postalCode": "14734",
      "city": "TUMBA"
    },
    {
      "id": 8964,
      "postalCode": "14653",
      "city": "TULLINGE"
    },
    {
      "id": 8965,
      "postalCode": "14630",
      "city": "TULLINGE"
    },
    {
      "id": 8966,
      "postalCode": "14648",
      "city": "TULLINGE"
    },
    {
      "id": 8967,
      "postalCode": "14733",
      "city": "TUMBA"
    },
    {
      "id": 8969,
      "postalCode": "14650",
      "city": "TULLINGE"
    },
    {
      "id": 8970,
      "postalCode": "14560",
      "city": "NORSBORG"
    },
    {
      "id": 8971,
      "postalCode": "14739",
      "city": "TUMBA"
    },
    {
      "id": 8972,
      "postalCode": "14638",
      "city": "TULLINGE"
    },
    {
      "id": 8973,
      "postalCode": "14734",
      "city": "TUMBA"
    },
    {
      "id": 8974,
      "postalCode": "14645",
      "city": "TULLINGE"
    },
    {
      "id": 8976,
      "postalCode": "14733",
      "city": "TUMBA"
    },
    {
      "id": 8977,
      "postalCode": "14746",
      "city": "TUMBA"
    },
    {
      "id": 8978,
      "postalCode": "14746",
      "city": "TUMBA"
    },
    {
      "id": 8979,
      "postalCode": "14590",
      "city": "NORSBORG"
    },
    {
      "id": 8980,
      "postalCode": "14733",
      "city": "TUMBA"
    },
    {
      "id": 8981,
      "postalCode": "14590",
      "city": "NORSBORG"
    },
    {
      "id": 8982,
      "postalCode": "14760",
      "city": "UTTRAN"
    },
    {
      "id": 8983,
      "postalCode": "14760",
      "city": "UTTRAN"
    },
    {
      "id": 8984,
      "postalCode": "14648",
      "city": "TULLINGE"
    },
    {
      "id": 8985,
      "postalCode": "14652",
      "city": "TULLINGE"
    },
    {
      "id": 8986,
      "postalCode": "14732",
      "city": "TUMBA"
    },
    {
      "id": 8987,
      "postalCode": "14648",
      "city": "TULLINGE"
    },
    {
      "id": 8988,
      "postalCode": "14648",
      "city": "TULLINGE"
    },
    {
      "id": 8989,
      "postalCode": "14648",
      "city": "TULLINGE"
    },
    {
      "id": 8990,
      "postalCode": "14648",
      "city": "TULLINGE"
    },
    {
      "id": 8991,
      "postalCode": "14650",
      "city": "TULLINGE"
    },
    {
      "id": 8992,
      "postalCode": "14650",
      "city": "TULLINGE"
    },
    {
      "id": 8993,
      "postalCode": "14650",
      "city": "TULLINGE"
    },
    {
      "id": 8994,
      "postalCode": "14640",
      "city": "TULLINGE"
    },
    {
      "id": 8995,
      "postalCode": "14652",
      "city": "TULLINGE"
    },
    {
      "id": 8996,
      "postalCode": "14648",
      "city": "TULLINGE"
    },
    {
      "id": 8997,
      "postalCode": "14640",
      "city": "TULLINGE"
    },
    {
      "id": 8999,
      "postalCode": "14640",
      "city": "TULLINGE"
    },
    {
      "id": 9000,
      "postalCode": "14650",
      "city": "TULLINGE"
    },
    {
      "id": 9001,
      "postalCode": "14650",
      "city": "TULLINGE"
    },
    {
      "id": 9002,
      "postalCode": "14650",
      "city": "TULLINGE"
    },
    {
      "id": 9003,
      "postalCode": "14650",
      "city": "TULLINGE"
    },
    {
      "id": 9004,
      "postalCode": "14650",
      "city": "TULLINGE"
    },
    {
      "id": 9005,
      "postalCode": "14650",
      "city": "TULLINGE"
    },
    {
      "id": 9006,
      "postalCode": "14640",
      "city": "TULLINGE"
    },
    {
      "id": 9007,
      "postalCode": "14640",
      "city": "TULLINGE"
    },
    {
      "id": 9008,
      "postalCode": "14652",
      "city": "TULLINGE"
    },
    {
      "id": 9009,
      "postalCode": "14652",
      "city": "TULLINGE"
    },
    {
      "id": 9010,
      "postalCode": "14652",
      "city": "TULLINGE"
    },
    {
      "id": 9011,
      "postalCode": "14648",
      "city": "TULLINGE"
    },
    {
      "id": 9012,
      "postalCode": "14652",
      "city": "TULLINGE"
    },
    {
      "id": 9013,
      "postalCode": "14652",
      "city": "TULLINGE"
    },
    {
      "id": 9014,
      "postalCode": "14760",
      "city": "UTTRAN"
    },
    {
      "id": 9015,
      "postalCode": "14760",
      "city": "UTTRAN"
    },
    {
      "id": 9016,
      "postalCode": "14760",
      "city": "UTTRAN"
    },
    {
      "id": 9017,
      "postalCode": "14760",
      "city": "UTTRAN"
    },
    {
      "id": 9018,
      "postalCode": "14648",
      "city": "TULLINGE"
    },
    {
      "id": 9019,
      "postalCode": "14760",
      "city": "UTTRAN"
    },
    {
      "id": 9020,
      "postalCode": "14760",
      "city": "UTTRAN"
    },
    {
      "id": 9021,
      "postalCode": "14760",
      "city": "UTTRAN"
    },
    {
      "id": 9022,
      "postalCode": "14760",
      "city": "UTTRAN"
    },
    {
      "id": 9023,
      "postalCode": "14760",
      "city": "UTTRAN"
    },
    {
      "id": 9024,
      "postalCode": "14652",
      "city": "TULLINGE"
    },
    {
      "id": 9025,
      "postalCode": "14652",
      "city": "TULLINGE"
    },
    {
      "id": 9026,
      "postalCode": "14652",
      "city": "TULLINGE"
    },
    {
      "id": 9027,
      "postalCode": "14652",
      "city": "TULLINGE"
    },
    {
      "id": 9028,
      "postalCode": "14652",
      "city": "TULLINGE"
    },
    {
      "id": 9029,
      "postalCode": "14640",
      "city": "TULLINGE"
    },
    {
      "id": 9030,
      "postalCode": "14640",
      "city": "TULLINGE"
    },
    {
      "id": 9031,
      "postalCode": "14640",
      "city": "TULLINGE"
    },
    {
      "id": 9032,
      "postalCode": "14640",
      "city": "TULLINGE"
    },
    {
      "id": 9033,
      "postalCode": "14654",
      "city": "TULLINGE"
    },
    {
      "id": 9034,
      "postalCode": "14650",
      "city": "TULLINGE"
    },
    {
      "id": 9035,
      "postalCode": "14650",
      "city": "TULLINGE"
    },
    {
      "id": 9036,
      "postalCode": "14650",
      "city": "TULLINGE"
    },
    {
      "id": 9037,
      "postalCode": "14648",
      "city": "TULLINGE"
    },
    {
      "id": 9038,
      "postalCode": "14648",
      "city": "TULLINGE"
    },
    {
      "id": 9039,
      "postalCode": "14648",
      "city": "TULLINGE"
    },
    {
      "id": 9040,
      "postalCode": "14648",
      "city": "TULLINGE"
    },
    {
      "id": 9041,
      "postalCode": "14650",
      "city": "TULLINGE"
    },
    {
      "id": 9042,
      "postalCode": "14652",
      "city": "TULLINGE"
    },
    {
      "id": 9043,
      "postalCode": "14652",
      "city": "TULLINGE"
    },
    {
      "id": 9044,
      "postalCode": "14638",
      "city": "TULLINGE"
    },
    {
      "id": 9045,
      "postalCode": "14640",
      "city": "TULLINGE"
    },
    {
      "id": 9046,
      "postalCode": "14650",
      "city": "TULLINGE"
    },
    {
      "id": 9047,
      "postalCode": "14638",
      "city": "TULLINGE"
    },
    {
      "id": 9048,
      "postalCode": "14638",
      "city": "TULLINGE"
    },
    {
      "id": 9049,
      "postalCode": "14650",
      "city": "TULLINGE"
    },
    {
      "id": 9050,
      "postalCode": "14640",
      "city": "TULLINGE"
    },
    {
      "id": 9051,
      "postalCode": "14650",
      "city": "TULLINGE"
    },
    {
      "id": 9052,
      "postalCode": "14650",
      "city": "TULLINGE"
    },
    {
      "id": 9053,
      "postalCode": "14648",
      "city": "TULLINGE"
    },
    {
      "id": 9054,
      "postalCode": "14638",
      "city": "TULLINGE"
    },
    {
      "id": 9055,
      "postalCode": "14638",
      "city": "TULLINGE"
    },
    {
      "id": 9056,
      "postalCode": "14638",
      "city": "TULLINGE"
    },
    {
      "id": 9057,
      "postalCode": "14638",
      "city": "TULLINGE"
    },
    {
      "id": 9058,
      "postalCode": "14638",
      "city": "TULLINGE"
    },
    {
      "id": 9059,
      "postalCode": "14638",
      "city": "TULLINGE"
    },
    {
      "id": 9060,
      "postalCode": "14638",
      "city": "TULLINGE"
    },
    {
      "id": 9061,
      "postalCode": "14638",
      "city": "TULLINGE"
    },
    {
      "id": 9062,
      "postalCode": "14638",
      "city": "TULLINGE"
    },
    {
      "id": 9063,
      "postalCode": "14638",
      "city": "TULLINGE"
    },
    {
      "id": 9064,
      "postalCode": "14650",
      "city": "TULLINGE"
    },
    {
      "id": 9065,
      "postalCode": "14650",
      "city": "TULLINGE"
    },
    {
      "id": 9066,
      "postalCode": "14650",
      "city": "TULLINGE"
    },
    {
      "id": 9067,
      "postalCode": "14650",
      "city": "TULLINGE"
    },
    {
      "id": 9068,
      "postalCode": "14650",
      "city": "TULLINGE"
    },
    {
      "id": 9069,
      "postalCode": "14650",
      "city": "TULLINGE"
    },
    {
      "id": 9070,
      "postalCode": "14650",
      "city": "TULLINGE"
    },
    {
      "id": 9071,
      "postalCode": "14650",
      "city": "TULLINGE"
    },
    {
      "id": 9072,
      "postalCode": "14650",
      "city": "TULLINGE"
    },
    {
      "id": 9073,
      "postalCode": "14650",
      "city": "TULLINGE"
    },
    {
      "id": 9075,
      "postalCode": "14650",
      "city": "TULLINGE"
    },
    {
      "id": 9076,
      "postalCode": "14650",
      "city": "TULLINGE"
    },
    {
      "id": 9077,
      "postalCode": "14650",
      "city": "TULLINGE"
    },
    {
      "id": 9078,
      "postalCode": "14785",
      "city": "TUMBA"
    },
    {
      "id": 9079,
      "postalCode": "14785",
      "city": "TUMBA"
    },
    {
      "id": 9080,
      "postalCode": "14785",
      "city": "TUMBA"
    },
    {
      "id": 9081,
      "postalCode": "14652",
      "city": "TULLINGE"
    },
    {
      "id": 9082,
      "postalCode": "14652",
      "city": "TULLINGE"
    },
    {
      "id": 9083,
      "postalCode": "14652",
      "city": "TULLINGE"
    },
    {
      "id": 9084,
      "postalCode": "14634",
      "city": "TULLINGE"
    },
    {
      "id": 9085,
      "postalCode": "14634",
      "city": "TULLINGE"
    },
    {
      "id": 9086,
      "postalCode": "14638",
      "city": "TULLINGE"
    },
    {
      "id": 9087,
      "postalCode": "14634",
      "city": "TULLINGE"
    },
    {
      "id": 9088,
      "postalCode": "14634",
      "city": "TULLINGE"
    },
    {
      "id": 9089,
      "postalCode": "14638",
      "city": "TULLINGE"
    },
    {
      "id": 9090,
      "postalCode": "14638",
      "city": "TULLINGE"
    },
    {
      "id": 9091,
      "postalCode": "14638",
      "city": "TULLINGE"
    },
    {
      "id": 9092,
      "postalCode": "14638",
      "city": "TULLINGE"
    },
    {
      "id": 9093,
      "postalCode": "14634",
      "city": "TULLINGE"
    },
    {
      "id": 9094,
      "postalCode": "14638",
      "city": "TULLINGE"
    },
    {
      "id": 9095,
      "postalCode": "14638",
      "city": "TULLINGE"
    },
    {
      "id": 9096,
      "postalCode": "14638",
      "city": "TULLINGE"
    },
    {
      "id": 9097,
      "postalCode": "14636",
      "city": "TULLINGE"
    },
    {
      "id": 9098,
      "postalCode": "14638",
      "city": "TULLINGE"
    },
    {
      "id": 9099,
      "postalCode": "14638",
      "city": "TULLINGE"
    },
    {
      "id": 9100,
      "postalCode": "14636",
      "city": "TULLINGE"
    },
    {
      "id": 9101,
      "postalCode": "14636",
      "city": "TULLINGE"
    },
    {
      "id": 9102,
      "postalCode": "14636",
      "city": "TULLINGE"
    },
    {
      "id": 9103,
      "postalCode": "14638",
      "city": "TULLINGE"
    },
    {
      "id": 9104,
      "postalCode": "14746",
      "city": "TUMBA"
    },
    {
      "id": 9105,
      "postalCode": "14746",
      "city": "TUMBA"
    },
    {
      "id": 9108,
      "postalCode": "14638",
      "city": "TULLINGE"
    },
    {
      "id": 9109,
      "postalCode": "14634",
      "city": "TULLINGE"
    },
    {
      "id": 9110,
      "postalCode": "14631",
      "city": "TULLINGE"
    },
    {
      "id": 9111,
      "postalCode": "14634",
      "city": "TULLINGE"
    },
    {
      "id": 9112,
      "postalCode": "14638",
      "city": "TULLINGE"
    },
    {
      "id": 9113,
      "postalCode": "14636",
      "city": "TULLINGE"
    },
    {
      "id": 9114,
      "postalCode": "14652",
      "city": "TULLINGE"
    },
    {
      "id": 9115,
      "postalCode": "14652",
      "city": "TULLINGE"
    },
    {
      "id": 9116,
      "postalCode": "14652",
      "city": "TULLINGE"
    },
    {
      "id": 9117,
      "postalCode": "14630",
      "city": "TULLINGE"
    },
    {
      "id": 9118,
      "postalCode": "14654",
      "city": "TULLINGE"
    },
    {
      "id": 9119,
      "postalCode": "14654",
      "city": "TULLINGE"
    },
    {
      "id": 9120,
      "postalCode": "14654",
      "city": "TULLINGE"
    },
    {
      "id": 9121,
      "postalCode": "14760",
      "city": "UTTRAN"
    },
    {
      "id": 9122,
      "postalCode": "14650",
      "city": "TULLINGE"
    },
    {
      "id": 9123,
      "postalCode": "14652",
      "city": "TULLINGE"
    },
    {
      "id": 9124,
      "postalCode": "14638",
      "city": "TULLINGE"
    },
    {
      "id": 9125,
      "postalCode": "14638",
      "city": "TULLINGE"
    },
    {
      "id": 9126,
      "postalCode": "14638",
      "city": "TULLINGE"
    },
    {
      "id": 9127,
      "postalCode": "14638",
      "city": "TULLINGE"
    },
    {
      "id": 9128,
      "postalCode": "14638",
      "city": "TULLINGE"
    },
    {
      "id": 9129,
      "postalCode": "14638",
      "city": "TULLINGE"
    },
    {
      "id": 9130,
      "postalCode": "14636",
      "city": "TULLINGE"
    },
    {
      "id": 9131,
      "postalCode": "14638",
      "city": "TULLINGE"
    },
    {
      "id": 9132,
      "postalCode": "14638",
      "city": "TULLINGE"
    },
    {
      "id": 9133,
      "postalCode": "14638",
      "city": "TULLINGE"
    },
    {
      "id": 9134,
      "postalCode": "14638",
      "city": "TULLINGE"
    },
    {
      "id": 9135,
      "postalCode": "14638",
      "city": "TULLINGE"
    },
    {
      "id": 9136,
      "postalCode": "14638",
      "city": "TULLINGE"
    },
    {
      "id": 9137,
      "postalCode": "14638",
      "city": "TULLINGE"
    },
    {
      "id": 9138,
      "postalCode": "14638",
      "city": "TULLINGE"
    },
    {
      "id": 9139,
      "postalCode": "14638",
      "city": "TULLINGE"
    },
    {
      "id": 9140,
      "postalCode": "14638",
      "city": "TULLINGE"
    },
    {
      "id": 9141,
      "postalCode": "14638",
      "city": "TULLINGE"
    },
    {
      "id": 9142,
      "postalCode": "14638",
      "city": "TULLINGE"
    },
    {
      "id": 9143,
      "postalCode": "14638",
      "city": "TULLINGE"
    },
    {
      "id": 9144,
      "postalCode": "14652",
      "city": "TULLINGE"
    },
    {
      "id": 9145,
      "postalCode": "14652",
      "city": "TULLINGE"
    },
    {
      "id": 9146,
      "postalCode": "14652",
      "city": "TULLINGE"
    },
    {
      "id": 9147,
      "postalCode": "14652",
      "city": "TULLINGE"
    },
    {
      "id": 9148,
      "postalCode": "14652",
      "city": "TULLINGE"
    },
    {
      "id": 9149,
      "postalCode": "14652",
      "city": "TULLINGE"
    },
    {
      "id": 9150,
      "postalCode": "14638",
      "city": "TULLINGE"
    },
    {
      "id": 9151,
      "postalCode": "14653",
      "city": "TULLINGE"
    },
    {
      "id": 9152,
      "postalCode": "14652",
      "city": "TULLINGE"
    },
    {
      "id": 9153,
      "postalCode": "14652",
      "city": "TULLINGE"
    },
    {
      "id": 9154,
      "postalCode": "14638",
      "city": "TULLINGE"
    },
    {
      "id": 9155,
      "postalCode": "14638",
      "city": "TULLINGE"
    },
    {
      "id": 9156,
      "postalCode": "14638",
      "city": "TULLINGE"
    },
    {
      "id": 9157,
      "postalCode": "14636",
      "city": "TULLINGE"
    },
    {
      "id": 9158,
      "postalCode": "14636",
      "city": "TULLINGE"
    },
    {
      "id": 9159,
      "postalCode": "14634",
      "city": "TULLINGE"
    },
    {
      "id": 9160,
      "postalCode": "14638",
      "city": "TULLINGE"
    },
    {
      "id": 9161,
      "postalCode": "14638",
      "city": "TULLINGE"
    },
    {
      "id": 9162,
      "postalCode": "14638",
      "city": "TULLINGE"
    },
    {
      "id": 9163,
      "postalCode": "14638",
      "city": "TULLINGE"
    },
    {
      "id": 9164,
      "postalCode": "14638",
      "city": "TULLINGE"
    },
    {
      "id": 9165,
      "postalCode": "14638",
      "city": "TULLINGE"
    },
    {
      "id": 9166,
      "postalCode": "14638",
      "city": "TULLINGE"
    },
    {
      "id": 9167,
      "postalCode": "14638",
      "city": "TULLINGE"
    },
    {
      "id": 9168,
      "postalCode": "14638",
      "city": "TULLINGE"
    },
    {
      "id": 9169,
      "postalCode": "14638",
      "city": "TULLINGE"
    },
    {
      "id": 9170,
      "postalCode": "14638",
      "city": "TULLINGE"
    },
    {
      "id": 9171,
      "postalCode": "14638",
      "city": "TULLINGE"
    },
    {
      "id": 9172,
      "postalCode": "14638",
      "city": "TULLINGE"
    },
    {
      "id": 9173,
      "postalCode": "14634",
      "city": "TULLINGE"
    },
    {
      "id": 9174,
      "postalCode": "14634",
      "city": "TULLINGE"
    },
    {
      "id": 9175,
      "postalCode": "14638",
      "city": "TULLINGE"
    },
    {
      "id": 9176,
      "postalCode": "14638",
      "city": "TULLINGE"
    },
    {
      "id": 9177,
      "postalCode": "14638",
      "city": "TULLINGE"
    },
    {
      "id": 9178,
      "postalCode": "14638",
      "city": "TULLINGE"
    },
    {
      "id": 9179,
      "postalCode": "14638",
      "city": "TULLINGE"
    },
    {
      "id": 9180,
      "postalCode": "14638",
      "city": "TULLINGE"
    },
    {
      "id": 9181,
      "postalCode": "14638",
      "city": "TULLINGE"
    },
    {
      "id": 9182,
      "postalCode": "14634",
      "city": "TULLINGE"
    },
    {
      "id": 9183,
      "postalCode": "14638",
      "city": "TULLINGE"
    },
    {
      "id": 9184,
      "postalCode": "14634",
      "city": "TULLINGE"
    },
    {
      "id": 9185,
      "postalCode": "14634",
      "city": "TULLINGE"
    },
    {
      "id": 9186,
      "postalCode": "14634",
      "city": "TULLINGE"
    },
    {
      "id": 9187,
      "postalCode": "14634",
      "city": "TULLINGE"
    },
    {
      "id": 9188,
      "postalCode": "14634",
      "city": "TULLINGE"
    },
    {
      "id": 9189,
      "postalCode": "14634",
      "city": "TULLINGE"
    },
    {
      "id": 9190,
      "postalCode": "14634",
      "city": "TULLINGE"
    },
    {
      "id": 9191,
      "postalCode": "14634",
      "city": "TULLINGE"
    },
    {
      "id": 9192,
      "postalCode": "14634",
      "city": "TULLINGE"
    },
    {
      "id": 9193,
      "postalCode": "14634",
      "city": "TULLINGE"
    },
    {
      "id": 9194,
      "postalCode": "14634",
      "city": "TULLINGE"
    },
    {
      "id": 9195,
      "postalCode": "14634",
      "city": "TULLINGE"
    },
    {
      "id": 9196,
      "postalCode": "14634",
      "city": "TULLINGE"
    },
    {
      "id": 9197,
      "postalCode": "14634",
      "city": "TULLINGE"
    },
    {
      "id": 9198,
      "postalCode": "14634",
      "city": "TULLINGE"
    },
    {
      "id": 9199,
      "postalCode": "14634",
      "city": "TULLINGE"
    },
    {
      "id": 9200,
      "postalCode": "14634",
      "city": "TULLINGE"
    },
    {
      "id": 9201,
      "postalCode": "14634",
      "city": "TULLINGE"
    },
    {
      "id": 9202,
      "postalCode": "14638",
      "city": "TULLINGE"
    },
    {
      "id": 9203,
      "postalCode": "14634",
      "city": "TULLINGE"
    },
    {
      "id": 9204,
      "postalCode": "14634",
      "city": "TULLINGE"
    },
    {
      "id": 9205,
      "postalCode": "14637",
      "city": "TULLINGE"
    },
    {
      "id": 9206,
      "postalCode": "14637",
      "city": "TULLINGE"
    },
    {
      "id": 9207,
      "postalCode": "14637",
      "city": "TULLINGE"
    },
    {
      "id": 9208,
      "postalCode": "14637",
      "city": "TULLINGE"
    },
    {
      "id": 9209,
      "postalCode": "14637",
      "city": "TULLINGE"
    },
    {
      "id": 9210,
      "postalCode": "14634",
      "city": "TULLINGE"
    },
    {
      "id": 9211,
      "postalCode": "14634",
      "city": "TULLINGE"
    },
    {
      "id": 9212,
      "postalCode": "14634",
      "city": "TULLINGE"
    },
    {
      "id": 9213,
      "postalCode": "14640",
      "city": "TULLINGE"
    },
    {
      "id": 9214,
      "postalCode": "14631",
      "city": "TULLINGE"
    },
    {
      "id": 9215,
      "postalCode": "14637",
      "city": "TULLINGE"
    },
    {
      "id": 9216,
      "postalCode": "14637",
      "city": "TULLINGE"
    },
    {
      "id": 9217,
      "postalCode": "14637",
      "city": "TULLINGE"
    },
    {
      "id": 9218,
      "postalCode": "14637",
      "city": "TULLINGE"
    },
    {
      "id": 9219,
      "postalCode": "14637",
      "city": "TULLINGE"
    },
    {
      "id": 9220,
      "postalCode": "14637",
      "city": "TULLINGE"
    },
    {
      "id": 9221,
      "postalCode": "14637",
      "city": "TULLINGE"
    },
    {
      "id": 9222,
      "postalCode": "14637",
      "city": "TULLINGE"
    },
    {
      "id": 9223,
      "postalCode": "14637",
      "city": "TULLINGE"
    },
    {
      "id": 9224,
      "postalCode": "14638",
      "city": "TULLINGE"
    },
    {
      "id": 9225,
      "postalCode": "14638",
      "city": "TULLINGE"
    },
    {
      "id": 9226,
      "postalCode": "14638",
      "city": "TULLINGE"
    },
    {
      "id": 9227,
      "postalCode": "14638",
      "city": "TULLINGE"
    },
    {
      "id": 9228,
      "postalCode": "14638",
      "city": "TULLINGE"
    },
    {
      "id": 9229,
      "postalCode": "14638",
      "city": "TULLINGE"
    },
    {
      "id": 9230,
      "postalCode": "14638",
      "city": "TULLINGE"
    },
    {
      "id": 9231,
      "postalCode": "14763",
      "city": "UTTRAN"
    },
    {
      "id": 9232,
      "postalCode": "14631",
      "city": "TULLINGE"
    },
    {
      "id": 9233,
      "postalCode": "14631",
      "city": "TULLINGE"
    },
    {
      "id": 9234,
      "postalCode": "14792",
      "city": "GRÖDINGE"
    },
    {
      "id": 9236,
      "postalCode": "14646",
      "city": "TULLINGE"
    },
    {
      "id": 9237,
      "postalCode": "14652",
      "city": "TULLINGE"
    },
    {
      "id": 9238,
      "postalCode": "14733",
      "city": "TUMBA"
    },
    {
      "id": 9239,
      "postalCode": "14745",
      "city": "TUMBA"
    },
    {
      "id": 9240,
      "postalCode": "14763",
      "city": "UTTRAN"
    },
    {
      "id": 9241,
      "postalCode": "14638",
      "city": "TULLINGE"
    },
    {
      "id": 9243,
      "postalCode": "14571",
      "city": "NORSBORG"
    },
    {
      "id": 9244,
      "postalCode": "14634",
      "city": "TULLINGE"
    },
    {
      "id": 9245,
      "postalCode": "14634",
      "city": "TULLINGE"
    },
    {
      "id": 9246,
      "postalCode": "14634",
      "city": "TULLINGE"
    },
    {
      "id": 9247,
      "postalCode": "14634",
      "city": "TULLINGE"
    },
    {
      "id": 9248,
      "postalCode": "14634",
      "city": "TULLINGE"
    },
    {
      "id": 9249,
      "postalCode": "14640",
      "city": "TULLINGE"
    },
    {
      "id": 9250,
      "postalCode": "14634",
      "city": "TULLINGE"
    },
    {
      "id": 9251,
      "postalCode": "14634",
      "city": "TULLINGE"
    },
    {
      "id": 9252,
      "postalCode": "14634",
      "city": "TULLINGE"
    },
    {
      "id": 9253,
      "postalCode": "14634",
      "city": "TULLINGE"
    },
    {
      "id": 9254,
      "postalCode": "14634",
      "city": "TULLINGE"
    },
    {
      "id": 9255,
      "postalCode": "14634",
      "city": "TULLINGE"
    },
    {
      "id": 9256,
      "postalCode": "14634",
      "city": "TULLINGE"
    },
    {
      "id": 9257,
      "postalCode": "14634",
      "city": "TULLINGE"
    },
    {
      "id": 9258,
      "postalCode": "14634",
      "city": "TULLINGE"
    },
    {
      "id": 9259,
      "postalCode": "14634",
      "city": "TULLINGE"
    },
    {
      "id": 9260,
      "postalCode": "14634",
      "city": "TULLINGE"
    },
    {
      "id": 9261,
      "postalCode": "14638",
      "city": "TULLINGE"
    },
    {
      "id": 9262,
      "postalCode": "14760",
      "city": "UTTRAN"
    },
    {
      "id": 9263,
      "postalCode": "14637",
      "city": "TULLINGE"
    },
    {
      "id": 9264,
      "postalCode": "14634",
      "city": "TULLINGE"
    },
    {
      "id": 9265,
      "postalCode": "14634",
      "city": "TULLINGE"
    },
    {
      "id": 9266,
      "postalCode": "14634",
      "city": "TULLINGE"
    },
    {
      "id": 9267,
      "postalCode": "14634",
      "city": "TULLINGE"
    },
    {
      "id": 9268,
      "postalCode": "14634",
      "city": "TULLINGE"
    },
    {
      "id": 9269,
      "postalCode": "14634",
      "city": "TULLINGE"
    },
    {
      "id": 9270,
      "postalCode": "14634",
      "city": "TULLINGE"
    },
    {
      "id": 9271,
      "postalCode": "14634",
      "city": "TULLINGE"
    },
    {
      "id": 9272,
      "postalCode": "14634",
      "city": "TULLINGE"
    },
    {
      "id": 9273,
      "postalCode": "14634",
      "city": "TULLINGE"
    },
    {
      "id": 9284,
      "postalCode": "14634",
      "city": "TULLINGE"
    },
    {
      "id": 9285,
      "postalCode": "14637",
      "city": "TULLINGE"
    },
    {
      "id": 9286,
      "postalCode": "14634",
      "city": "TULLINGE"
    },
    {
      "id": 9287,
      "postalCode": "14634",
      "city": "TULLINGE"
    },
    {
      "id": 9288,
      "postalCode": "14634",
      "city": "TULLINGE"
    },
    {
      "id": 9289,
      "postalCode": "14634",
      "city": "TULLINGE"
    },
    {
      "id": 9290,
      "postalCode": "14634",
      "city": "TULLINGE"
    },
    {
      "id": 9291,
      "postalCode": "14634",
      "city": "TULLINGE"
    },
    {
      "id": 9292,
      "postalCode": "14634",
      "city": "TULLINGE"
    },
    {
      "id": 9293,
      "postalCode": "14634",
      "city": "TULLINGE"
    },
    {
      "id": 9294,
      "postalCode": "14634",
      "city": "TULLINGE"
    },
    {
      "id": 9295,
      "postalCode": "14634",
      "city": "TULLINGE"
    },
    {
      "id": 9296,
      "postalCode": "14634",
      "city": "TULLINGE"
    },
    {
      "id": 9297,
      "postalCode": "14654",
      "city": "TULLINGE"
    },
    {
      "id": 9298,
      "postalCode": "14743",
      "city": "TUMBA"
    },
    {
      "id": 9299,
      "postalCode": "14743",
      "city": "TUMBA"
    },
    {
      "id": 9300,
      "postalCode": "14791",
      "city": "GRÖDINGE"
    },
    {
      "id": 9301,
      "postalCode": "14638",
      "city": "TULLINGE"
    },
    {
      "id": 9302,
      "postalCode": "14640",
      "city": "TULLINGE"
    },
    {
      "id": 9303,
      "postalCode": "14640",
      "city": "TULLINGE"
    },
    {
      "id": 9306,
      "postalCode": "14771",
      "city": "GRÖDINGE"
    },
    {
      "id": 9307,
      "postalCode": "14792",
      "city": "GRÖDINGE"
    },
    {
      "id": 9308,
      "postalCode": "14638",
      "city": "TULLINGE"
    },
    {
      "id": 9309,
      "postalCode": "14733",
      "city": "TUMBA"
    },
    {
      "id": 9310,
      "postalCode": "14648",
      "city": "TULLINGE"
    },
    {
      "id": 9311,
      "postalCode": "14652",
      "city": "TULLINGE"
    },
    {
      "id": 9312,
      "postalCode": "14654",
      "city": "TULLINGE"
    },
    {
      "id": 9313,
      "postalCode": "14652",
      "city": "TULLINGE"
    },
    {
      "id": 9314,
      "postalCode": "14652",
      "city": "TULLINGE"
    },
    {
      "id": 9315,
      "postalCode": "14654",
      "city": "TULLINGE"
    },
    {
      "id": 9316,
      "postalCode": "14652",
      "city": "TULLINGE"
    },
    {
      "id": 9317,
      "postalCode": "14638",
      "city": "TULLINGE"
    },
    {
      "id": 9318,
      "postalCode": "14652",
      "city": "TULLINGE"
    },
    {
      "id": 9319,
      "postalCode": "14652",
      "city": "TULLINGE"
    },
    {
      "id": 9320,
      "postalCode": "14652",
      "city": "TULLINGE"
    },
    {
      "id": 9321,
      "postalCode": "14652",
      "city": "TULLINGE"
    },
    {
      "id": 9322,
      "postalCode": "14652",
      "city": "TULLINGE"
    },
    {
      "id": 9323,
      "postalCode": "14640",
      "city": "TULLINGE"
    },
    {
      "id": 9324,
      "postalCode": "14652",
      "city": "TULLINGE"
    },
    {
      "id": 9325,
      "postalCode": "14652",
      "city": "TULLINGE"
    },
    {
      "id": 9326,
      "postalCode": "14652",
      "city": "TULLINGE"
    },
    {
      "id": 9327,
      "postalCode": "14652",
      "city": "TULLINGE"
    },
    {
      "id": 9328,
      "postalCode": "14551",
      "city": "NORSBORG"
    },
    {
      "id": 9329,
      "postalCode": "14551",
      "city": "NORSBORG"
    },
    {
      "id": 9330,
      "postalCode": "14551",
      "city": "NORSBORG"
    },
    {
      "id": 9331,
      "postalCode": "14551",
      "city": "NORSBORG"
    },
    {
      "id": 9332,
      "postalCode": "14551",
      "city": "NORSBORG"
    },
    {
      "id": 9333,
      "postalCode": "14551",
      "city": "NORSBORG"
    },
    {
      "id": 9334,
      "postalCode": "14551",
      "city": "NORSBORG"
    },
    {
      "id": 9335,
      "postalCode": "14551",
      "city": "NORSBORG"
    },
    {
      "id": 9336,
      "postalCode": "14551",
      "city": "NORSBORG"
    },
    {
      "id": 9337,
      "postalCode": "14551",
      "city": "NORSBORG"
    },
    {
      "id": 9338,
      "postalCode": "14551",
      "city": "NORSBORG"
    },
    {
      "id": 9339,
      "postalCode": "14551",
      "city": "NORSBORG"
    },
    {
      "id": 9340,
      "postalCode": "14551",
      "city": "NORSBORG"
    },
    {
      "id": 9341,
      "postalCode": "14551",
      "city": "NORSBORG"
    },
    {
      "id": 9342,
      "postalCode": "14551",
      "city": "NORSBORG"
    },
    {
      "id": 9343,
      "postalCode": "14551",
      "city": "NORSBORG"
    },
    {
      "id": 9344,
      "postalCode": "14551",
      "city": "NORSBORG"
    },
    {
      "id": 9345,
      "postalCode": "14551",
      "city": "NORSBORG"
    },
    {
      "id": 9346,
      "postalCode": "14551",
      "city": "NORSBORG"
    },
    {
      "id": 9347,
      "postalCode": "14551",
      "city": "NORSBORG"
    },
    {
      "id": 9348,
      "postalCode": "14551",
      "city": "NORSBORG"
    },
    {
      "id": 9349,
      "postalCode": "14551",
      "city": "NORSBORG"
    },
    {
      "id": 9350,
      "postalCode": "14551",
      "city": "NORSBORG"
    },
    {
      "id": 9351,
      "postalCode": "14551",
      "city": "NORSBORG"
    },
    {
      "id": 9352,
      "postalCode": "14551",
      "city": "NORSBORG"
    },
    {
      "id": 9353,
      "postalCode": "14551",
      "city": "NORSBORG"
    },
    {
      "id": 9354,
      "postalCode": "14551",
      "city": "NORSBORG"
    },
    {
      "id": 9355,
      "postalCode": "14551",
      "city": "NORSBORG"
    },
    {
      "id": 9356,
      "postalCode": "14551",
      "city": "NORSBORG"
    },
    {
      "id": 9357,
      "postalCode": "14551",
      "city": "NORSBORG"
    },
    {
      "id": 9358,
      "postalCode": "14551",
      "city": "NORSBORG"
    },
    {
      "id": 9359,
      "postalCode": "14551",
      "city": "NORSBORG"
    },
    {
      "id": 9360,
      "postalCode": "14551",
      "city": "NORSBORG"
    },
    {
      "id": 9361,
      "postalCode": "14551",
      "city": "NORSBORG"
    },
    {
      "id": 9362,
      "postalCode": "14551",
      "city": "NORSBORG"
    },
    {
      "id": 9363,
      "postalCode": "14551",
      "city": "NORSBORG"
    },
    {
      "id": 9364,
      "postalCode": "14653",
      "city": "TULLINGE"
    },
    {
      "id": 9365,
      "postalCode": "14771",
      "city": "GRÖDINGE"
    },
    {
      "id": 9366,
      "postalCode": "14650",
      "city": "TULLINGE"
    },
    {
      "id": 9367,
      "postalCode": "14760",
      "city": "UTTRAN"
    },
    {
      "id": 9368,
      "postalCode": "14761",
      "city": "UTTRAN"
    },
    {
      "id": 9369,
      "postalCode": "14761",
      "city": "UTTRAN"
    },
    {
      "id": 9370,
      "postalCode": "14761",
      "city": "UTTRAN"
    },
    {
      "id": 9371,
      "postalCode": "14761",
      "city": "UTTRAN"
    },
    {
      "id": 9372,
      "postalCode": "14730",
      "city": "TUMBA"
    },
    {
      "id": 9373,
      "postalCode": "14730",
      "city": "TUMBA"
    },
    {
      "id": 9374,
      "postalCode": "14645",
      "city": "TULLINGE"
    },
    {
      "id": 9375,
      "postalCode": "14645",
      "city": "TULLINGE"
    },
    {
      "id": 9376,
      "postalCode": "14645",
      "city": "TULLINGE"
    },
    {
      "id": 9377,
      "postalCode": "14645",
      "city": "TULLINGE"
    },
    {
      "id": 9378,
      "postalCode": "14654",
      "city": "TULLINGE"
    },
    {
      "id": 9379,
      "postalCode": "14652",
      "city": "TULLINGE"
    },
    {
      "id": 9380,
      "postalCode": "14652",
      "city": "TULLINGE"
    },
    {
      "id": 9381,
      "postalCode": "14638",
      "city": "TULLINGE"
    },
    {
      "id": 9382,
      "postalCode": "14652",
      "city": "TULLINGE"
    },
    {
      "id": 9383,
      "postalCode": "14638",
      "city": "TULLINGE"
    },
    {
      "id": 9384,
      "postalCode": "14650",
      "city": "TULLINGE"
    },
    {
      "id": 9385,
      "postalCode": "14650",
      "city": "TULLINGE"
    },
    {
      "id": 9386,
      "postalCode": "14640",
      "city": "TULLINGE"
    },
    {
      "id": 9387,
      "postalCode": "14652",
      "city": "TULLINGE"
    },
    {
      "id": 9388,
      "postalCode": "14650",
      "city": "TULLINGE"
    },
    {
      "id": 9389,
      "postalCode": "14638",
      "city": "TULLINGE"
    },
    {
      "id": 9390,
      "postalCode": "14743",
      "city": "TUMBA"
    },
    {
      "id": 9391,
      "postalCode": "14638",
      "city": "TULLINGE"
    },
    {
      "id": 9392,
      "postalCode": "14652",
      "city": "TULLINGE"
    },
    {
      "id": 9393,
      "postalCode": "14638",
      "city": "TULLINGE"
    },
    {
      "id": 9394,
      "postalCode": "14636",
      "city": "TULLINGE"
    },
    {
      "id": 9395,
      "postalCode": "14648",
      "city": "TULLINGE"
    },
    {
      "id": 9396,
      "postalCode": "14652",
      "city": "TULLINGE"
    },
    {
      "id": 9397,
      "postalCode": "14654",
      "city": "TULLINGE"
    },
    {
      "id": 9398,
      "postalCode": "14652",
      "city": "TULLINGE"
    },
    {
      "id": 9399,
      "postalCode": "14652",
      "city": "TULLINGE"
    },
    {
      "id": 9400,
      "postalCode": "14638",
      "city": "TULLINGE"
    },
    {
      "id": 9401,
      "postalCode": "14652",
      "city": "TULLINGE"
    },
    {
      "id": 9402,
      "postalCode": "14648",
      "city": "TULLINGE"
    },
    {
      "id": 9403,
      "postalCode": "14648",
      "city": "TULLINGE"
    },
    {
      "id": 9404,
      "postalCode": "14648",
      "city": "TULLINGE"
    },
    {
      "id": 9405,
      "postalCode": "14654",
      "city": "TULLINGE"
    },
    {
      "id": 9406,
      "postalCode": "14648",
      "city": "TULLINGE"
    },
    {
      "id": 9407,
      "postalCode": "14648",
      "city": "TULLINGE"
    },
    {
      "id": 9408,
      "postalCode": "14638",
      "city": "TULLINGE"
    },
    {
      "id": 9409,
      "postalCode": "14557",
      "city": "NORSBORG"
    },
    {
      "id": 9410,
      "postalCode": "14762",
      "city": "UTTRAN"
    },
    {
      "id": 9411,
      "postalCode": "14762",
      "city": "UTTRAN"
    },
    {
      "id": 9412,
      "postalCode": "14762",
      "city": "UTTRAN"
    },
    {
      "id": 9413,
      "postalCode": "14762",
      "city": "UTTRAN"
    },
    {
      "id": 9414,
      "postalCode": "14761",
      "city": "UTTRAN"
    },
    {
      "id": 9415,
      "postalCode": "14761",
      "city": "UTTRAN"
    },
    {
      "id": 9416,
      "postalCode": "14761",
      "city": "UTTRAN"
    },
    {
      "id": 9417,
      "postalCode": "14761",
      "city": "UTTRAN"
    },
    {
      "id": 9418,
      "postalCode": "14652",
      "city": "TULLINGE"
    },
    {
      "id": 9419,
      "postalCode": "14652",
      "city": "TULLINGE"
    },
    {
      "id": 9420,
      "postalCode": "14652",
      "city": "TULLINGE"
    },
    {
      "id": 9421,
      "postalCode": "14652",
      "city": "TULLINGE"
    },
    {
      "id": 9422,
      "postalCode": "14652",
      "city": "TULLINGE"
    },
    {
      "id": 9423,
      "postalCode": "14652",
      "city": "TULLINGE"
    },
    {
      "id": 9424,
      "postalCode": "14652",
      "city": "TULLINGE"
    },
    {
      "id": 9425,
      "postalCode": "14650",
      "city": "TULLINGE"
    },
    {
      "id": 9426,
      "postalCode": "14650",
      "city": "TULLINGE"
    },
    {
      "id": 9427,
      "postalCode": "14648",
      "city": "TULLINGE"
    },
    {
      "id": 9428,
      "postalCode": "14652",
      "city": "TULLINGE"
    },
    {
      "id": 9429,
      "postalCode": "14648",
      "city": "TULLINGE"
    },
    {
      "id": 9430,
      "postalCode": "14648",
      "city": "TULLINGE"
    },
    {
      "id": 9431,
      "postalCode": "14648",
      "city": "TULLINGE"
    },
    {
      "id": 9432,
      "postalCode": "14634",
      "city": "TULLINGE"
    },
    {
      "id": 9433,
      "postalCode": "14648",
      "city": "TULLINGE"
    },
    {
      "id": 9434,
      "postalCode": "14648",
      "city": "TULLINGE"
    },
    {
      "id": 9436,
      "postalCode": "14653",
      "city": "TULLINGE"
    },
    {
      "id": 9437,
      "postalCode": "14652",
      "city": "TULLINGE"
    },
    {
      "id": 9438,
      "postalCode": "14653",
      "city": "TULLINGE"
    },
    {
      "id": 9439,
      "postalCode": "14653",
      "city": "TULLINGE"
    },
    {
      "id": 9440,
      "postalCode": "14653",
      "city": "TULLINGE"
    },
    {
      "id": 9441,
      "postalCode": "14653",
      "city": "TULLINGE"
    },
    {
      "id": 9442,
      "postalCode": "14654",
      "city": "TULLINGE"
    },
    {
      "id": 9443,
      "postalCode": "14654",
      "city": "TULLINGE"
    },
    {
      "id": 9444,
      "postalCode": "14654",
      "city": "TULLINGE"
    },
    {
      "id": 9445,
      "postalCode": "14654",
      "city": "TULLINGE"
    },
    {
      "id": 9446,
      "postalCode": "14652",
      "city": "TULLINGE"
    },
    {
      "id": 9447,
      "postalCode": "14652",
      "city": "TULLINGE"
    },
    {
      "id": 9448,
      "postalCode": "14652",
      "city": "TULLINGE"
    },
    {
      "id": 9449,
      "postalCode": "14652",
      "city": "TULLINGE"
    },
    {
      "id": 9450,
      "postalCode": "14652",
      "city": "TULLINGE"
    },
    {
      "id": 9451,
      "postalCode": "14652",
      "city": "TULLINGE"
    },
    {
      "id": 9452,
      "postalCode": "14652",
      "city": "TULLINGE"
    },
    {
      "id": 9453,
      "postalCode": "14652",
      "city": "TULLINGE"
    },
    {
      "id": 9454,
      "postalCode": "14652",
      "city": "TULLINGE"
    },
    {
      "id": 9455,
      "postalCode": "14652",
      "city": "TULLINGE"
    },
    {
      "id": 9456,
      "postalCode": "14652",
      "city": "TULLINGE"
    },
    {
      "id": 9457,
      "postalCode": "14652",
      "city": "TULLINGE"
    },
    {
      "id": 9458,
      "postalCode": "14652",
      "city": "TULLINGE"
    },
    {
      "id": 9459,
      "postalCode": "14652",
      "city": "TULLINGE"
    },
    {
      "id": 9460,
      "postalCode": "14652",
      "city": "TULLINGE"
    },
    {
      "id": 9461,
      "postalCode": "14638",
      "city": "TULLINGE"
    },
    {
      "id": 9462,
      "postalCode": "14650",
      "city": "TULLINGE"
    },
    {
      "id": 9463,
      "postalCode": "14640",
      "city": "TULLINGE"
    },
    {
      "id": 9464,
      "postalCode": "14640",
      "city": "TULLINGE"
    },
    {
      "id": 9465,
      "postalCode": "14640",
      "city": "TULLINGE"
    },
    {
      "id": 9466,
      "postalCode": "14640",
      "city": "TULLINGE"
    },
    {
      "id": 9467,
      "postalCode": "14640",
      "city": "TULLINGE"
    },
    {
      "id": 9468,
      "postalCode": "14648",
      "city": "TULLINGE"
    },
    {
      "id": 9469,
      "postalCode": "14640",
      "city": "TULLINGE"
    },
    {
      "id": 9470,
      "postalCode": "14652",
      "city": "TULLINGE"
    },
    {
      "id": 9471,
      "postalCode": "14640",
      "city": "TULLINGE"
    },
    {
      "id": 9472,
      "postalCode": "14634",
      "city": "TULLINGE"
    },
    {
      "id": 9474,
      "postalCode": "14654",
      "city": "TULLINGE"
    },
    {
      "id": 9475,
      "postalCode": "14654",
      "city": "TULLINGE"
    },
    {
      "id": 9476,
      "postalCode": "14654",
      "city": "TULLINGE"
    },
    {
      "id": 9477,
      "postalCode": "14652",
      "city": "TULLINGE"
    },
    {
      "id": 9478,
      "postalCode": "14763",
      "city": "UTTRAN"
    },
    {
      "id": 9479,
      "postalCode": "14792",
      "city": "GRÖDINGE"
    },
    {
      "id": 9480,
      "postalCode": "14792",
      "city": "GRÖDINGE"
    },
    {
      "id": 9481,
      "postalCode": "14733",
      "city": "TUMBA"
    },
    {
      "id": 9482,
      "postalCode": "14792",
      "city": "GRÖDINGE"
    },
    {
      "id": 9483,
      "postalCode": "14634",
      "city": "TULLINGE"
    },
    {
      "id": 9484,
      "postalCode": "14652",
      "city": "TULLINGE"
    },
    {
      "id": 9485,
      "postalCode": "14731",
      "city": "TUMBA"
    },
    {
      "id": 9486,
      "postalCode": "14731",
      "city": "TUMBA"
    },
    {
      "id": 9487,
      "postalCode": "14574",
      "city": "NORSBORG"
    },
    {
      "id": 9488,
      "postalCode": "14652",
      "city": "TULLINGE"
    },
    {
      "id": 9489,
      "postalCode": "14636",
      "city": "TULLINGE"
    },
    {
      "id": 9490,
      "postalCode": "14652",
      "city": "TULLINGE"
    },
    {
      "id": 9491,
      "postalCode": "14638",
      "city": "TULLINGE"
    },
    {
      "id": 9492,
      "postalCode": "14650",
      "city": "TULLINGE"
    },
    {
      "id": 9493,
      "postalCode": "14631",
      "city": "TULLINGE"
    },
    {
      "id": 9494,
      "postalCode": "14650",
      "city": "TULLINGE"
    },
    {
      "id": 9495,
      "postalCode": "14648",
      "city": "TULLINGE"
    },
    {
      "id": 9496,
      "postalCode": "14648",
      "city": "TULLINGE"
    },
    {
      "id": 9497,
      "postalCode": "14650",
      "city": "TULLINGE"
    },
    {
      "id": 9498,
      "postalCode": "14653",
      "city": "TULLINGE"
    },
    {
      "id": 9499,
      "postalCode": "14650",
      "city": "TULLINGE"
    },
    {
      "id": 9500,
      "postalCode": "14650",
      "city": "TULLINGE"
    },
    {
      "id": 9502,
      "postalCode": "14650",
      "city": "TULLINGE"
    },
    {
      "id": 9503,
      "postalCode": "14650",
      "city": "TULLINGE"
    },
    {
      "id": 9504,
      "postalCode": "14652",
      "city": "TULLINGE"
    },
    {
      "id": 9505,
      "postalCode": "14650",
      "city": "TULLINGE"
    },
    {
      "id": 9506,
      "postalCode": "14650",
      "city": "TULLINGE"
    },
    {
      "id": 9507,
      "postalCode": "14650",
      "city": "TULLINGE"
    },
    {
      "id": 9508,
      "postalCode": "14648",
      "city": "TULLINGE"
    },
    {
      "id": 9509,
      "postalCode": "14648",
      "city": "TULLINGE"
    },
    {
      "id": 9510,
      "postalCode": "14648",
      "city": "TULLINGE"
    },
    {
      "id": 9511,
      "postalCode": "14654",
      "city": "TULLINGE"
    },
    {
      "id": 9512,
      "postalCode": "14654",
      "city": "TULLINGE"
    },
    {
      "id": 9513,
      "postalCode": "14654",
      "city": "TULLINGE"
    },
    {
      "id": 9514,
      "postalCode": "14653",
      "city": "TULLINGE"
    },
    {
      "id": 9515,
      "postalCode": "14652",
      "city": "TULLINGE"
    },
    {
      "id": 9516,
      "postalCode": "14650",
      "city": "TULLINGE"
    },
    {
      "id": 9517,
      "postalCode": "14654",
      "city": "TULLINGE"
    },
    {
      "id": 9518,
      "postalCode": "14650",
      "city": "TULLINGE"
    },
    {
      "id": 9519,
      "postalCode": "14650",
      "city": "TULLINGE"
    },
    {
      "id": 9520,
      "postalCode": "14650",
      "city": "TULLINGE"
    },
    {
      "id": 9521,
      "postalCode": "14650",
      "city": "TULLINGE"
    },
    {
      "id": 9522,
      "postalCode": "14652",
      "city": "TULLINGE"
    },
    {
      "id": 9523,
      "postalCode": "14652",
      "city": "TULLINGE"
    },
    {
      "id": 9524,
      "postalCode": "14652",
      "city": "TULLINGE"
    },
    {
      "id": 9525,
      "postalCode": "14652",
      "city": "TULLINGE"
    },
    {
      "id": 9526,
      "postalCode": "14652",
      "city": "TULLINGE"
    },
    {
      "id": 9527,
      "postalCode": "14652",
      "city": "TULLINGE"
    },
    {
      "id": 9528,
      "postalCode": "14650",
      "city": "TULLINGE"
    },
    {
      "id": 9529,
      "postalCode": "14650",
      "city": "TULLINGE"
    },
    {
      "id": 9530,
      "postalCode": "14648",
      "city": "TULLINGE"
    },
    {
      "id": 9531,
      "postalCode": "14648",
      "city": "TULLINGE"
    },
    {
      "id": 9532,
      "postalCode": "14648",
      "city": "TULLINGE"
    },
    {
      "id": 9533,
      "postalCode": "14648",
      "city": "TULLINGE"
    },
    {
      "id": 9534,
      "postalCode": "14648",
      "city": "TULLINGE"
    },
    {
      "id": 9535,
      "postalCode": "14648",
      "city": "TULLINGE"
    },
    {
      "id": 9536,
      "postalCode": "14746",
      "city": "TUMBA"
    },
    {
      "id": 9537,
      "postalCode": "14650",
      "city": "TULLINGE"
    },
    {
      "id": 9538,
      "postalCode": "14640",
      "city": "TULLINGE"
    },
    {
      "id": 9539,
      "postalCode": "14746",
      "city": "TUMBA"
    },
    {
      "id": 9540,
      "postalCode": "14648",
      "city": "TULLINGE"
    },
    {
      "id": 9541,
      "postalCode": "14648",
      "city": "TULLINGE"
    },
    {
      "id": 9542,
      "postalCode": "14648",
      "city": "TULLINGE"
    },
    {
      "id": 9543,
      "postalCode": "14638",
      "city": "TULLINGE"
    },
    {
      "id": 9544,
      "postalCode": "14640",
      "city": "TULLINGE"
    },
    {
      "id": 9545,
      "postalCode": "14640",
      "city": "TULLINGE"
    },
    {
      "id": 9546,
      "postalCode": "14640",
      "city": "TULLINGE"
    },
    {
      "id": 9547,
      "postalCode": "14638",
      "city": "TULLINGE"
    },
    {
      "id": 9548,
      "postalCode": "14652",
      "city": "TULLINGE"
    },
    {
      "id": 9549,
      "postalCode": "14652",
      "city": "TULLINGE"
    },
    {
      "id": 9550,
      "postalCode": "14652",
      "city": "TULLINGE"
    },
    {
      "id": 9551,
      "postalCode": "14652",
      "city": "TULLINGE"
    },
    {
      "id": 9552,
      "postalCode": "14652",
      "city": "TULLINGE"
    },
    {
      "id": 9554,
      "postalCode": "14638",
      "city": "TULLINGE"
    },
    {
      "id": 9555,
      "postalCode": "14650",
      "city": "TULLINGE"
    },
    {
      "id": 9556,
      "postalCode": "14650",
      "city": "TULLINGE"
    },
    {
      "id": 9557,
      "postalCode": "14652",
      "city": "TULLINGE"
    },
    {
      "id": 9558,
      "postalCode": "14654",
      "city": "TULLINGE"
    },
    {
      "id": 9559,
      "postalCode": "14733",
      "city": "TUMBA"
    },
    {
      "id": 9561,
      "postalCode": "14792",
      "city": "GRÖDINGE"
    },
    {
      "id": 9562,
      "postalCode": "14654",
      "city": "TULLINGE"
    },
    {
      "id": 9563,
      "postalCode": "14640",
      "city": "TULLINGE"
    },
    {
      "id": 9564,
      "postalCode": "14640",
      "city": "TULLINGE"
    },
    {
      "id": 9565,
      "postalCode": "14763",
      "city": "UTTRAN"
    },
    {
      "id": 9566,
      "postalCode": "14638",
      "city": "TULLINGE"
    },
    {
      "id": 9567,
      "postalCode": "14650",
      "city": "TULLINGE"
    },
    {
      "id": 9568,
      "postalCode": "14760",
      "city": "UTTRAN"
    },
    {
      "id": 9569,
      "postalCode": "14760",
      "city": "UTTRAN"
    },
    {
      "id": 9570,
      "postalCode": "14760",
      "city": "UTTRAN"
    },
    {
      "id": 9571,
      "postalCode": "14760",
      "city": "UTTRAN"
    },
    {
      "id": 9572,
      "postalCode": "14760",
      "city": "UTTRAN"
    },
    {
      "id": 9573,
      "postalCode": "14760",
      "city": "UTTRAN"
    },
    {
      "id": 9574,
      "postalCode": "14654",
      "city": "TULLINGE"
    },
    {
      "id": 9575,
      "postalCode": "14652",
      "city": "TULLINGE"
    },
    {
      "id": 9576,
      "postalCode": "14652",
      "city": "TULLINGE"
    },
    {
      "id": 9577,
      "postalCode": "14648",
      "city": "TULLINGE"
    },
    {
      "id": 9578,
      "postalCode": "14792",
      "city": "GRÖDINGE"
    },
    {
      "id": 9579,
      "postalCode": "14792",
      "city": "GRÖDINGE"
    },
    {
      "id": 9580,
      "postalCode": "14792",
      "city": "GRÖDINGE"
    },
    {
      "id": 9581,
      "postalCode": "14732",
      "city": "TUMBA"
    },
    {
      "id": 9582,
      "postalCode": "14771",
      "city": "GRÖDINGE"
    },
    {
      "id": 9583,
      "postalCode": "14792",
      "city": "GRÖDINGE"
    },
    {
      "id": 9584,
      "postalCode": "14733",
      "city": "TUMBA"
    },
    {
      "id": 9585,
      "postalCode": "14733",
      "city": "TUMBA"
    },
    {
      "id": 9586,
      "postalCode": "14733",
      "city": "TUMBA"
    },
    {
      "id": 9587,
      "postalCode": "14733",
      "city": "TUMBA"
    },
    {
      "id": 9590,
      "postalCode": "14746",
      "city": "TUMBA"
    },
    {
      "id": 9591,
      "postalCode": "14792",
      "city": "GRÖDINGE"
    },
    {
      "id": 9592,
      "postalCode": "14792",
      "city": "GRÖDINGE"
    },
    {
      "id": 9593,
      "postalCode": "14570",
      "city": "NORSBORG"
    },
    {
      "id": 9594,
      "postalCode": "14570",
      "city": "NORSBORG"
    },
    {
      "id": 9595,
      "postalCode": "14760",
      "city": "UTTRAN"
    },
    {
      "id": 9596,
      "postalCode": "14760",
      "city": "UTTRAN"
    },
    {
      "id": 9597,
      "postalCode": "14760",
      "city": "UTTRAN"
    },
    {
      "id": 9598,
      "postalCode": "14792",
      "city": "GRÖDINGE"
    },
    {
      "id": 9600,
      "postalCode": "14792",
      "city": "GRÖDINGE"
    },
    {
      "id": 9601,
      "postalCode": "14752",
      "city": "TUMBA"
    },
    {
      "id": 9602,
      "postalCode": "14752",
      "city": "TUMBA"
    },
    {
      "id": 9604,
      "postalCode": "14638",
      "city": "TULLINGE"
    },
    {
      "id": 9605,
      "postalCode": "14760",
      "city": "UTTRAN"
    },
    {
      "id": 9606,
      "postalCode": "14771",
      "city": "GRÖDINGE"
    },
    {
      "id": 9607,
      "postalCode": "14650",
      "city": "TULLINGE"
    },
    {
      "id": 9608,
      "postalCode": "14760",
      "city": "UTTRAN"
    },
    {
      "id": 9609,
      "postalCode": "14760",
      "city": "UTTRAN"
    },
    {
      "id": 9610,
      "postalCode": "14760",
      "city": "UTTRAN"
    },
    {
      "id": 9611,
      "postalCode": "14760",
      "city": "UTTRAN"
    },
    {
      "id": 9612,
      "postalCode": "14760",
      "city": "UTTRAN"
    },
    {
      "id": 9613,
      "postalCode": "14733",
      "city": "TUMBA"
    },
    {
      "id": 9614,
      "postalCode": "14760",
      "city": "UTTRAN"
    },
    {
      "id": 9615,
      "postalCode": "14650",
      "city": "TULLINGE"
    },
    {
      "id": 9616,
      "postalCode": "14760",
      "city": "UTTRAN"
    },
    {
      "id": 9617,
      "postalCode": "14760",
      "city": "UTTRAN"
    },
    {
      "id": 9618,
      "postalCode": "14650",
      "city": "TULLINGE"
    },
    {
      "id": 9619,
      "postalCode": "14739",
      "city": "TUMBA"
    },
    {
      "id": 9621,
      "postalCode": "14739",
      "city": "TUMBA"
    },
    {
      "id": 9622,
      "postalCode": "14650",
      "city": "TULLINGE"
    },
    {
      "id": 9623,
      "postalCode": "14654",
      "city": "TULLINGE"
    },
    {
      "id": 9624,
      "postalCode": "14650",
      "city": "TULLINGE"
    },
    {
      "id": 9625,
      "postalCode": "14648",
      "city": "TULLINGE"
    },
    {
      "id": 9626,
      "postalCode": "14652",
      "city": "TULLINGE"
    },
    {
      "id": 9627,
      "postalCode": "14654",
      "city": "TULLINGE"
    },
    {
      "id": 9628,
      "postalCode": "14792",
      "city": "GRÖDINGE"
    },
    {
      "id": 9629,
      "postalCode": "14743",
      "city": "TUMBA"
    },
    {
      "id": 9630,
      "postalCode": "14791",
      "city": "GRÖDINGE"
    },
    {
      "id": 9631,
      "postalCode": "14731",
      "city": "TUMBA"
    },
    {
      "id": 9633,
      "postalCode": "14760",
      "city": "UTTRAN"
    },
    {
      "id": 9637,
      "postalCode": "14730",
      "city": "TUMBA"
    },
    {
      "id": 9638,
      "postalCode": "14652",
      "city": "TULLINGE"
    },
    {
      "id": 9639,
      "postalCode": "14652",
      "city": "TULLINGE"
    },
    {
      "id": 9640,
      "postalCode": "14652",
      "city": "TULLINGE"
    }
  ]