[
    {
      "id": 3108,
      "postalCode": "14560",
      "city": "NORSBORG"
    },
    {
      "id": 3110,
      "postalCode": "14645",
      "city": "TULLINGE"
    },
    {
      "id": 3111,
      "postalCode": "14645",
      "city": "TULLINGE"
    },
    {
      "id": 3112,
      "postalCode": "14753",
      "city": "TUMBA"
    },
    {
      "id": 3113,
      "postalCode": "14753",
      "city": "TUMBA"
    },
    {
      "id": 3114,
      "postalCode": "14753",
      "city": "TUMBA"
    },
    {
      "id": 3115,
      "postalCode": "14654",
      "city": "TULLINGE"
    },
    {
      "id": 3116,
      "postalCode": "14645",
      "city": "TULLINGE"
    },
    {
      "id": 3118,
      "postalCode": "14560",
      "city": "NORSBORG"
    },
    {
      "id": 3119,
      "postalCode": "14645",
      "city": "TULLINGE"
    },
    {
      "id": 3120,
      "postalCode": "14753",
      "city": "TUMBA"
    },
    {
      "id": 3121,
      "postalCode": "14645",
      "city": "TULLINGE"
    },
    {
      "id": 3122,
      "postalCode": "14753",
      "city": "TUMBA"
    },
    {
      "id": 3123,
      "postalCode": "14646",
      "city": "TULLINGE"
    },
    {
      "id": 3124,
      "postalCode": "14645",
      "city": "TULLINGE"
    },
    {
      "id": 3125,
      "postalCode": "14654",
      "city": "TULLINGE"
    },
    {
      "id": 3126,
      "postalCode": "14751",
      "city": "TUMBA"
    },
    {
      "id": 3127,
      "postalCode": "14741",
      "city": "TUMBA"
    },
    {
      "id": 3128,
      "postalCode": "14741",
      "city": "TUMBA"
    },
    {
      "id": 3129,
      "postalCode": "14741",
      "city": "TUMBA"
    },
    {
      "id": 3130,
      "postalCode": "14741",
      "city": "TUMBA"
    },
    {
      "id": 3131,
      "postalCode": "14741",
      "city": "TUMBA"
    },
    {
      "id": 3132,
      "postalCode": "14741",
      "city": "TUMBA"
    },
    {
      "id": 3133,
      "postalCode": "14741",
      "city": "TUMBA"
    },
    {
      "id": 3134,
      "postalCode": "14743",
      "city": "TUMBA"
    },
    {
      "id": 3135,
      "postalCode": "14741",
      "city": "TUMBA"
    },
    {
      "id": 3136,
      "postalCode": "14640",
      "city": "TULLINGE"
    },
    {
      "id": 3137,
      "postalCode": "14741",
      "city": "TUMBA"
    },
    {
      "id": 3138,
      "postalCode": "14744",
      "city": "TUMBA"
    },
    {
      "id": 3139,
      "postalCode": "14731",
      "city": "TUMBA"
    },
    {
      "id": 3140,
      "postalCode": "14731",
      "city": "TUMBA"
    },
    {
      "id": 3141,
      "postalCode": "14741",
      "city": "TUMBA"
    },
    {
      "id": 3142,
      "postalCode": "14741",
      "city": "TUMBA"
    },
    {
      "id": 3143,
      "postalCode": "14741",
      "city": "TUMBA"
    },
    {
      "id": 3144,
      "postalCode": "14741",
      "city": "TUMBA"
    },
    {
      "id": 3145,
      "postalCode": "14741",
      "city": "TUMBA"
    },
    {
      "id": 3146,
      "postalCode": "14741",
      "city": "TUMBA"
    },
    {
      "id": 3147,
      "postalCode": "14741",
      "city": "TUMBA"
    },
    {
      "id": 3148,
      "postalCode": "14741",
      "city": "TUMBA"
    },
    {
      "id": 3149,
      "postalCode": "14743",
      "city": "TUMBA"
    },
    {
      "id": 3150,
      "postalCode": "14743",
      "city": "TUMBA"
    },
    {
      "id": 3151,
      "postalCode": "14743",
      "city": "TUMBA"
    },
    {
      "id": 3152,
      "postalCode": "14731",
      "city": "TUMBA"
    },
    {
      "id": 3153,
      "postalCode": "14731",
      "city": "TUMBA"
    },
    {
      "id": 3154,
      "postalCode": "14731",
      "city": "TUMBA"
    },
    {
      "id": 3155,
      "postalCode": "14734",
      "city": "TUMBA"
    },
    {
      "id": 3157,
      "postalCode": "14743",
      "city": "TUMBA"
    },
    {
      "id": 3158,
      "postalCode": "14731",
      "city": "TUMBA"
    },
    {
      "id": 3159,
      "postalCode": "14741",
      "city": "TUMBA"
    },
    {
      "id": 3160,
      "postalCode": "14743",
      "city": "TUMBA"
    },
    {
      "id": 3161,
      "postalCode": "14752",
      "city": "TUMBA"
    },
    {
      "id": 3162,
      "postalCode": "14763",
      "city": "UTTRAN"
    },
    {
      "id": 3163,
      "postalCode": "14742",
      "city": "TUMBA"
    },
    {
      "id": 3164,
      "postalCode": "14742",
      "city": "TUMBA"
    },
    {
      "id": 3165,
      "postalCode": "14742",
      "city": "TUMBA"
    },
    {
      "id": 3166,
      "postalCode": "14742",
      "city": "TUMBA"
    },
    {
      "id": 3167,
      "postalCode": "14742",
      "city": "TUMBA"
    },
    {
      "id": 3168,
      "postalCode": "14638",
      "city": "TULLINGE"
    },
    {
      "id": 3169,
      "postalCode": "14636",
      "city": "TULLINGE"
    },
    {
      "id": 3170,
      "postalCode": "14638",
      "city": "TULLINGE"
    },
    {
      "id": 3171,
      "postalCode": "14638",
      "city": "TULLINGE"
    },
    {
      "id": 3172,
      "postalCode": "14648",
      "city": "TULLINGE"
    },
    {
      "id": 3173,
      "postalCode": "14742",
      "city": "TUMBA"
    },
    {
      "id": 3174,
      "postalCode": "14752",
      "city": "TUMBA"
    },
    {
      "id": 3175,
      "postalCode": "14752",
      "city": "TUMBA"
    },
    {
      "id": 3176,
      "postalCode": "14743",
      "city": "TUMBA"
    },
    {
      "id": 3177,
      "postalCode": "14743",
      "city": "TUMBA"
    },
    {
      "id": 3178,
      "postalCode": "14743",
      "city": "TUMBA"
    },
    {
      "id": 3179,
      "postalCode": "14637",
      "city": "TULLINGE"
    },
    {
      "id": 3180,
      "postalCode": "14637",
      "city": "TULLINGE"
    },
    {
      "id": 3181,
      "postalCode": "14743",
      "city": "TUMBA"
    },
    {
      "id": 3182,
      "postalCode": "14743",
      "city": "TUMBA"
    },
    {
      "id": 3183,
      "postalCode": "14650",
      "city": "TULLINGE"
    },
    {
      "id": 3184,
      "postalCode": "14652",
      "city": "TULLINGE"
    },
    {
      "id": 3185,
      "postalCode": "14742",
      "city": "TUMBA"
    },
    {
      "id": 3186,
      "postalCode": "14742",
      "city": "TUMBA"
    },
    {
      "id": 3187,
      "postalCode": "14742",
      "city": "TUMBA"
    },
    {
      "id": 3188,
      "postalCode": "14742",
      "city": "TUMBA"
    },
    {
      "id": 3189,
      "postalCode": "14742",
      "city": "TUMBA"
    },
    {
      "id": 3190,
      "postalCode": "14742",
      "city": "TUMBA"
    },
    {
      "id": 3191,
      "postalCode": "14742",
      "city": "TUMBA"
    },
    {
      "id": 3192,
      "postalCode": "14742",
      "city": "TUMBA"
    },
    {
      "id": 3193,
      "postalCode": "14742",
      "city": "TUMBA"
    },
    {
      "id": 3194,
      "postalCode": "14742",
      "city": "TUMBA"
    },
    {
      "id": 3195,
      "postalCode": "14734",
      "city": "TUMBA"
    },
    {
      "id": 3197,
      "postalCode": "14734",
      "city": "TUMBA"
    },
    {
      "id": 3198,
      "postalCode": "14732",
      "city": "TUMBA"
    },
    {
      "id": 3199,
      "postalCode": "14732",
      "city": "TUMBA"
    },
    {
      "id": 3200,
      "postalCode": "14570",
      "city": "NORSBORG"
    },
    {
      "id": 3202,
      "postalCode": "14652",
      "city": "TULLINGE"
    },
    {
      "id": 3204,
      "postalCode": "14763",
      "city": "UTTRAN"
    },
    {
      "id": 3205,
      "postalCode": "14590",
      "city": "NORSBORG"
    },
    {
      "id": 3206,
      "postalCode": "14638",
      "city": "TULLINGE"
    },
    {
      "id": 3207,
      "postalCode": "14734",
      "city": "TUMBA"
    },
    {
      "id": 3208,
      "postalCode": "14634",
      "city": "TULLINGE"
    },
    {
      "id": 3209,
      "postalCode": "14634",
      "city": "TULLINGE"
    },
    {
      "id": 3210,
      "postalCode": "14731",
      "city": "TUMBA"
    },
    {
      "id": 3211,
      "postalCode": "14640",
      "city": "TULLINGE"
    },
    {
      "id": 3212,
      "postalCode": "14650",
      "city": "TULLINGE"
    },
    {
      "id": 3213,
      "postalCode": "14652",
      "city": "TULLINGE"
    },
    {
      "id": 3214,
      "postalCode": "14752",
      "city": "TUMBA"
    },
    {
      "id": 3215,
      "postalCode": "14650",
      "city": "TULLINGE"
    },
    {
      "id": 3216,
      "postalCode": "14650",
      "city": "TULLINGE"
    },
    {
      "id": 3217,
      "postalCode": "14650",
      "city": "TULLINGE"
    },
    {
      "id": 3218,
      "postalCode": "14640",
      "city": "TULLINGE"
    },
    {
      "id": 3219,
      "postalCode": "14650",
      "city": "TULLINGE"
    },
    {
      "id": 3220,
      "postalCode": "14652",
      "city": "TULLINGE"
    },
    {
      "id": 3221,
      "postalCode": "14648",
      "city": "TULLINGE"
    },
    {
      "id": 3222,
      "postalCode": "14650",
      "city": "TULLINGE"
    },
    {
      "id": 3223,
      "postalCode": "14652",
      "city": "TULLINGE"
    },
    {
      "id": 3224,
      "postalCode": "14654",
      "city": "TULLINGE"
    },
    {
      "id": 3225,
      "postalCode": "14654",
      "city": "TULLINGE"
    },
    {
      "id": 3226,
      "postalCode": "14654",
      "city": "TULLINGE"
    },
    {
      "id": 3227,
      "postalCode": "14654",
      "city": "TULLINGE"
    },
    {
      "id": 3228,
      "postalCode": "14648",
      "city": "TULLINGE"
    },
    {
      "id": 3229,
      "postalCode": "14650",
      "city": "TULLINGE"
    },
    {
      "id": 3230,
      "postalCode": "14650",
      "city": "TULLINGE"
    },
    {
      "id": 3231,
      "postalCode": "14650",
      "city": "TULLINGE"
    },
    {
      "id": 3232,
      "postalCode": "14650",
      "city": "TULLINGE"
    },
    {
      "id": 3233,
      "postalCode": "14650",
      "city": "TULLINGE"
    },
    {
      "id": 3234,
      "postalCode": "14650",
      "city": "TULLINGE"
    },
    {
      "id": 3235,
      "postalCode": "14652",
      "city": "TULLINGE"
    },
    {
      "id": 3236,
      "postalCode": "14650",
      "city": "TULLINGE"
    },
    {
      "id": 3237,
      "postalCode": "14654",
      "city": "TULLINGE"
    },
    {
      "id": 3238,
      "postalCode": "14653",
      "city": "TULLINGE"
    },
    {
      "id": 3239,
      "postalCode": "14650",
      "city": "TULLINGE"
    },
    {
      "id": 3240,
      "postalCode": "14763",
      "city": "UTTRAN"
    },
    {
      "id": 3241,
      "postalCode": "14650",
      "city": "TULLINGE"
    },
    {
      "id": 3242,
      "postalCode": "14650",
      "city": "TULLINGE"
    },
    {
      "id": 3243,
      "postalCode": "14654",
      "city": "TULLINGE"
    },
    {
      "id": 3244,
      "postalCode": "14650",
      "city": "TULLINGE"
    },
    {
      "id": 3245,
      "postalCode": "14732",
      "city": "TUMBA"
    },
    {
      "id": 3246,
      "postalCode": "14650",
      "city": "TULLINGE"
    },
    {
      "id": 3247,
      "postalCode": "14732",
      "city": "TUMBA"
    },
    {
      "id": 3248,
      "postalCode": "14732",
      "city": "TUMBA"
    },
    {
      "id": 3249,
      "postalCode": "14733",
      "city": "TUMBA"
    },
    {
      "id": 3250,
      "postalCode": "14732",
      "city": "TUMBA"
    },
    {
      "id": 3251,
      "postalCode": "14732",
      "city": "TUMBA"
    },
    {
      "id": 3252,
      "postalCode": "14731",
      "city": "TUMBA"
    },
    {
      "id": 3253,
      "postalCode": "14732",
      "city": "TUMBA"
    },
    {
      "id": 3254,
      "postalCode": "14731",
      "city": "TUMBA"
    },
    {
      "id": 3255,
      "postalCode": "14731",
      "city": "TUMBA"
    },
    {
      "id": 3257,
      "postalCode": "14634",
      "city": "TULLINGE"
    },
    {
      "id": 3258,
      "postalCode": "14743",
      "city": "TUMBA"
    },
    {
      "id": 3259,
      "postalCode": "14638",
      "city": "TULLINGE"
    },
    {
      "id": 3260,
      "postalCode": "14743",
      "city": "TUMBA"
    },
    {
      "id": 3261,
      "postalCode": "14732",
      "city": "TUMBA"
    },
    {
      "id": 3262,
      "postalCode": "14634",
      "city": "TULLINGE"
    },
    {
      "id": 3263,
      "postalCode": "14567",
      "city": "NORSBORG"
    },
    {
      "id": 3264,
      "postalCode": "14567",
      "city": "NORSBORG"
    },
    {
      "id": 3265,
      "postalCode": "14574",
      "city": "NORSBORG"
    },
    {
      "id": 3266,
      "postalCode": "14654",
      "city": "TULLINGE"
    },
    {
      "id": 3269,
      "postalCode": "14650",
      "city": "TULLINGE"
    },
    {
      "id": 3270,
      "postalCode": "14734",
      "city": "TUMBA"
    },
    {
      "id": 3272,
      "postalCode": "14731",
      "city": "TUMBA"
    },
    {
      "id": 3273,
      "postalCode": "14792",
      "city": "GRÖDINGE"
    },
    {
      "id": 3274,
      "postalCode": "14652",
      "city": "TULLINGE"
    },
    {
      "id": 3275,
      "postalCode": "14557",
      "city": "NORSBORG"
    },
    {
      "id": 3276,
      "postalCode": "14557",
      "city": "NORSBORG"
    },
    {
      "id": 3277,
      "postalCode": "14731",
      "city": "TUMBA"
    },
    {
      "id": 3278,
      "postalCode": "14630",
      "city": "TULLINGE"
    },
    {
      "id": 3279,
      "postalCode": "14740",
      "city": "TUMBA"
    },
    {
      "id": 3281,
      "postalCode": "14733",
      "city": "TUMBA"
    },
    {
      "id": 3282,
      "postalCode": "14640",
      "city": "TULLINGE"
    },
    {
      "id": 3283,
      "postalCode": "14732",
      "city": "TUMBA"
    },
    {
      "id": 3284,
      "postalCode": "14763",
      "city": "UTTRAN"
    },
    {
      "id": 3285,
      "postalCode": "14763",
      "city": "UTTRAN"
    },
    {
      "id": 3286,
      "postalCode": "14760",
      "city": "UTTRAN"
    },
    {
      "id": 3287,
      "postalCode": "14763",
      "city": "UTTRAN"
    },
    {
      "id": 3288,
      "postalCode": "14763",
      "city": "UTTRAN"
    },
    {
      "id": 3289,
      "postalCode": "14648",
      "city": "TULLINGE"
    },
    {
      "id": 3290,
      "postalCode": "14634",
      "city": "TULLINGE"
    },
    {
      "id": 3291,
      "postalCode": "14763",
      "city": "UTTRAN"
    },
    {
      "id": 3292,
      "postalCode": "14763",
      "city": "UTTRAN"
    },
    {
      "id": 3293,
      "postalCode": "14763",
      "city": "UTTRAN"
    },
    {
      "id": 3294,
      "postalCode": "14763",
      "city": "UTTRAN"
    },
    {
      "id": 3295,
      "postalCode": "14763",
      "city": "UTTRAN"
    },
    {
      "id": 3296,
      "postalCode": "14763",
      "city": "UTTRAN"
    },
    {
      "id": 3297,
      "postalCode": "14763",
      "city": "UTTRAN"
    },
    {
      "id": 3298,
      "postalCode": "14763",
      "city": "UTTRAN"
    },
    {
      "id": 3299,
      "postalCode": "14763",
      "city": "UTTRAN"
    },
    {
      "id": 3300,
      "postalCode": "14732",
      "city": "TUMBA"
    },
    {
      "id": 3301,
      "postalCode": "14760",
      "city": "UTTRAN"
    },
    {
      "id": 3302,
      "postalCode": "14760",
      "city": "UTTRAN"
    },
    {
      "id": 3303,
      "postalCode": "14763",
      "city": "UTTRAN"
    },
    {
      "id": 3304,
      "postalCode": "14763",
      "city": "UTTRAN"
    },
    {
      "id": 3305,
      "postalCode": "14763",
      "city": "UTTRAN"
    },
    {
      "id": 3306,
      "postalCode": "14763",
      "city": "UTTRAN"
    },
    {
      "id": 3308,
      "postalCode": "14763",
      "city": "UTTRAN"
    },
    {
      "id": 3309,
      "postalCode": "14763",
      "city": "UTTRAN"
    },
    {
      "id": 3310,
      "postalCode": "14763",
      "city": "UTTRAN"
    },
    {
      "id": 3311,
      "postalCode": "14763",
      "city": "UTTRAN"
    },
    {
      "id": 3312,
      "postalCode": "14763",
      "city": "UTTRAN"
    },
    {
      "id": 3313,
      "postalCode": "14763",
      "city": "UTTRAN"
    },
    {
      "id": 3314,
      "postalCode": "14763",
      "city": "UTTRAN"
    },
    {
      "id": 3315,
      "postalCode": "14763",
      "city": "UTTRAN"
    },
    {
      "id": 3316,
      "postalCode": "14763",
      "city": "UTTRAN"
    },
    {
      "id": 3317,
      "postalCode": "14733",
      "city": "TUMBA"
    },
    {
      "id": 3318,
      "postalCode": "14763",
      "city": "UTTRAN"
    },
    {
      "id": 3319,
      "postalCode": "14763",
      "city": "UTTRAN"
    },
    {
      "id": 3320,
      "postalCode": "14650",
      "city": "TULLINGE"
    },
    {
      "id": 3321,
      "postalCode": "14763",
      "city": "UTTRAN"
    },
    {
      "id": 3322,
      "postalCode": "14760",
      "city": "UTTRAN"
    },
    {
      "id": 3323,
      "postalCode": "14763",
      "city": "UTTRAN"
    },
    {
      "id": 3324,
      "postalCode": "14763",
      "city": "UTTRAN"
    },
    {
      "id": 3325,
      "postalCode": "14734",
      "city": "TUMBA"
    },
    {
      "id": 3326,
      "postalCode": "14763",
      "city": "UTTRAN"
    },
    {
      "id": 3327,
      "postalCode": "14763",
      "city": "UTTRAN"
    },
    {
      "id": 3328,
      "postalCode": "14733",
      "city": "TUMBA"
    },
    {
      "id": 3329,
      "postalCode": "14648",
      "city": "TULLINGE"
    },
    {
      "id": 3330,
      "postalCode": "14648",
      "city": "TULLINGE"
    },
    {
      "id": 3333,
      "postalCode": "14763",
      "city": "UTTRAN"
    },
    {
      "id": 3334,
      "postalCode": "14763",
      "city": "UTTRAN"
    },
    {
      "id": 3335,
      "postalCode": "14731",
      "city": "TUMBA"
    },
    {
      "id": 3336,
      "postalCode": "14734",
      "city": "TUMBA"
    },
    {
      "id": 3337,
      "postalCode": "14551",
      "city": "NORSBORG"
    },
    {
      "id": 3338,
      "postalCode": "14551",
      "city": "NORSBORG"
    },
    {
      "id": 3340,
      "postalCode": "14563",
      "city": "NORSBORG"
    },
    {
      "id": 3341,
      "postalCode": "14563",
      "city": "NORSBORG"
    },
    {
      "id": 3342,
      "postalCode": "14732",
      "city": "TUMBA"
    },
    {
      "id": 3343,
      "postalCode": "14640",
      "city": "TULLINGE"
    },
    {
      "id": 3344,
      "postalCode": "14754",
      "city": "TUMBA"
    },
    {
      "id": 3345,
      "postalCode": "14551",
      "city": "NORSBORG"
    },
    {
      "id": 3346,
      "postalCode": "14551",
      "city": "NORSBORG"
    },
    {
      "id": 3347,
      "postalCode": "14551",
      "city": "NORSBORG"
    },
    {
      "id": 3348,
      "postalCode": "14551",
      "city": "NORSBORG"
    },
    {
      "id": 3349,
      "postalCode": "14551",
      "city": "NORSBORG"
    },
    {
      "id": 3350,
      "postalCode": "14551",
      "city": "NORSBORG"
    },
    {
      "id": 3351,
      "postalCode": "14551",
      "city": "NORSBORG"
    },
    {
      "id": 3352,
      "postalCode": "14551",
      "city": "NORSBORG"
    },
    {
      "id": 3353,
      "postalCode": "14754",
      "city": "TUMBA"
    },
    {
      "id": 3354,
      "postalCode": "14754",
      "city": "TUMBA"
    },
    {
      "id": 3355,
      "postalCode": "14733",
      "city": "TUMBA"
    },
    {
      "id": 3356,
      "postalCode": "14551",
      "city": "NORSBORG"
    },
    {
      "id": 3357,
      "postalCode": "14551",
      "city": "NORSBORG"
    },
    {
      "id": 3358,
      "postalCode": "14551",
      "city": "NORSBORG"
    },
    {
      "id": 3359,
      "postalCode": "14551",
      "city": "NORSBORG"
    },
    {
      "id": 3360,
      "postalCode": "14551",
      "city": "NORSBORG"
    },
    {
      "id": 3361,
      "postalCode": "14551",
      "city": "NORSBORG"
    },
    {
      "id": 3362,
      "postalCode": "14551",
      "city": "NORSBORG"
    },
    {
      "id": 3363,
      "postalCode": "14551",
      "city": "NORSBORG"
    },
    {
      "id": 3364,
      "postalCode": "14551",
      "city": "NORSBORG"
    },
    {
      "id": 3365,
      "postalCode": "14551",
      "city": "NORSBORG"
    },
    {
      "id": 3366,
      "postalCode": "14551",
      "city": "NORSBORG"
    },
    {
      "id": 3367,
      "postalCode": "14733",
      "city": "TUMBA"
    },
    {
      "id": 3368,
      "postalCode": "14732",
      "city": "TUMBA"
    },
    {
      "id": 3369,
      "postalCode": "14733",
      "city": "TUMBA"
    },
    {
      "id": 3370,
      "postalCode": "14732",
      "city": "TUMBA"
    },
    {
      "id": 3371,
      "postalCode": "14732",
      "city": "TUMBA"
    },
    {
      "id": 3372,
      "postalCode": "14732",
      "city": "TUMBA"
    },
    {
      "id": 3373,
      "postalCode": "14732",
      "city": "TUMBA"
    },
    {
      "id": 3374,
      "postalCode": "14732",
      "city": "TUMBA"
    },
    {
      "id": 3375,
      "postalCode": "14731",
      "city": "TUMBA"
    },
    {
      "id": 3376,
      "postalCode": "14731",
      "city": "TUMBA"
    },
    {
      "id": 3377,
      "postalCode": "14731",
      "city": "TUMBA"
    },
    {
      "id": 3378,
      "postalCode": "14731",
      "city": "TUMBA"
    },
    {
      "id": 3380,
      "postalCode": "14551",
      "city": "NORSBORG"
    },
    {
      "id": 3381,
      "postalCode": "14551",
      "city": "NORSBORG"
    },
    {
      "id": 3382,
      "postalCode": "14551",
      "city": "NORSBORG"
    },
    {
      "id": 3383,
      "postalCode": "14551",
      "city": "NORSBORG"
    },
    {
      "id": 3384,
      "postalCode": "14551",
      "city": "NORSBORG"
    },
    {
      "id": 3385,
      "postalCode": "14551",
      "city": "NORSBORG"
    },
    {
      "id": 3386,
      "postalCode": "14732",
      "city": "TUMBA"
    },
    {
      "id": 3387,
      "postalCode": "14731",
      "city": "TUMBA"
    },
    {
      "id": 3388,
      "postalCode": "14731",
      "city": "TUMBA"
    },
    {
      "id": 3389,
      "postalCode": "14754",
      "city": "TUMBA"
    },
    {
      "id": 3390,
      "postalCode": "14733",
      "city": "TUMBA"
    },
    {
      "id": 3391,
      "postalCode": "14733",
      "city": "TUMBA"
    },
    {
      "id": 3392,
      "postalCode": "14733",
      "city": "TUMBA"
    },
    {
      "id": 3393,
      "postalCode": "14731",
      "city": "TUMBA"
    },
    {
      "id": 3394,
      "postalCode": "14732",
      "city": "TUMBA"
    },
    {
      "id": 3395,
      "postalCode": "14732",
      "city": "TUMBA"
    },
    {
      "id": 3396,
      "postalCode": "14551",
      "city": "NORSBORG"
    },
    {
      "id": 3397,
      "postalCode": "14551",
      "city": "NORSBORG"
    },
    {
      "id": 3398,
      "postalCode": "14551",
      "city": "NORSBORG"
    },
    {
      "id": 3400,
      "postalCode": "14638",
      "city": "TULLINGE"
    },
    {
      "id": 3401,
      "postalCode": "14638",
      "city": "TULLINGE"
    },
    {
      "id": 3402,
      "postalCode": "14633",
      "city": "TULLINGE"
    },
    {
      "id": 3403,
      "postalCode": "14638",
      "city": "TULLINGE"
    },
    {
      "id": 3404,
      "postalCode": "14733",
      "city": "TUMBA"
    },
    {
      "id": 3406,
      "postalCode": "14731",
      "city": "TUMBA"
    },
    {
      "id": 3407,
      "postalCode": "14733",
      "city": "TUMBA"
    },
    {
      "id": 3408,
      "postalCode": "14733",
      "city": "TUMBA"
    },
    {
      "id": 3409,
      "postalCode": "14731",
      "city": "TUMBA"
    },
    {
      "id": 3410,
      "postalCode": "14731",
      "city": "TUMBA"
    },
    {
      "id": 3411,
      "postalCode": "14732",
      "city": "TUMBA"
    },
    {
      "id": 3412,
      "postalCode": "14732",
      "city": "TUMBA"
    },
    {
      "id": 3413,
      "postalCode": "14732",
      "city": "TUMBA"
    },
    {
      "id": 3414,
      "postalCode": "14733",
      "city": "TUMBA"
    },
    {
      "id": 3415,
      "postalCode": "14733",
      "city": "TUMBA"
    },
    {
      "id": 3416,
      "postalCode": "14645",
      "city": "TULLINGE"
    },
    {
      "id": 3417,
      "postalCode": "14633",
      "city": "TULLINGE"
    },
    {
      "id": 3418,
      "postalCode": "14633",
      "city": "TULLINGE"
    },
    {
      "id": 3419,
      "postalCode": "14633",
      "city": "TULLINGE"
    },
    {
      "id": 3420,
      "postalCode": "14551",
      "city": "NORSBORG"
    },
    {
      "id": 3421,
      "postalCode": "14732",
      "city": "TUMBA"
    },
    {
      "id": 3422,
      "postalCode": "14734",
      "city": "TUMBA"
    },
    {
      "id": 3423,
      "postalCode": "14731",
      "city": "TUMBA"
    },
    {
      "id": 3425,
      "postalCode": "14754",
      "city": "TUMBA"
    },
    {
      "id": 3426,
      "postalCode": "14731",
      "city": "TUMBA"
    },
    {
      "id": 3427,
      "postalCode": "14732",
      "city": "TUMBA"
    },
    {
      "id": 3428,
      "postalCode": "14732",
      "city": "TUMBA"
    },
    {
      "id": 3429,
      "postalCode": "14733",
      "city": "TUMBA"
    },
    {
      "id": 3430,
      "postalCode": "14638",
      "city": "TULLINGE"
    },
    {
      "id": 3431,
      "postalCode": "14570",
      "city": "NORSBORG"
    },
    {
      "id": 3432,
      "postalCode": "14570",
      "city": "NORSBORG"
    },
    {
      "id": 3433,
      "postalCode": "14741",
      "city": "TUMBA"
    },
    {
      "id": 3434,
      "postalCode": "14741",
      "city": "TUMBA"
    },
    {
      "id": 3435,
      "postalCode": "14733",
      "city": "TUMBA"
    },
    {
      "id": 3436,
      "postalCode": "14741",
      "city": "TUMBA"
    },
    {
      "id": 3437,
      "postalCode": "14733",
      "city": "TUMBA"
    },
    {
      "id": 3438,
      "postalCode": "14734",
      "city": "TUMBA"
    },
    {
      "id": 3439,
      "postalCode": "14734",
      "city": "TUMBA"
    },
    {
      "id": 3440,
      "postalCode": "14733",
      "city": "TUMBA"
    },
    {
      "id": 3441,
      "postalCode": "14731",
      "city": "TUMBA"
    },
    {
      "id": 3442,
      "postalCode": "14733",
      "city": "TUMBA"
    },
    {
      "id": 3443,
      "postalCode": "14763",
      "city": "UTTRAN"
    },
    {
      "id": 3444,
      "postalCode": "14763",
      "city": "UTTRAN"
    },
    {
      "id": 3445,
      "postalCode": "14740",
      "city": "TUMBA"
    },
    {
      "id": 3446,
      "postalCode": "14740",
      "city": "TUMBA"
    },
    {
      "id": 3447,
      "postalCode": "14740",
      "city": "TUMBA"
    },
    {
      "id": 3448,
      "postalCode": "14732",
      "city": "TUMBA"
    },
    {
      "id": 3449,
      "postalCode": "14731",
      "city": "TUMBA"
    },
    {
      "id": 3450,
      "postalCode": "14752",
      "city": "TUMBA"
    },
    {
      "id": 3451,
      "postalCode": "14741",
      "city": "TUMBA"
    },
    {
      "id": 3452,
      "postalCode": "14634",
      "city": "TULLINGE"
    },
    {
      "id": 3453,
      "postalCode": "14634",
      "city": "TULLINGE"
    },
    {
      "id": 3454,
      "postalCode": "14734",
      "city": "TUMBA"
    },
    {
      "id": 3455,
      "postalCode": "14741",
      "city": "TUMBA"
    },
    {
      "id": 3456,
      "postalCode": "14572",
      "city": "NORSBORG"
    },
    {
      "id": 3457,
      "postalCode": "14572",
      "city": "NORSBORG"
    },
    {
      "id": 3458,
      "postalCode": "14733",
      "city": "TUMBA"
    },
    {
      "id": 3459,
      "postalCode": "14743",
      "city": "TUMBA"
    },
    {
      "id": 3460,
      "postalCode": "14743",
      "city": "TUMBA"
    },
    {
      "id": 3461,
      "postalCode": "14743",
      "city": "TUMBA"
    },
    {
      "id": 3462,
      "postalCode": "14743",
      "city": "TUMBA"
    },
    {
      "id": 3463,
      "postalCode": "14743",
      "city": "TUMBA"
    },
    {
      "id": 3464,
      "postalCode": "14743",
      "city": "TUMBA"
    },
    {
      "id": 3465,
      "postalCode": "14731",
      "city": "TUMBA"
    },
    {
      "id": 3466,
      "postalCode": "14741",
      "city": "TUMBA"
    },
    {
      "id": 3467,
      "postalCode": "14763",
      "city": "UTTRAN"
    },
    {
      "id": 3468,
      "postalCode": "14638",
      "city": "TULLINGE"
    },
    {
      "id": 3469,
      "postalCode": "14741",
      "city": "TUMBA"
    },
    {
      "id": 3470,
      "postalCode": "14791",
      "city": "GRÖDINGE"
    },
    {
      "id": 3471,
      "postalCode": "14741",
      "city": "TUMBA"
    },
    {
      "id": 3472,
      "postalCode": "14741",
      "city": "TUMBA"
    },
    {
      "id": 3473,
      "postalCode": "14634",
      "city": "TULLINGE"
    },
    {
      "id": 3474,
      "postalCode": "14634",
      "city": "TULLINGE"
    },
    {
      "id": 3475,
      "postalCode": "14634",
      "city": "TULLINGE"
    },
    {
      "id": 3476,
      "postalCode": "14634",
      "city": "TULLINGE"
    },
    {
      "id": 3477,
      "postalCode": "14634",
      "city": "TULLINGE"
    },
    {
      "id": 3478,
      "postalCode": "14634",
      "city": "TULLINGE"
    },
    {
      "id": 3479,
      "postalCode": "14634",
      "city": "TULLINGE"
    },
    {
      "id": 3480,
      "postalCode": "14634",
      "city": "TULLINGE"
    },
    {
      "id": 3481,
      "postalCode": "14634",
      "city": "TULLINGE"
    },
    {
      "id": 3482,
      "postalCode": "14634",
      "city": "TULLINGE"
    },
    {
      "id": 3483,
      "postalCode": "14731",
      "city": "TUMBA"
    },
    {
      "id": 3484,
      "postalCode": "14731",
      "city": "TUMBA"
    },
    {
      "id": 3485,
      "postalCode": "14732",
      "city": "TUMBA"
    },
    {
      "id": 3486,
      "postalCode": "14731",
      "city": "TUMBA"
    },
    {
      "id": 3487,
      "postalCode": "14731",
      "city": "TUMBA"
    },
    {
      "id": 3489,
      "postalCode": "14754",
      "city": "TUMBA"
    },
    {
      "id": 3490,
      "postalCode": "14731",
      "city": "TUMBA"
    },
    {
      "id": 3491,
      "postalCode": "14731",
      "city": "TUMBA"
    },
    {
      "id": 3492,
      "postalCode": "14731",
      "city": "TUMBA"
    },
    {
      "id": 3493,
      "postalCode": "14743",
      "city": "TUMBA"
    },
    {
      "id": 3494,
      "postalCode": "14741",
      "city": "TUMBA"
    },
    {
      "id": 3495,
      "postalCode": "14741",
      "city": "TUMBA"
    },
    {
      "id": 3496,
      "postalCode": "14743",
      "city": "TUMBA"
    },
    {
      "id": 3497,
      "postalCode": "14741",
      "city": "TUMBA"
    },
    {
      "id": 3498,
      "postalCode": "14741",
      "city": "TUMBA"
    },
    {
      "id": 3499,
      "postalCode": "14741",
      "city": "TUMBA"
    },
    {
      "id": 3500,
      "postalCode": "14741",
      "city": "TUMBA"
    },
    {
      "id": 3501,
      "postalCode": "14741",
      "city": "TUMBA"
    },
    {
      "id": 3502,
      "postalCode": "14743",
      "city": "TUMBA"
    },
    {
      "id": 3503,
      "postalCode": "14734",
      "city": "TUMBA"
    },
    {
      "id": 3504,
      "postalCode": "14741",
      "city": "TUMBA"
    },
    {
      "id": 3505,
      "postalCode": "14634",
      "city": "TULLINGE"
    },
    {
      "id": 3506,
      "postalCode": "14634",
      "city": "TULLINGE"
    },
    {
      "id": 3507,
      "postalCode": "14634",
      "city": "TULLINGE"
    },
    {
      "id": 3508,
      "postalCode": "14634",
      "city": "TULLINGE"
    },
    {
      "id": 3509,
      "postalCode": "14634",
      "city": "TULLINGE"
    },
    {
      "id": 3510,
      "postalCode": "14634",
      "city": "TULLINGE"
    },
    {
      "id": 3511,
      "postalCode": "14634",
      "city": "TULLINGE"
    },
    {
      "id": 3512,
      "postalCode": "14731",
      "city": "TUMBA"
    },
    {
      "id": 3513,
      "postalCode": "14634",
      "city": "TULLINGE"
    },
    {
      "id": 3514,
      "postalCode": "14734",
      "city": "TUMBA"
    },
    {
      "id": 3515,
      "postalCode": "14731",
      "city": "TUMBA"
    },
    {
      "id": 3516,
      "postalCode": "14763",
      "city": "UTTRAN"
    },
    {
      "id": 3517,
      "postalCode": "14763",
      "city": "UTTRAN"
    },
    {
      "id": 3518,
      "postalCode": "14743",
      "city": "TUMBA"
    },
    {
      "id": 3519,
      "postalCode": "14743",
      "city": "TUMBA"
    },
    {
      "id": 3520,
      "postalCode": "14743",
      "city": "TUMBA"
    },
    {
      "id": 3521,
      "postalCode": "14743",
      "city": "TUMBA"
    },
    {
      "id": 3522,
      "postalCode": "14743",
      "city": "TUMBA"
    },
    {
      "id": 3523,
      "postalCode": "14731",
      "city": "TUMBA"
    },
    {
      "id": 3524,
      "postalCode": "14731",
      "city": "TUMBA"
    },
    {
      "id": 3525,
      "postalCode": "14731",
      "city": "TUMBA"
    },
    {
      "id": 3526,
      "postalCode": "14743",
      "city": "TUMBA"
    },
    {
      "id": 3527,
      "postalCode": "14744",
      "city": "TUMBA"
    },
    {
      "id": 3528,
      "postalCode": "14743",
      "city": "TUMBA"
    },
    {
      "id": 3529,
      "postalCode": "14743",
      "city": "TUMBA"
    },
    {
      "id": 3530,
      "postalCode": "14743",
      "city": "TUMBA"
    },
    {
      "id": 3531,
      "postalCode": "14741",
      "city": "TUMBA"
    },
    {
      "id": 3532,
      "postalCode": "14741",
      "city": "TUMBA"
    },
    {
      "id": 3533,
      "postalCode": "14741",
      "city": "TUMBA"
    },
    {
      "id": 3534,
      "postalCode": "14741",
      "city": "TUMBA"
    },
    {
      "id": 3535,
      "postalCode": "14741",
      "city": "TUMBA"
    },
    {
      "id": 3536,
      "postalCode": "14741",
      "city": "TUMBA"
    },
    {
      "id": 3537,
      "postalCode": "14742",
      "city": "TUMBA"
    },
    {
      "id": 3538,
      "postalCode": "14731",
      "city": "TUMBA"
    },
    {
      "id": 3539,
      "postalCode": "14730",
      "city": "TUMBA"
    },
    {
      "id": 3541,
      "postalCode": "14744",
      "city": "TUMBA"
    },
    {
      "id": 3542,
      "postalCode": "14744",
      "city": "TUMBA"
    },
    {
      "id": 3543,
      "postalCode": "14560",
      "city": "NORSBORG"
    },
    {
      "id": 3544,
      "postalCode": "14560",
      "city": "NORSBORG"
    },
    {
      "id": 3545,
      "postalCode": "14557",
      "city": "NORSBORG"
    },
    {
      "id": 3546,
      "postalCode": "14557",
      "city": "NORSBORG"
    },
    {
      "id": 3547,
      "postalCode": "14557",
      "city": "NORSBORG"
    },
    {
      "id": 3548,
      "postalCode": "14557",
      "city": "NORSBORG"
    },
    {
      "id": 3549,
      "postalCode": "14743",
      "city": "TUMBA"
    },
    {
      "id": 3550,
      "postalCode": "14731",
      "city": "TUMBA"
    },
    {
      "id": 3551,
      "postalCode": "14742",
      "city": "TUMBA"
    },
    {
      "id": 3552,
      "postalCode": "14741",
      "city": "TUMBA"
    },
    {
      "id": 3553,
      "postalCode": "14731",
      "city": "TUMBA"
    },
    {
      "id": 3554,
      "postalCode": "14634",
      "city": "TULLINGE"
    },
    {
      "id": 3555,
      "postalCode": "14634",
      "city": "TULLINGE"
    },
    {
      "id": 3556,
      "postalCode": "14634",
      "city": "TULLINGE"
    },
    {
      "id": 3557,
      "postalCode": "14634",
      "city": "TULLINGE"
    },
    {
      "id": 3558,
      "postalCode": "14634",
      "city": "TULLINGE"
    },
    {
      "id": 3559,
      "postalCode": "14634",
      "city": "TULLINGE"
    },
    {
      "id": 3560,
      "postalCode": "14634",
      "city": "TULLINGE"
    },
    {
      "id": 3561,
      "postalCode": "14634",
      "city": "TULLINGE"
    },
    {
      "id": 3562,
      "postalCode": "14634",
      "city": "TULLINGE"
    },
    {
      "id": 3563,
      "postalCode": "14634",
      "city": "TULLINGE"
    },
    {
      "id": 3564,
      "postalCode": "14743",
      "city": "TUMBA"
    },
    {
      "id": 3565,
      "postalCode": "14743",
      "city": "TUMBA"
    },
    {
      "id": 3566,
      "postalCode": "14730",
      "city": "TUMBA"
    },
    {
      "id": 3567,
      "postalCode": "14571",
      "city": "NORSBORG"
    },
    {
      "id": 3568,
      "postalCode": "14574",
      "city": "NORSBORG"
    },
    {
      "id": 3570,
      "postalCode": "14630",
      "city": "TULLINGE"
    },
    {
      "id": 3571,
      "postalCode": "14753",
      "city": "TUMBA"
    },
    {
      "id": 3572,
      "postalCode": "14645",
      "city": "TULLINGE"
    },
    {
      "id": 3573,
      "postalCode": "14653",
      "city": "TULLINGE"
    },
    {
      "id": 3574,
      "postalCode": "14753",
      "city": "TUMBA"
    },
    {
      "id": 3575,
      "postalCode": "14733",
      "city": "TUMBA"
    },
    {
      "id": 3576,
      "postalCode": "14753",
      "city": "TUMBA"
    },
    {
      "id": 3577,
      "postalCode": "14631",
      "city": "TULLINGE"
    },
    {
      "id": 3578,
      "postalCode": "14646",
      "city": "TULLINGE"
    },
    {
      "id": 3579,
      "postalCode": "14755",
      "city": "TUMBA"
    },
    {
      "id": 3580,
      "postalCode": "14646",
      "city": "TULLINGE"
    },
    {
      "id": 3581,
      "postalCode": "14630",
      "city": "TULLINGE"
    },
    {
      "id": 3582,
      "postalCode": "14734",
      "city": "TUMBA"
    },
    {
      "id": 3584,
      "postalCode": "14630",
      "city": "TULLINGE"
    },
    {
      "id": 3585,
      "postalCode": "14762",
      "city": "UTTRAN"
    },
    {
      "id": 3587,
      "postalCode": "14755",
      "city": "TUMBA"
    },
    {
      "id": 3588,
      "postalCode": "14630",
      "city": "TULLINGE"
    },
    {
      "id": 3589,
      "postalCode": "14638",
      "city": "TULLINGE"
    },
    {
      "id": 3591,
      "postalCode": "14645",
      "city": "TULLINGE"
    },
    {
      "id": 3592,
      "postalCode": "14753",
      "city": "TUMBA"
    },
    {
      "id": 3593,
      "postalCode": "14631",
      "city": "TULLINGE"
    },
    {
      "id": 3594,
      "postalCode": "14645",
      "city": "TULLINGE"
    },
    {
      "id": 3595,
      "postalCode": "14563",
      "city": "NORSBORG"
    },
    {
      "id": 3596,
      "postalCode": "14754",
      "city": "TUMBA"
    },
    {
      "id": 3597,
      "postalCode": "14646",
      "city": "TULLINGE"
    },
    {
      "id": 3598,
      "postalCode": "14754",
      "city": "TUMBA"
    },
    {
      "id": 3599,
      "postalCode": "14755",
      "city": "TUMBA"
    },
    {
      "id": 3600,
      "postalCode": "14750",
      "city": "TUMBA"
    },
    {
      "id": 3601,
      "postalCode": "14556",
      "city": "NORSBORG"
    },
    {
      "id": 3602,
      "postalCode": "14556",
      "city": "NORSBORG"
    },
    {
      "id": 3605,
      "postalCode": "14556",
      "city": "NORSBORG"
    },
    {
      "id": 3606,
      "postalCode": "14556",
      "city": "NORSBORG"
    },
    {
      "id": 3607,
      "postalCode": "14556",
      "city": "NORSBORG"
    },
    {
      "id": 3608,
      "postalCode": "14556",
      "city": "NORSBORG"
    },
    {
      "id": 3609,
      "postalCode": "14557",
      "city": "NORSBORG"
    },
    {
      "id": 3610,
      "postalCode": "14559",
      "city": "NORSBORG"
    },
    {
      "id": 3611,
      "postalCode": "14559",
      "city": "NORSBORG"
    },
    {
      "id": 3612,
      "postalCode": "14557",
      "city": "NORSBORG"
    },
    {
      "id": 3614,
      "postalCode": "14560",
      "city": "NORSBORG"
    },
    {
      "id": 3615,
      "postalCode": "14560",
      "city": "NORSBORG"
    },
    {
      "id": 3616,
      "postalCode": "14560",
      "city": "NORSBORG"
    },
    {
      "id": 3617,
      "postalCode": "14560",
      "city": "NORSBORG"
    },
    {
      "id": 3618,
      "postalCode": "14560",
      "city": "NORSBORG"
    },
    {
      "id": 3620,
      "postalCode": "14560",
      "city": "NORSBORG"
    },
    {
      "id": 3621,
      "postalCode": "14560",
      "city": "NORSBORG"
    },
    {
      "id": 3622,
      "postalCode": "14560",
      "city": "NORSBORG"
    },
    {
      "id": 3623,
      "postalCode": "14558",
      "city": "NORSBORG"
    },
    {
      "id": 3624,
      "postalCode": "14558",
      "city": "NORSBORG"
    },
    {
      "id": 3627,
      "postalCode": "14556",
      "city": "NORSBORG"
    },
    {
      "id": 3628,
      "postalCode": "14556",
      "city": "NORSBORG"
    },
    {
      "id": 3629,
      "postalCode": "14556",
      "city": "NORSBORG"
    },
    {
      "id": 3630,
      "postalCode": "14556",
      "city": "NORSBORG"
    },
    {
      "id": 3631,
      "postalCode": "14556",
      "city": "NORSBORG"
    },
    {
      "id": 3632,
      "postalCode": "14556",
      "city": "NORSBORG"
    },
    {
      "id": 3633,
      "postalCode": "14556",
      "city": "NORSBORG"
    },
    {
      "id": 3634,
      "postalCode": "14556",
      "city": "NORSBORG"
    },
    {
      "id": 3635,
      "postalCode": "14556",
      "city": "NORSBORG"
    },
    {
      "id": 3636,
      "postalCode": "14556",
      "city": "NORSBORG"
    },
    {
      "id": 3637,
      "postalCode": "14556",
      "city": "NORSBORG"
    },
    {
      "id": 3638,
      "postalCode": "14556",
      "city": "NORSBORG"
    },
    {
      "id": 3639,
      "postalCode": "14556",
      "city": "NORSBORG"
    },
    {
      "id": 3640,
      "postalCode": "14556",
      "city": "NORSBORG"
    },
    {
      "id": 3641,
      "postalCode": "14556",
      "city": "NORSBORG"
    },
    {
      "id": 3642,
      "postalCode": "14556",
      "city": "NORSBORG"
    },
    {
      "id": 3643,
      "postalCode": "14560",
      "city": "NORSBORG"
    },
    {
      "id": 3644,
      "postalCode": "14557",
      "city": "NORSBORG"
    },
    {
      "id": 3645,
      "postalCode": "14590",
      "city": "NORSBORG"
    },
    {
      "id": 3646,
      "postalCode": "14590",
      "city": "NORSBORG"
    },
    {
      "id": 3647,
      "postalCode": "14590",
      "city": "NORSBORG"
    },
    {
      "id": 3648,
      "postalCode": "14590",
      "city": "NORSBORG"
    },
    {
      "id": 3649,
      "postalCode": "14590",
      "city": "NORSBORG"
    },
    {
      "id": 3650,
      "postalCode": "14560",
      "city": "NORSBORG"
    },
    {
      "id": 3651,
      "postalCode": "14590",
      "city": "NORSBORG"
    },
    {
      "id": 3652,
      "postalCode": "14590",
      "city": "NORSBORG"
    },
    {
      "id": 3653,
      "postalCode": "14590",
      "city": "NORSBORG"
    },
    {
      "id": 3654,
      "postalCode": "14590",
      "city": "NORSBORG"
    },
    {
      "id": 3655,
      "postalCode": "14590",
      "city": "NORSBORG"
    },
    {
      "id": 3656,
      "postalCode": "14590",
      "city": "NORSBORG"
    },
    {
      "id": 3657,
      "postalCode": "14590",
      "city": "NORSBORG"
    },
    {
      "id": 3658,
      "postalCode": "14590",
      "city": "NORSBORG"
    },
    {
      "id": 3659,
      "postalCode": "14571",
      "city": "NORSBORG"
    },
    {
      "id": 3660,
      "postalCode": "14565",
      "city": "NORSBORG"
    },
    {
      "id": 3661,
      "postalCode": "14565",
      "city": "NORSBORG"
    },
    {
      "id": 3662,
      "postalCode": "14565",
      "city": "NORSBORG"
    },
    {
      "id": 3663,
      "postalCode": "14565",
      "city": "NORSBORG"
    },
    {
      "id": 3664,
      "postalCode": "14590",
      "city": "NORSBORG"
    },
    {
      "id": 3665,
      "postalCode": "14590",
      "city": "NORSBORG"
    },
    {
      "id": 3666,
      "postalCode": "14565",
      "city": "NORSBORG"
    },
    {
      "id": 3667,
      "postalCode": "14565",
      "city": "NORSBORG"
    },
    {
      "id": 3668,
      "postalCode": "14564",
      "city": "NORSBORG"
    },
    {
      "id": 3669,
      "postalCode": "14564",
      "city": "NORSBORG"
    },
    {
      "id": 3671,
      "postalCode": "14565",
      "city": "NORSBORG"
    },
    {
      "id": 3674,
      "postalCode": "14563",
      "city": "NORSBORG"
    },
    {
      "id": 3675,
      "postalCode": "14563",
      "city": "NORSBORG"
    },
    {
      "id": 3677,
      "postalCode": "14563",
      "city": "NORSBORG"
    },
    {
      "id": 3678,
      "postalCode": "14563",
      "city": "NORSBORG"
    },
    {
      "id": 3679,
      "postalCode": "14565",
      "city": "NORSBORG"
    },
    {
      "id": 3680,
      "postalCode": "14565",
      "city": "NORSBORG"
    },
    {
      "id": 3681,
      "postalCode": "14565",
      "city": "NORSBORG"
    },
    {
      "id": 3682,
      "postalCode": "14590",
      "city": "NORSBORG"
    },
    {
      "id": 3683,
      "postalCode": "14565",
      "city": "NORSBORG"
    },
    {
      "id": 3684,
      "postalCode": "14590",
      "city": "NORSBORG"
    },
    {
      "id": 3685,
      "postalCode": "14590",
      "city": "NORSBORG"
    },
    {
      "id": 3686,
      "postalCode": "14590",
      "city": "NORSBORG"
    },
    {
      "id": 3687,
      "postalCode": "14563",
      "city": "NORSBORG"
    },
    {
      "id": 3690,
      "postalCode": "14564",
      "city": "NORSBORG"
    },
    {
      "id": 3691,
      "postalCode": "14564",
      "city": "NORSBORG"
    },
    {
      "id": 3692,
      "postalCode": "14564",
      "city": "NORSBORG"
    },
    {
      "id": 3693,
      "postalCode": "14551",
      "city": "NORSBORG"
    },
    {
      "id": 3694,
      "postalCode": "14553",
      "city": "NORSBORG"
    },
    {
      "id": 3696,
      "postalCode": "14553",
      "city": "NORSBORG"
    },
    {
      "id": 3697,
      "postalCode": "14552",
      "city": "NORSBORG"
    },
    {
      "id": 3698,
      "postalCode": "14552",
      "city": "NORSBORG"
    },
    {
      "id": 3699,
      "postalCode": "14552",
      "city": "NORSBORG"
    },
    {
      "id": 3700,
      "postalCode": "14552",
      "city": "NORSBORG"
    },
    {
      "id": 3701,
      "postalCode": "14552",
      "city": "NORSBORG"
    },
    {
      "id": 3702,
      "postalCode": "14552",
      "city": "NORSBORG"
    },
    {
      "id": 3703,
      "postalCode": "14552",
      "city": "NORSBORG"
    },
    {
      "id": 3704,
      "postalCode": "14552",
      "city": "NORSBORG"
    },
    {
      "id": 3705,
      "postalCode": "14552",
      "city": "NORSBORG"
    },
    {
      "id": 3706,
      "postalCode": "14552",
      "city": "NORSBORG"
    },
    {
      "id": 3707,
      "postalCode": "14552",
      "city": "NORSBORG"
    },
    {
      "id": 3708,
      "postalCode": "14552",
      "city": "NORSBORG"
    },
    {
      "id": 3709,
      "postalCode": "14552",
      "city": "NORSBORG"
    },
    {
      "id": 3710,
      "postalCode": "14552",
      "city": "NORSBORG"
    },
    {
      "id": 3711,
      "postalCode": "14552",
      "city": "NORSBORG"
    },
    {
      "id": 3712,
      "postalCode": "14552",
      "city": "NORSBORG"
    },
    {
      "id": 3713,
      "postalCode": "14550",
      "city": "NORSBORG"
    },
    {
      "id": 3714,
      "postalCode": "14550",
      "city": "NORSBORG"
    },
    {
      "id": 3715,
      "postalCode": "14550",
      "city": "NORSBORG"
    },
    {
      "id": 3716,
      "postalCode": "14550",
      "city": "NORSBORG"
    },
    {
      "id": 3717,
      "postalCode": "14550",
      "city": "NORSBORG"
    },
    {
      "id": 3718,
      "postalCode": "14550",
      "city": "NORSBORG"
    },
    {
      "id": 3719,
      "postalCode": "14550",
      "city": "NORSBORG"
    },
    {
      "id": 3720,
      "postalCode": "14550",
      "city": "NORSBORG"
    },
    {
      "id": 3721,
      "postalCode": "14550",
      "city": "NORSBORG"
    },
    {
      "id": 3722,
      "postalCode": "14550",
      "city": "NORSBORG"
    },
    {
      "id": 3723,
      "postalCode": "14550",
      "city": "NORSBORG"
    },
    {
      "id": 3724,
      "postalCode": "14550",
      "city": "NORSBORG"
    },
    {
      "id": 3727,
      "postalCode": "14550",
      "city": "NORSBORG"
    },
    {
      "id": 3728,
      "postalCode": "14550",
      "city": "NORSBORG"
    },
    {
      "id": 3729,
      "postalCode": "14550",
      "city": "NORSBORG"
    },
    {
      "id": 3730,
      "postalCode": "14550",
      "city": "NORSBORG"
    },
    {
      "id": 3731,
      "postalCode": "14792",
      "city": "GRÖDINGE"
    },
    {
      "id": 3732,
      "postalCode": "14792",
      "city": "GRÖDINGE"
    },
    {
      "id": 3734,
      "postalCode": "14792",
      "city": "GRÖDINGE"
    },
    {
      "id": 3735,
      "postalCode": "14792",
      "city": "GRÖDINGE"
    },
    {
      "id": 3736,
      "postalCode": "14792",
      "city": "GRÖDINGE"
    },
    {
      "id": 3737,
      "postalCode": "14792",
      "city": "GRÖDINGE"
    },
    {
      "id": 3738,
      "postalCode": "14792",
      "city": "GRÖDINGE"
    },
    {
      "id": 3739,
      "postalCode": "14792",
      "city": "GRÖDINGE"
    },
    {
      "id": 3740,
      "postalCode": "14791",
      "city": "GRÖDINGE"
    },
    {
      "id": 3741,
      "postalCode": "14791",
      "city": "GRÖDINGE"
    },
    {
      "id": 3742,
      "postalCode": "14791",
      "city": "GRÖDINGE"
    },
    {
      "id": 3743,
      "postalCode": "14791",
      "city": "GRÖDINGE"
    },
    {
      "id": 3744,
      "postalCode": "14791",
      "city": "GRÖDINGE"
    },
    {
      "id": 3745,
      "postalCode": "14791",
      "city": "GRÖDINGE"
    },
    {
      "id": 3746,
      "postalCode": "14791",
      "city": "GRÖDINGE"
    },
    {
      "id": 3747,
      "postalCode": "14791",
      "city": "GRÖDINGE"
    },
    {
      "id": 3748,
      "postalCode": "14791",
      "city": "GRÖDINGE"
    },
    {
      "id": 3749,
      "postalCode": "14791",
      "city": "GRÖDINGE"
    },
    {
      "id": 3750,
      "postalCode": "14791",
      "city": "GRÖDINGE"
    },
    {
      "id": 3751,
      "postalCode": "14791",
      "city": "GRÖDINGE"
    },
    {
      "id": 3752,
      "postalCode": "14791",
      "city": "GRÖDINGE"
    },
    {
      "id": 3762,
      "postalCode": "14792",
      "city": "GRÖDINGE"
    },
    {
      "id": 3763,
      "postalCode": "14792",
      "city": "GRÖDINGE"
    },
    {
      "id": 3764,
      "postalCode": "14791",
      "city": "GRÖDINGE"
    },
    {
      "id": 3765,
      "postalCode": "14791",
      "city": "GRÖDINGE"
    },
    {
      "id": 3768,
      "postalCode": "14572",
      "city": "NORSBORG"
    },
    {
      "id": 3770,
      "postalCode": "14572",
      "city": "NORSBORG"
    },
    {
      "id": 3771,
      "postalCode": "14572",
      "city": "NORSBORG"
    },
    {
      "id": 3772,
      "postalCode": "14572",
      "city": "NORSBORG"
    },
    {
      "id": 3773,
      "postalCode": "14572",
      "city": "NORSBORG"
    },
    {
      "id": 3775,
      "postalCode": "14573",
      "city": "NORSBORG"
    },
    {
      "id": 3776,
      "postalCode": "14568",
      "city": "NORSBORG"
    },
    {
      "id": 3778,
      "postalCode": "14567",
      "city": "NORSBORG"
    },
    {
      "id": 3779,
      "postalCode": "14574",
      "city": "NORSBORG"
    },
    {
      "id": 3781,
      "postalCode": "14573",
      "city": "NORSBORG"
    },
    {
      "id": 3782,
      "postalCode": "14573",
      "city": "NORSBORG"
    },
    {
      "id": 3783,
      "postalCode": "14574",
      "city": "NORSBORG"
    },
    {
      "id": 3784,
      "postalCode": "14574",
      "city": "NORSBORG"
    },
    {
      "id": 3785,
      "postalCode": "14574",
      "city": "NORSBORG"
    },
    {
      "id": 3786,
      "postalCode": "14567",
      "city": "NORSBORG"
    },
    {
      "id": 3787,
      "postalCode": "14567",
      "city": "NORSBORG"
    },
    {
      "id": 3788,
      "postalCode": "14574",
      "city": "NORSBORG"
    },
    {
      "id": 3789,
      "postalCode": "14573",
      "city": "NORSBORG"
    },
    {
      "id": 3790,
      "postalCode": "14573",
      "city": "NORSBORG"
    },
    {
      "id": 3791,
      "postalCode": "14574",
      "city": "NORSBORG"
    },
    {
      "id": 3792,
      "postalCode": "14574",
      "city": "NORSBORG"
    },
    {
      "id": 3793,
      "postalCode": "14574",
      "city": "NORSBORG"
    },
    {
      "id": 3794,
      "postalCode": "14574",
      "city": "NORSBORG"
    },
    {
      "id": 3795,
      "postalCode": "14573",
      "city": "NORSBORG"
    },
    {
      "id": 3798,
      "postalCode": "14568",
      "city": "NORSBORG"
    },
    {
      "id": 3799,
      "postalCode": "14568",
      "city": "NORSBORG"
    },
    {
      "id": 3800,
      "postalCode": "14568",
      "city": "NORSBORG"
    },
    {
      "id": 3801,
      "postalCode": "14568",
      "city": "NORSBORG"
    },
    {
      "id": 3804,
      "postalCode": "14573",
      "city": "NORSBORG"
    },
    {
      "id": 3805,
      "postalCode": "14590",
      "city": "NORSBORG"
    },
    {
      "id": 3806,
      "postalCode": "14590",
      "city": "NORSBORG"
    },
    {
      "id": 3807,
      "postalCode": "14590",
      "city": "NORSBORG"
    },
    {
      "id": 3808,
      "postalCode": "14590",
      "city": "NORSBORG"
    },
    {
      "id": 3809,
      "postalCode": "14590",
      "city": "NORSBORG"
    },
    {
      "id": 3812,
      "postalCode": "14590",
      "city": "NORSBORG"
    },
    {
      "id": 3813,
      "postalCode": "14590",
      "city": "NORSBORG"
    },
    {
      "id": 3814,
      "postalCode": "14590",
      "city": "NORSBORG"
    },
    {
      "id": 3815,
      "postalCode": "14590",
      "city": "NORSBORG"
    },
    {
      "id": 3816,
      "postalCode": "14590",
      "city": "NORSBORG"
    },
    {
      "id": 3817,
      "postalCode": "14590",
      "city": "NORSBORG"
    },
    {
      "id": 3818,
      "postalCode": "14590",
      "city": "NORSBORG"
    },
    {
      "id": 3819,
      "postalCode": "14590",
      "city": "NORSBORG"
    },
    {
      "id": 3821,
      "postalCode": "14590",
      "city": "NORSBORG"
    },
    {
      "id": 3822,
      "postalCode": "14590",
      "city": "NORSBORG"
    },
    {
      "id": 3823,
      "postalCode": "14590",
      "city": "NORSBORG"
    },
    {
      "id": 3824,
      "postalCode": "14590",
      "city": "NORSBORG"
    },
    {
      "id": 3825,
      "postalCode": "14590",
      "city": "NORSBORG"
    },
    {
      "id": 3826,
      "postalCode": "14590",
      "city": "NORSBORG"
    },
    {
      "id": 3827,
      "postalCode": "14590",
      "city": "NORSBORG"
    },
    {
      "id": 3828,
      "postalCode": "14590",
      "city": "NORSBORG"
    },
    {
      "id": 3829,
      "postalCode": "14590",
      "city": "NORSBORG"
    },
    {
      "id": 3830,
      "postalCode": "14590",
      "city": "NORSBORG"
    },
    {
      "id": 3831,
      "postalCode": "14590",
      "city": "NORSBORG"
    },
    {
      "id": 3832,
      "postalCode": "14572",
      "city": "NORSBORG"
    },
    {
      "id": 3833,
      "postalCode": "14572",
      "city": "NORSBORG"
    },
    {
      "id": 3835,
      "postalCode": "14563",
      "city": "NORSBORG"
    },
    {
      "id": 3836,
      "postalCode": "14564",
      "city": "NORSBORG"
    },
    {
      "id": 3837,
      "postalCode": "14570",
      "city": "NORSBORG"
    },
    {
      "id": 3838,
      "postalCode": "14570",
      "city": "NORSBORG"
    },
    {
      "id": 3839,
      "postalCode": "14572",
      "city": "NORSBORG"
    },
    {
      "id": 3840,
      "postalCode": "14572",
      "city": "NORSBORG"
    },
    {
      "id": 3841,
      "postalCode": "14572",
      "city": "NORSBORG"
    },
    {
      "id": 3842,
      "postalCode": "14572",
      "city": "NORSBORG"
    },
    {
      "id": 3843,
      "postalCode": "14590",
      "city": "NORSBORG"
    },
    {
      "id": 3844,
      "postalCode": "14590",
      "city": "NORSBORG"
    },
    {
      "id": 3845,
      "postalCode": "14590",
      "city": "NORSBORG"
    },
    {
      "id": 3846,
      "postalCode": "14576",
      "city": "NORSBORG"
    },
    {
      "id": 3847,
      "postalCode": "14576",
      "city": "NORSBORG"
    },
    {
      "id": 3848,
      "postalCode": "14634",
      "city": "TULLINGE"
    },
    {
      "id": 3849,
      "postalCode": "14637",
      "city": "TULLINGE"
    },
    {
      "id": 3850,
      "postalCode": "14637",
      "city": "TULLINGE"
    },
    {
      "id": 3851,
      "postalCode": "14637",
      "city": "TULLINGE"
    },
    {
      "id": 3852,
      "postalCode": "14637",
      "city": "TULLINGE"
    },
    {
      "id": 3853,
      "postalCode": "14634",
      "city": "TULLINGE"
    },
    {
      "id": 3854,
      "postalCode": "14634",
      "city": "TULLINGE"
    },
    {
      "id": 3855,
      "postalCode": "14634",
      "city": "TULLINGE"
    },
    {
      "id": 3856,
      "postalCode": "14634",
      "city": "TULLINGE"
    },
    {
      "id": 3857,
      "postalCode": "14634",
      "city": "TULLINGE"
    },
    {
      "id": 3858,
      "postalCode": "14634",
      "city": "TULLINGE"
    },
    {
      "id": 3859,
      "postalCode": "14634",
      "city": "TULLINGE"
    },
    {
      "id": 3860,
      "postalCode": "14634",
      "city": "TULLINGE"
    },
    {
      "id": 3861,
      "postalCode": "14634",
      "city": "TULLINGE"
    },
    {
      "id": 3862,
      "postalCode": "14634",
      "city": "TULLINGE"
    },
    {
      "id": 3863,
      "postalCode": "14634",
      "city": "TULLINGE"
    },
    {
      "id": 3864,
      "postalCode": "14634",
      "city": "TULLINGE"
    },
    {
      "id": 3865,
      "postalCode": "14634",
      "city": "TULLINGE"
    },
    {
      "id": 3866,
      "postalCode": "14634",
      "city": "TULLINGE"
    },
    {
      "id": 3867,
      "postalCode": "14634",
      "city": "TULLINGE"
    },
    {
      "id": 3868,
      "postalCode": "14634",
      "city": "TULLINGE"
    },
    {
      "id": 3869,
      "postalCode": "14634",
      "city": "TULLINGE"
    },
    {
      "id": 3870,
      "postalCode": "14634",
      "city": "TULLINGE"
    },
    {
      "id": 3871,
      "postalCode": "14634",
      "city": "TULLINGE"
    },
    {
      "id": 3872,
      "postalCode": "14634",
      "city": "TULLINGE"
    },
    {
      "id": 3873,
      "postalCode": "14634",
      "city": "TULLINGE"
    },
    {
      "id": 3874,
      "postalCode": "14634",
      "city": "TULLINGE"
    },
    {
      "id": 3875,
      "postalCode": "14634",
      "city": "TULLINGE"
    },
    {
      "id": 3876,
      "postalCode": "14634",
      "city": "TULLINGE"
    },
    {
      "id": 3877,
      "postalCode": "14634",
      "city": "TULLINGE"
    },
    {
      "id": 3878,
      "postalCode": "14634",
      "city": "TULLINGE"
    },
    {
      "id": 3879,
      "postalCode": "14634",
      "city": "TULLINGE"
    },
    {
      "id": 3880,
      "postalCode": "14634",
      "city": "TULLINGE"
    },
    {
      "id": 3881,
      "postalCode": "14634",
      "city": "TULLINGE"
    },
    {
      "id": 3882,
      "postalCode": "14634",
      "city": "TULLINGE"
    },
    {
      "id": 3883,
      "postalCode": "14634",
      "city": "TULLINGE"
    },
    {
      "id": 3884,
      "postalCode": "14637",
      "city": "TULLINGE"
    },
    {
      "id": 3885,
      "postalCode": "14637",
      "city": "TULLINGE"
    },
    {
      "id": 3886,
      "postalCode": "14637",
      "city": "TULLINGE"
    },
    {
      "id": 3887,
      "postalCode": "14637",
      "city": "TULLINGE"
    },
    {
      "id": 3888,
      "postalCode": "14637",
      "city": "TULLINGE"
    },
    {
      "id": 3889,
      "postalCode": "14637",
      "city": "TULLINGE"
    },
    {
      "id": 3891,
      "postalCode": "14634",
      "city": "TULLINGE"
    },
    {
      "id": 3892,
      "postalCode": "14634",
      "city": "TULLINGE"
    },
    {
      "id": 3893,
      "postalCode": "14634",
      "city": "TULLINGE"
    },
    {
      "id": 3894,
      "postalCode": "14634",
      "city": "TULLINGE"
    },
    {
      "id": 3895,
      "postalCode": "14637",
      "city": "TULLINGE"
    },
    {
      "id": 3896,
      "postalCode": "14637",
      "city": "TULLINGE"
    },
    {
      "id": 3897,
      "postalCode": "14637",
      "city": "TULLINGE"
    },
    {
      "id": 3898,
      "postalCode": "14637",
      "city": "TULLINGE"
    },
    {
      "id": 3899,
      "postalCode": "14634",
      "city": "TULLINGE"
    },
    {
      "id": 3900,
      "postalCode": "14634",
      "city": "TULLINGE"
    },
    {
      "id": 3901,
      "postalCode": "14634",
      "city": "TULLINGE"
    },
    {
      "id": 3902,
      "postalCode": "14634",
      "city": "TULLINGE"
    },
    {
      "id": 3903,
      "postalCode": "14636",
      "city": "TULLINGE"
    },
    {
      "id": 3904,
      "postalCode": "14634",
      "city": "TULLINGE"
    },
    {
      "id": 3905,
      "postalCode": "14634",
      "city": "TULLINGE"
    },
    {
      "id": 3906,
      "postalCode": "14634",
      "city": "TULLINGE"
    },
    {
      "id": 3907,
      "postalCode": "14634",
      "city": "TULLINGE"
    },
    {
      "id": 3908,
      "postalCode": "14634",
      "city": "TULLINGE"
    },
    {
      "id": 3909,
      "postalCode": "14634",
      "city": "TULLINGE"
    },
    {
      "id": 3910,
      "postalCode": "14634",
      "city": "TULLINGE"
    },
    {
      "id": 3911,
      "postalCode": "14634",
      "city": "TULLINGE"
    },
    {
      "id": 3912,
      "postalCode": "14634",
      "city": "TULLINGE"
    },
    {
      "id": 3913,
      "postalCode": "14634",
      "city": "TULLINGE"
    },
    {
      "id": 3914,
      "postalCode": "14634",
      "city": "TULLINGE"
    },
    {
      "id": 3915,
      "postalCode": "14792",
      "city": "GRÖDINGE"
    },
    {
      "id": 3916,
      "postalCode": "14654",
      "city": "TULLINGE"
    },
    {
      "id": 3917,
      "postalCode": "14654",
      "city": "TULLINGE"
    },
    {
      "id": 3918,
      "postalCode": "14653",
      "city": "TULLINGE"
    },
    {
      "id": 3919,
      "postalCode": "14653",
      "city": "TULLINGE"
    },
    {
      "id": 3920,
      "postalCode": "14654",
      "city": "TULLINGE"
    },
    {
      "id": 3921,
      "postalCode": "14630",
      "city": "TULLINGE"
    },
    {
      "id": 3922,
      "postalCode": "14648",
      "city": "TULLINGE"
    },
    {
      "id": 3923,
      "postalCode": "14648",
      "city": "TULLINGE"
    },
    {
      "id": 3924,
      "postalCode": "14652",
      "city": "TULLINGE"
    },
    {
      "id": 3925,
      "postalCode": "14652",
      "city": "TULLINGE"
    },
    {
      "id": 3926,
      "postalCode": "14652",
      "city": "TULLINGE"
    },
    {
      "id": 3927,
      "postalCode": "14652",
      "city": "TULLINGE"
    },
    {
      "id": 3928,
      "postalCode": "14652",
      "city": "TULLINGE"
    },
    {
      "id": 3929,
      "postalCode": "14652",
      "city": "TULLINGE"
    },
    {
      "id": 3930,
      "postalCode": "14652",
      "city": "TULLINGE"
    },
    {
      "id": 3931,
      "postalCode": "14652",
      "city": "TULLINGE"
    },
    {
      "id": 3932,
      "postalCode": "14650",
      "city": "TULLINGE"
    },
    {
      "id": 3933,
      "postalCode": "14650",
      "city": "TULLINGE"
    },
    {
      "id": 3934,
      "postalCode": "14650",
      "city": "TULLINGE"
    },
    {
      "id": 3935,
      "postalCode": "14650",
      "city": "TULLINGE"
    },
    {
      "id": 3936,
      "postalCode": "14653",
      "city": "TULLINGE"
    },
    {
      "id": 3937,
      "postalCode": "14653",
      "city": "TULLINGE"
    },
    {
      "id": 3938,
      "postalCode": "14653",
      "city": "TULLINGE"
    },
    {
      "id": 3939,
      "postalCode": "14648",
      "city": "TULLINGE"
    },
    {
      "id": 3940,
      "postalCode": "14648",
      "city": "TULLINGE"
    },
    {
      "id": 3941,
      "postalCode": "14648",
      "city": "TULLINGE"
    },
    {
      "id": 3942,
      "postalCode": "14648",
      "city": "TULLINGE"
    },
    {
      "id": 3943,
      "postalCode": "14652",
      "city": "TULLINGE"
    },
    {
      "id": 3944,
      "postalCode": "14652",
      "city": "TULLINGE"
    },
    {
      "id": 3945,
      "postalCode": "14652",
      "city": "TULLINGE"
    },
    {
      "id": 3946,
      "postalCode": "14652",
      "city": "TULLINGE"
    },
    {
      "id": 3947,
      "postalCode": "14652",
      "city": "TULLINGE"
    },
    {
      "id": 3948,
      "postalCode": "14652",
      "city": "TULLINGE"
    },
    {
      "id": 3949,
      "postalCode": "14652",
      "city": "TULLINGE"
    },
    {
      "id": 3950,
      "postalCode": "14650",
      "city": "TULLINGE"
    },
    {
      "id": 3951,
      "postalCode": "14650",
      "city": "TULLINGE"
    },
    {
      "id": 3952,
      "postalCode": "14648",
      "city": "TULLINGE"
    },
    {
      "id": 3953,
      "postalCode": "14648",
      "city": "TULLINGE"
    },
    {
      "id": 3954,
      "postalCode": "14650",
      "city": "TULLINGE"
    },
    {
      "id": 3955,
      "postalCode": "14650",
      "city": "TULLINGE"
    },
    {
      "id": 3956,
      "postalCode": "14650",
      "city": "TULLINGE"
    },
    {
      "id": 3957,
      "postalCode": "14650",
      "city": "TULLINGE"
    },
    {
      "id": 3958,
      "postalCode": "14648",
      "city": "TULLINGE"
    },
    {
      "id": 3959,
      "postalCode": "14650",
      "city": "TULLINGE"
    },
    {
      "id": 3960,
      "postalCode": "14650",
      "city": "TULLINGE"
    },
    {
      "id": 3961,
      "postalCode": "14650",
      "city": "TULLINGE"
    },
    {
      "id": 3962,
      "postalCode": "14648",
      "city": "TULLINGE"
    },
    {
      "id": 3963,
      "postalCode": "14640",
      "city": "TULLINGE"
    },
    {
      "id": 3964,
      "postalCode": "14640",
      "city": "TULLINGE"
    },
    {
      "id": 3965,
      "postalCode": "14640",
      "city": "TULLINGE"
    },
    {
      "id": 3966,
      "postalCode": "14640",
      "city": "TULLINGE"
    },
    {
      "id": 3967,
      "postalCode": "14650",
      "city": "TULLINGE"
    },
    {
      "id": 3968,
      "postalCode": "14650",
      "city": "TULLINGE"
    },
    {
      "id": 3969,
      "postalCode": "14646",
      "city": "TULLINGE"
    },
    {
      "id": 3970,
      "postalCode": "14650",
      "city": "TULLINGE"
    },
    {
      "id": 3971,
      "postalCode": "14650",
      "city": "TULLINGE"
    },
    {
      "id": 3972,
      "postalCode": "14650",
      "city": "TULLINGE"
    },
    {
      "id": 3973,
      "postalCode": "14650",
      "city": "TULLINGE"
    },
    {
      "id": 3974,
      "postalCode": "14650",
      "city": "TULLINGE"
    },
    {
      "id": 3975,
      "postalCode": "14650",
      "city": "TULLINGE"
    },
    {
      "id": 3976,
      "postalCode": "14650",
      "city": "TULLINGE"
    },
    {
      "id": 3977,
      "postalCode": "14640",
      "city": "TULLINGE"
    },
    {
      "id": 3978,
      "postalCode": "14640",
      "city": "TULLINGE"
    },
    {
      "id": 3979,
      "postalCode": "14630",
      "city": "TULLINGE"
    },
    {
      "id": 3981,
      "postalCode": "14630",
      "city": "TULLINGE"
    },
    {
      "id": 3982,
      "postalCode": "14640",
      "city": "TULLINGE"
    },
    {
      "id": 3983,
      "postalCode": "14640",
      "city": "TULLINGE"
    },
    {
      "id": 3984,
      "postalCode": "14640",
      "city": "TULLINGE"
    },
    {
      "id": 3985,
      "postalCode": "14640",
      "city": "TULLINGE"
    },
    {
      "id": 3986,
      "postalCode": "14640",
      "city": "TULLINGE"
    },
    {
      "id": 3987,
      "postalCode": "14640",
      "city": "TULLINGE"
    },
    {
      "id": 3988,
      "postalCode": "14654",
      "city": "TULLINGE"
    },
    {
      "id": 3989,
      "postalCode": "14648",
      "city": "TULLINGE"
    },
    {
      "id": 3990,
      "postalCode": "14648",
      "city": "TULLINGE"
    },
    {
      "id": 3991,
      "postalCode": "14648",
      "city": "TULLINGE"
    },
    {
      "id": 3992,
      "postalCode": "14640",
      "city": "TULLINGE"
    },
    {
      "id": 3993,
      "postalCode": "14640",
      "city": "TULLINGE"
    },
    {
      "id": 3994,
      "postalCode": "14640",
      "city": "TULLINGE"
    },
    {
      "id": 3995,
      "postalCode": "14640",
      "city": "TULLINGE"
    },
    {
      "id": 3996,
      "postalCode": "14640",
      "city": "TULLINGE"
    },
    {
      "id": 3997,
      "postalCode": "14640",
      "city": "TULLINGE"
    },
    {
      "id": 3998,
      "postalCode": "14640",
      "city": "TULLINGE"
    },
    {
      "id": 3999,
      "postalCode": "14640",
      "city": "TULLINGE"
    },
    {
      "id": 4000,
      "postalCode": "14640",
      "city": "TULLINGE"
    },
    {
      "id": 4001,
      "postalCode": "14640",
      "city": "TULLINGE"
    },
    {
      "id": 4002,
      "postalCode": "14640",
      "city": "TULLINGE"
    },
    {
      "id": 4003,
      "postalCode": "14650",
      "city": "TULLINGE"
    },
    {
      "id": 4004,
      "postalCode": "14650",
      "city": "TULLINGE"
    },
    {
      "id": 4005,
      "postalCode": "14650",
      "city": "TULLINGE"
    },
    {
      "id": 4006,
      "postalCode": "14640",
      "city": "TULLINGE"
    },
    {
      "id": 4007,
      "postalCode": "14640",
      "city": "TULLINGE"
    },
    {
      "id": 4008,
      "postalCode": "14640",
      "city": "TULLINGE"
    },
    {
      "id": 4009,
      "postalCode": "14640",
      "city": "TULLINGE"
    },
    {
      "id": 4010,
      "postalCode": "14640",
      "city": "TULLINGE"
    },
    {
      "id": 4011,
      "postalCode": "14640",
      "city": "TULLINGE"
    },
    {
      "id": 4012,
      "postalCode": "14640",
      "city": "TULLINGE"
    },
    {
      "id": 4013,
      "postalCode": "14641",
      "city": "TULLINGE"
    },
    {
      "id": 4014,
      "postalCode": "14641",
      "city": "TULLINGE"
    },
    {
      "id": 4016,
      "postalCode": "14638",
      "city": "TULLINGE"
    },
    {
      "id": 4017,
      "postalCode": "14638",
      "city": "TULLINGE"
    },
    {
      "id": 4018,
      "postalCode": "14638",
      "city": "TULLINGE"
    },
    {
      "id": 4019,
      "postalCode": "14638",
      "city": "TULLINGE"
    },
    {
      "id": 4020,
      "postalCode": "14641",
      "city": "TULLINGE"
    },
    {
      "id": 4021,
      "postalCode": "14652",
      "city": "TULLINGE"
    },
    {
      "id": 4022,
      "postalCode": "14652",
      "city": "TULLINGE"
    },
    {
      "id": 4023,
      "postalCode": "14654",
      "city": "TULLINGE"
    },
    {
      "id": 4024,
      "postalCode": "14638",
      "city": "TULLINGE"
    },
    {
      "id": 4025,
      "postalCode": "14638",
      "city": "TULLINGE"
    },
    {
      "id": 4026,
      "postalCode": "14638",
      "city": "TULLINGE"
    },
    {
      "id": 4027,
      "postalCode": "14648",
      "city": "TULLINGE"
    },
    {
      "id": 4028,
      "postalCode": "14648",
      "city": "TULLINGE"
    },
    {
      "id": 4029,
      "postalCode": "14649",
      "city": "TULLINGE"
    },
    {
      "id": 4030,
      "postalCode": "14649",
      "city": "TULLINGE"
    },
    {
      "id": 4031,
      "postalCode": "14649",
      "city": "TULLINGE"
    },
    {
      "id": 4032,
      "postalCode": "14649",
      "city": "TULLINGE"
    },
    {
      "id": 4033,
      "postalCode": "14649",
      "city": "TULLINGE"
    },
    {
      "id": 4034,
      "postalCode": "14649",
      "city": "TULLINGE"
    },
    {
      "id": 4035,
      "postalCode": "14649",
      "city": "TULLINGE"
    },
    {
      "id": 4036,
      "postalCode": "14649",
      "city": "TULLINGE"
    },
    {
      "id": 4037,
      "postalCode": "14649",
      "city": "TULLINGE"
    },
    {
      "id": 4038,
      "postalCode": "14649",
      "city": "TULLINGE"
    },
    {
      "id": 4039,
      "postalCode": "14649",
      "city": "TULLINGE"
    },
    {
      "id": 4040,
      "postalCode": "14650",
      "city": "TULLINGE"
    },
    {
      "id": 4041,
      "postalCode": "14650",
      "city": "TULLINGE"
    },
    {
      "id": 4042,
      "postalCode": "14650",
      "city": "TULLINGE"
    },
    {
      "id": 4043,
      "postalCode": "14650",
      "city": "TULLINGE"
    },
    {
      "id": 4044,
      "postalCode": "14650",
      "city": "TULLINGE"
    },
    {
      "id": 4045,
      "postalCode": "14650",
      "city": "TULLINGE"
    },
    {
      "id": 4046,
      "postalCode": "14650",
      "city": "TULLINGE"
    },
    {
      "id": 4048,
      "postalCode": "14648",
      "city": "TULLINGE"
    },
    {
      "id": 4049,
      "postalCode": "14648",
      "city": "TULLINGE"
    },
    {
      "id": 4050,
      "postalCode": "14654",
      "city": "TULLINGE"
    },
    {
      "id": 4051,
      "postalCode": "14654",
      "city": "TULLINGE"
    },
    {
      "id": 4052,
      "postalCode": "14654",
      "city": "TULLINGE"
    },
    {
      "id": 4053,
      "postalCode": "14654",
      "city": "TULLINGE"
    },
    {
      "id": 4054,
      "postalCode": "14650",
      "city": "TULLINGE"
    },
    {
      "id": 4055,
      "postalCode": "14650",
      "city": "TULLINGE"
    },
    {
      "id": 4056,
      "postalCode": "14650",
      "city": "TULLINGE"
    },
    {
      "id": 4057,
      "postalCode": "14650",
      "city": "TULLINGE"
    },
    {
      "id": 4058,
      "postalCode": "14650",
      "city": "TULLINGE"
    },
    {
      "id": 4059,
      "postalCode": "14648",
      "city": "TULLINGE"
    },
    {
      "id": 4060,
      "postalCode": "14653",
      "city": "TULLINGE"
    },
    {
      "id": 4061,
      "postalCode": "14653",
      "city": "TULLINGE"
    },
    {
      "id": 4062,
      "postalCode": "14653",
      "city": "TULLINGE"
    },
    {
      "id": 4063,
      "postalCode": "14654",
      "city": "TULLINGE"
    },
    {
      "id": 4064,
      "postalCode": "14654",
      "city": "TULLINGE"
    },
    {
      "id": 4065,
      "postalCode": "14650",
      "city": "TULLINGE"
    },
    {
      "id": 4066,
      "postalCode": "14650",
      "city": "TULLINGE"
    },
    {
      "id": 4067,
      "postalCode": "14650",
      "city": "TULLINGE"
    },
    {
      "id": 4068,
      "postalCode": "14650",
      "city": "TULLINGE"
    },
    {
      "id": 4069,
      "postalCode": "14650",
      "city": "TULLINGE"
    },
    {
      "id": 4070,
      "postalCode": "14650",
      "city": "TULLINGE"
    },
    {
      "id": 4071,
      "postalCode": "14652",
      "city": "TULLINGE"
    },
    {
      "id": 4072,
      "postalCode": "14652",
      "city": "TULLINGE"
    },
    {
      "id": 4073,
      "postalCode": "14652",
      "city": "TULLINGE"
    },
    {
      "id": 4074,
      "postalCode": "14652",
      "city": "TULLINGE"
    },
    {
      "id": 4075,
      "postalCode": "14652",
      "city": "TULLINGE"
    },
    {
      "id": 4076,
      "postalCode": "14652",
      "city": "TULLINGE"
    },
    {
      "id": 4077,
      "postalCode": "14652",
      "city": "TULLINGE"
    },
    {
      "id": 4078,
      "postalCode": "14652",
      "city": "TULLINGE"
    },
    {
      "id": 4079,
      "postalCode": "14648",
      "city": "TULLINGE"
    },
    {
      "id": 4080,
      "postalCode": "14648",
      "city": "TULLINGE"
    },
    {
      "id": 4081,
      "postalCode": "14648",
      "city": "TULLINGE"
    },
    {
      "id": 4082,
      "postalCode": "14650",
      "city": "TULLINGE"
    },
    {
      "id": 4083,
      "postalCode": "14648",
      "city": "TULLINGE"
    },
    {
      "id": 4084,
      "postalCode": "14650",
      "city": "TULLINGE"
    },
    {
      "id": 4085,
      "postalCode": "14650",
      "city": "TULLINGE"
    },
    {
      "id": 4086,
      "postalCode": "14650",
      "city": "TULLINGE"
    },
    {
      "id": 4087,
      "postalCode": "14648",
      "city": "TULLINGE"
    },
    {
      "id": 4088,
      "postalCode": "14648",
      "city": "TULLINGE"
    },
    {
      "id": 4089,
      "postalCode": "14650",
      "city": "TULLINGE"
    },
    {
      "id": 4090,
      "postalCode": "14650",
      "city": "TULLINGE"
    },
    {
      "id": 4091,
      "postalCode": "14650",
      "city": "TULLINGE"
    },
    {
      "id": 4092,
      "postalCode": "14650",
      "city": "TULLINGE"
    },
    {
      "id": 4093,
      "postalCode": "14650",
      "city": "TULLINGE"
    },
    {
      "id": 4094,
      "postalCode": "14652",
      "city": "TULLINGE"
    },
    {
      "id": 4095,
      "postalCode": "14652",
      "city": "TULLINGE"
    },
    {
      "id": 4096,
      "postalCode": "14652",
      "city": "TULLINGE"
    },
    {
      "id": 4097,
      "postalCode": "14652",
      "city": "TULLINGE"
    },
    {
      "id": 4098,
      "postalCode": "14652",
      "city": "TULLINGE"
    },
    {
      "id": 4099,
      "postalCode": "14652",
      "city": "TULLINGE"
    },
    {
      "id": 4100,
      "postalCode": "14652",
      "city": "TULLINGE"
    },
    {
      "id": 4101,
      "postalCode": "14652",
      "city": "TULLINGE"
    },
    {
      "id": 4102,
      "postalCode": "14652",
      "city": "TULLINGE"
    },
    {
      "id": 4103,
      "postalCode": "14640",
      "city": "TULLINGE"
    },
    {
      "id": 4104,
      "postalCode": "14640",
      "city": "TULLINGE"
    },
    {
      "id": 4105,
      "postalCode": "14640",
      "city": "TULLINGE"
    },
    {
      "id": 4106,
      "postalCode": "14652",
      "city": "TULLINGE"
    },
    {
      "id": 4107,
      "postalCode": "14652",
      "city": "TULLINGE"
    },
    {
      "id": 4108,
      "postalCode": "14652",
      "city": "TULLINGE"
    },
    {
      "id": 4109,
      "postalCode": "14652",
      "city": "TULLINGE"
    },
    {
      "id": 4110,
      "postalCode": "14652",
      "city": "TULLINGE"
    },
    {
      "id": 4111,
      "postalCode": "14652",
      "city": "TULLINGE"
    },
    {
      "id": 4112,
      "postalCode": "14652",
      "city": "TULLINGE"
    },
    {
      "id": 4113,
      "postalCode": "14652",
      "city": "TULLINGE"
    },
    {
      "id": 4114,
      "postalCode": "14652",
      "city": "TULLINGE"
    },
    {
      "id": 4115,
      "postalCode": "14652",
      "city": "TULLINGE"
    },
    {
      "id": 4116,
      "postalCode": "14652",
      "city": "TULLINGE"
    },
    {
      "id": 4117,
      "postalCode": "14652",
      "city": "TULLINGE"
    },
    {
      "id": 4118,
      "postalCode": "14652",
      "city": "TULLINGE"
    },
    {
      "id": 4119,
      "postalCode": "14650",
      "city": "TULLINGE"
    },
    {
      "id": 4120,
      "postalCode": "14650",
      "city": "TULLINGE"
    },
    {
      "id": 4121,
      "postalCode": "14650",
      "city": "TULLINGE"
    },
    {
      "id": 4122,
      "postalCode": "14650",
      "city": "TULLINGE"
    },
    {
      "id": 4123,
      "postalCode": "14650",
      "city": "TULLINGE"
    },
    {
      "id": 4124,
      "postalCode": "14650",
      "city": "TULLINGE"
    },
    {
      "id": 4126,
      "postalCode": "14630",
      "city": "TULLINGE"
    },
    {
      "id": 4127,
      "postalCode": "14630",
      "city": "TULLINGE"
    },
    {
      "id": 4129,
      "postalCode": "14630",
      "city": "TULLINGE"
    },
    {
      "id": 4130,
      "postalCode": "14630",
      "city": "TULLINGE"
    },
    {
      "id": 4131,
      "postalCode": "14630",
      "city": "TULLINGE"
    },
    {
      "id": 4132,
      "postalCode": "14630",
      "city": "TULLINGE"
    },
    {
      "id": 4133,
      "postalCode": "14630",
      "city": "TULLINGE"
    },
    {
      "id": 4134,
      "postalCode": "14652",
      "city": "TULLINGE"
    },
    {
      "id": 4135,
      "postalCode": "14652",
      "city": "TULLINGE"
    },
    {
      "id": 4136,
      "postalCode": "14650",
      "city": "TULLINGE"
    },
    {
      "id": 4137,
      "postalCode": "14650",
      "city": "TULLINGE"
    },
    {
      "id": 4138,
      "postalCode": "14630",
      "city": "TULLINGE"
    },
    {
      "id": 4139,
      "postalCode": "14630",
      "city": "TULLINGE"
    },
    {
      "id": 4140,
      "postalCode": "14630",
      "city": "TULLINGE"
    },
    {
      "id": 4141,
      "postalCode": "14630",
      "city": "TULLINGE"
    },
    {
      "id": 4142,
      "postalCode": "14630",
      "city": "TULLINGE"
    },
    {
      "id": 4143,
      "postalCode": "14630",
      "city": "TULLINGE"
    },
    {
      "id": 4144,
      "postalCode": "14630",
      "city": "TULLINGE"
    },
    {
      "id": 4145,
      "postalCode": "14649",
      "city": "TULLINGE"
    },
    {
      "id": 4146,
      "postalCode": "14649",
      "city": "TULLINGE"
    },
    {
      "id": 4147,
      "postalCode": "14649",
      "city": "TULLINGE"
    },
    {
      "id": 4148,
      "postalCode": "14649",
      "city": "TULLINGE"
    },
    {
      "id": 4149,
      "postalCode": "14649",
      "city": "TULLINGE"
    },
    {
      "id": 4150,
      "postalCode": "14649",
      "city": "TULLINGE"
    },
    {
      "id": 4151,
      "postalCode": "14649",
      "city": "TULLINGE"
    },
    {
      "id": 4152,
      "postalCode": "14649",
      "city": "TULLINGE"
    },
    {
      "id": 4153,
      "postalCode": "14649",
      "city": "TULLINGE"
    },
    {
      "id": 4154,
      "postalCode": "14649",
      "city": "TULLINGE"
    },
    {
      "id": 4155,
      "postalCode": "14649",
      "city": "TULLINGE"
    },
    {
      "id": 4156,
      "postalCode": "14649",
      "city": "TULLINGE"
    },
    {
      "id": 4157,
      "postalCode": "14649",
      "city": "TULLINGE"
    },
    {
      "id": 4158,
      "postalCode": "14649",
      "city": "TULLINGE"
    },
    {
      "id": 4159,
      "postalCode": "14649",
      "city": "TULLINGE"
    },
    {
      "id": 4160,
      "postalCode": "14649",
      "city": "TULLINGE"
    },
    {
      "id": 4161,
      "postalCode": "14649",
      "city": "TULLINGE"
    },
    {
      "id": 4162,
      "postalCode": "14649",
      "city": "TULLINGE"
    },
    {
      "id": 4163,
      "postalCode": "14649",
      "city": "TULLINGE"
    },
    {
      "id": 4164,
      "postalCode": "14649",
      "city": "TULLINGE"
    },
    {
      "id": 4165,
      "postalCode": "14649",
      "city": "TULLINGE"
    },
    {
      "id": 4166,
      "postalCode": "14648",
      "city": "TULLINGE"
    },
    {
      "id": 4168,
      "postalCode": "14648",
      "city": "TULLINGE"
    },
    {
      "id": 4169,
      "postalCode": "14648",
      "city": "TULLINGE"
    },
    {
      "id": 4170,
      "postalCode": "14648",
      "city": "TULLINGE"
    },
    {
      "id": 4171,
      "postalCode": "14650",
      "city": "TULLINGE"
    },
    {
      "id": 4172,
      "postalCode": "14650",
      "city": "TULLINGE"
    },
    {
      "id": 4173,
      "postalCode": "14650",
      "city": "TULLINGE"
    },
    {
      "id": 4174,
      "postalCode": "14650",
      "city": "TULLINGE"
    },
    {
      "id": 4175,
      "postalCode": "14650",
      "city": "TULLINGE"
    },
    {
      "id": 4176,
      "postalCode": "14650",
      "city": "TULLINGE"
    },
    {
      "id": 4177,
      "postalCode": "14650",
      "city": "TULLINGE"
    },
    {
      "id": 4178,
      "postalCode": "14650",
      "city": "TULLINGE"
    }
  ]