[
    {
      "id": 9641,
      "postalCode": "14652",
      "city": "TULLINGE"
    },
    {
      "id": 9642,
      "postalCode": "14652",
      "city": "TULLINGE"
    },
    {
      "id": 9643,
      "postalCode": "14652",
      "city": "TULLINGE"
    },
    {
      "id": 9644,
      "postalCode": "14652",
      "city": "TULLINGE"
    },
    {
      "id": 9645,
      "postalCode": "14652",
      "city": "TULLINGE"
    },
    {
      "id": 9646,
      "postalCode": "14652",
      "city": "TULLINGE"
    },
    {
      "id": 9647,
      "postalCode": "14652",
      "city": "TULLINGE"
    },
    {
      "id": 9648,
      "postalCode": "14652",
      "city": "TULLINGE"
    },
    {
      "id": 9649,
      "postalCode": "14652",
      "city": "TULLINGE"
    },
    {
      "id": 9650,
      "postalCode": "14652",
      "city": "TULLINGE"
    },
    {
      "id": 9651,
      "postalCode": "14648",
      "city": "TULLINGE"
    },
    {
      "id": 9652,
      "postalCode": "14650",
      "city": "TULLINGE"
    },
    {
      "id": 9653,
      "postalCode": "14743",
      "city": "TUMBA"
    },
    {
      "id": 9654,
      "postalCode": "14652",
      "city": "TULLINGE"
    },
    {
      "id": 9655,
      "postalCode": "14652",
      "city": "TULLINGE"
    },
    {
      "id": 9656,
      "postalCode": "14731",
      "city": "TUMBA"
    },
    {
      "id": 9657,
      "postalCode": "14638",
      "city": "TULLINGE"
    },
    {
      "id": 9658,
      "postalCode": "14640",
      "city": "TULLINGE"
    },
    {
      "id": 9659,
      "postalCode": "14641",
      "city": "TULLINGE"
    },
    {
      "id": 9660,
      "postalCode": "14648",
      "city": "TULLINGE"
    },
    {
      "id": 9661,
      "postalCode": "14652",
      "city": "TULLINGE"
    },
    {
      "id": 9662,
      "postalCode": "14652",
      "city": "TULLINGE"
    },
    {
      "id": 9663,
      "postalCode": "14652",
      "city": "TULLINGE"
    },
    {
      "id": 9664,
      "postalCode": "14652",
      "city": "TULLINGE"
    },
    {
      "id": 9665,
      "postalCode": "14652",
      "city": "TULLINGE"
    },
    {
      "id": 9666,
      "postalCode": "14652",
      "city": "TULLINGE"
    },
    {
      "id": 9667,
      "postalCode": "14650",
      "city": "TULLINGE"
    },
    {
      "id": 9668,
      "postalCode": "14636",
      "city": "TULLINGE"
    },
    {
      "id": 9669,
      "postalCode": "14652",
      "city": "TULLINGE"
    },
    {
      "id": 9670,
      "postalCode": "14652",
      "city": "TULLINGE"
    },
    {
      "id": 9671,
      "postalCode": "14652",
      "city": "TULLINGE"
    },
    {
      "id": 9672,
      "postalCode": "14652",
      "city": "TULLINGE"
    },
    {
      "id": 9673,
      "postalCode": "14652",
      "city": "TULLINGE"
    },
    {
      "id": 9674,
      "postalCode": "14652",
      "city": "TULLINGE"
    },
    {
      "id": 9675,
      "postalCode": "14652",
      "city": "TULLINGE"
    },
    {
      "id": 9676,
      "postalCode": "14652",
      "city": "TULLINGE"
    },
    {
      "id": 9677,
      "postalCode": "14652",
      "city": "TULLINGE"
    },
    {
      "id": 9678,
      "postalCode": "14652",
      "city": "TULLINGE"
    },
    {
      "id": 9679,
      "postalCode": "14652",
      "city": "TULLINGE"
    },
    {
      "id": 9680,
      "postalCode": "14652",
      "city": "TULLINGE"
    },
    {
      "id": 9681,
      "postalCode": "14652",
      "city": "TULLINGE"
    },
    {
      "id": 9682,
      "postalCode": "14652",
      "city": "TULLINGE"
    },
    {
      "id": 9683,
      "postalCode": "14652",
      "city": "TULLINGE"
    },
    {
      "id": 9684,
      "postalCode": "14652",
      "city": "TULLINGE"
    },
    {
      "id": 9685,
      "postalCode": "14652",
      "city": "TULLINGE"
    },
    {
      "id": 9686,
      "postalCode": "14652",
      "city": "TULLINGE"
    },
    {
      "id": 9687,
      "postalCode": "14652",
      "city": "TULLINGE"
    },
    {
      "id": 9688,
      "postalCode": "14648",
      "city": "TULLINGE"
    },
    {
      "id": 9689,
      "postalCode": "14648",
      "city": "TULLINGE"
    },
    {
      "id": 9690,
      "postalCode": "14648",
      "city": "TULLINGE"
    },
    {
      "id": 9691,
      "postalCode": "14648",
      "city": "TULLINGE"
    },
    {
      "id": 9692,
      "postalCode": "14648",
      "city": "TULLINGE"
    },
    {
      "id": 9693,
      "postalCode": "14648",
      "city": "TULLINGE"
    },
    {
      "id": 9694,
      "postalCode": "14648",
      "city": "TULLINGE"
    },
    {
      "id": 9695,
      "postalCode": "14648",
      "city": "TULLINGE"
    },
    {
      "id": 9696,
      "postalCode": "14650",
      "city": "TULLINGE"
    },
    {
      "id": 9697,
      "postalCode": "14650",
      "city": "TULLINGE"
    },
    {
      "id": 9698,
      "postalCode": "14654",
      "city": "TULLINGE"
    },
    {
      "id": 9699,
      "postalCode": "14654",
      "city": "TULLINGE"
    },
    {
      "id": 9700,
      "postalCode": "14654",
      "city": "TULLINGE"
    },
    {
      "id": 9701,
      "postalCode": "14650",
      "city": "TULLINGE"
    },
    {
      "id": 9702,
      "postalCode": "14650",
      "city": "TULLINGE"
    },
    {
      "id": 9703,
      "postalCode": "14654",
      "city": "TULLINGE"
    },
    {
      "id": 9704,
      "postalCode": "14654",
      "city": "TULLINGE"
    },
    {
      "id": 9705,
      "postalCode": "14654",
      "city": "TULLINGE"
    },
    {
      "id": 9706,
      "postalCode": "14654",
      "city": "TULLINGE"
    },
    {
      "id": 9707,
      "postalCode": "14654",
      "city": "TULLINGE"
    },
    {
      "id": 9708,
      "postalCode": "14652",
      "city": "TULLINGE"
    },
    {
      "id": 9709,
      "postalCode": "14652",
      "city": "TULLINGE"
    },
    {
      "id": 9710,
      "postalCode": "14652",
      "city": "TULLINGE"
    },
    {
      "id": 9711,
      "postalCode": "14652",
      "city": "TULLINGE"
    },
    {
      "id": 9712,
      "postalCode": "14652",
      "city": "TULLINGE"
    },
    {
      "id": 9713,
      "postalCode": "14652",
      "city": "TULLINGE"
    },
    {
      "id": 9714,
      "postalCode": "14652",
      "city": "TULLINGE"
    },
    {
      "id": 9715,
      "postalCode": "14760",
      "city": "UTTRAN"
    },
    {
      "id": 9716,
      "postalCode": "14760",
      "city": "UTTRAN"
    },
    {
      "id": 9717,
      "postalCode": "14648",
      "city": "TULLINGE"
    },
    {
      "id": 9718,
      "postalCode": "14653",
      "city": "TULLINGE"
    },
    {
      "id": 9719,
      "postalCode": "14653",
      "city": "TULLINGE"
    },
    {
      "id": 9720,
      "postalCode": "14653",
      "city": "TULLINGE"
    },
    {
      "id": 9721,
      "postalCode": "14654",
      "city": "TULLINGE"
    },
    {
      "id": 9722,
      "postalCode": "14654",
      "city": "TULLINGE"
    },
    {
      "id": 9723,
      "postalCode": "14652",
      "city": "TULLINGE"
    },
    {
      "id": 9724,
      "postalCode": "14654",
      "city": "TULLINGE"
    },
    {
      "id": 9725,
      "postalCode": "14654",
      "city": "TULLINGE"
    },
    {
      "id": 9726,
      "postalCode": "14654",
      "city": "TULLINGE"
    },
    {
      "id": 9727,
      "postalCode": "14646",
      "city": "TULLINGE"
    },
    {
      "id": 9728,
      "postalCode": "14630",
      "city": "TULLINGE"
    },
    {
      "id": 9729,
      "postalCode": "14652",
      "city": "TULLINGE"
    },
    {
      "id": 9730,
      "postalCode": "14652",
      "city": "TULLINGE"
    },
    {
      "id": 9731,
      "postalCode": "14652",
      "city": "TULLINGE"
    },
    {
      "id": 9732,
      "postalCode": "14650",
      "city": "TULLINGE"
    },
    {
      "id": 9733,
      "postalCode": "14652",
      "city": "TULLINGE"
    },
    {
      "id": 9734,
      "postalCode": "14650",
      "city": "TULLINGE"
    },
    {
      "id": 9735,
      "postalCode": "14650",
      "city": "TULLINGE"
    },
    {
      "id": 9736,
      "postalCode": "14650",
      "city": "TULLINGE"
    },
    {
      "id": 9737,
      "postalCode": "14654",
      "city": "TULLINGE"
    },
    {
      "id": 9738,
      "postalCode": "14652",
      "city": "TULLINGE"
    },
    {
      "id": 9739,
      "postalCode": "14650",
      "city": "TULLINGE"
    },
    {
      "id": 9740,
      "postalCode": "14650",
      "city": "TULLINGE"
    },
    {
      "id": 9741,
      "postalCode": "14650",
      "city": "TULLINGE"
    },
    {
      "id": 9742,
      "postalCode": "14650",
      "city": "TULLINGE"
    },
    {
      "id": 9743,
      "postalCode": "14654",
      "city": "TULLINGE"
    },
    {
      "id": 9744,
      "postalCode": "14654",
      "city": "TULLINGE"
    },
    {
      "id": 9745,
      "postalCode": "14640",
      "city": "TULLINGE"
    },
    {
      "id": 9746,
      "postalCode": "14654",
      "city": "TULLINGE"
    },
    {
      "id": 9747,
      "postalCode": "14648",
      "city": "TULLINGE"
    },
    {
      "id": 9748,
      "postalCode": "14652",
      "city": "TULLINGE"
    },
    {
      "id": 9749,
      "postalCode": "14652",
      "city": "TULLINGE"
    },
    {
      "id": 9750,
      "postalCode": "14652",
      "city": "TULLINGE"
    },
    {
      "id": 9751,
      "postalCode": "14652",
      "city": "TULLINGE"
    },
    {
      "id": 9752,
      "postalCode": "14652",
      "city": "TULLINGE"
    },
    {
      "id": 9753,
      "postalCode": "14652",
      "city": "TULLINGE"
    },
    {
      "id": 9754,
      "postalCode": "14652",
      "city": "TULLINGE"
    },
    {
      "id": 9755,
      "postalCode": "14652",
      "city": "TULLINGE"
    },
    {
      "id": 9756,
      "postalCode": "14652",
      "city": "TULLINGE"
    },
    {
      "id": 9757,
      "postalCode": "14652",
      "city": "TULLINGE"
    },
    {
      "id": 9758,
      "postalCode": "14640",
      "city": "TULLINGE"
    },
    {
      "id": 9759,
      "postalCode": "14640",
      "city": "TULLINGE"
    },
    {
      "id": 9760,
      "postalCode": "14640",
      "city": "TULLINGE"
    },
    {
      "id": 9761,
      "postalCode": "14652",
      "city": "TULLINGE"
    },
    {
      "id": 9762,
      "postalCode": "14652",
      "city": "TULLINGE"
    },
    {
      "id": 9763,
      "postalCode": "14652",
      "city": "TULLINGE"
    },
    {
      "id": 9764,
      "postalCode": "14654",
      "city": "TULLINGE"
    },
    {
      "id": 9765,
      "postalCode": "14654",
      "city": "TULLINGE"
    },
    {
      "id": 9766,
      "postalCode": "14653",
      "city": "TULLINGE"
    },
    {
      "id": 9767,
      "postalCode": "14653",
      "city": "TULLINGE"
    },
    {
      "id": 9768,
      "postalCode": "14650",
      "city": "TULLINGE"
    },
    {
      "id": 9769,
      "postalCode": "14648",
      "city": "TULLINGE"
    },
    {
      "id": 9770,
      "postalCode": "14648",
      "city": "TULLINGE"
    },
    {
      "id": 9771,
      "postalCode": "14652",
      "city": "TULLINGE"
    },
    {
      "id": 9772,
      "postalCode": "14638",
      "city": "TULLINGE"
    },
    {
      "id": 9773,
      "postalCode": "14652",
      "city": "TULLINGE"
    },
    {
      "id": 9774,
      "postalCode": "14652",
      "city": "TULLINGE"
    },
    {
      "id": 9775,
      "postalCode": "14652",
      "city": "TULLINGE"
    },
    {
      "id": 9776,
      "postalCode": "14652",
      "city": "TULLINGE"
    },
    {
      "id": 9777,
      "postalCode": "14652",
      "city": "TULLINGE"
    },
    {
      "id": 9778,
      "postalCode": "14650",
      "city": "TULLINGE"
    },
    {
      "id": 9779,
      "postalCode": "14650",
      "city": "TULLINGE"
    },
    {
      "id": 9780,
      "postalCode": "14650",
      "city": "TULLINGE"
    },
    {
      "id": 9781,
      "postalCode": "14650",
      "city": "TULLINGE"
    },
    {
      "id": 9782,
      "postalCode": "14648",
      "city": "TULLINGE"
    },
    {
      "id": 9783,
      "postalCode": "14650",
      "city": "TULLINGE"
    },
    {
      "id": 9784,
      "postalCode": "14650",
      "city": "TULLINGE"
    },
    {
      "id": 9785,
      "postalCode": "14650",
      "city": "TULLINGE"
    },
    {
      "id": 9786,
      "postalCode": "14640",
      "city": "TULLINGE"
    },
    {
      "id": 9787,
      "postalCode": "14640",
      "city": "TULLINGE"
    },
    {
      "id": 9788,
      "postalCode": "14652",
      "city": "TULLINGE"
    },
    {
      "id": 9789,
      "postalCode": "14652",
      "city": "TULLINGE"
    },
    {
      "id": 9790,
      "postalCode": "14652",
      "city": "TULLINGE"
    },
    {
      "id": 9791,
      "postalCode": "14652",
      "city": "TULLINGE"
    },
    {
      "id": 9792,
      "postalCode": "14652",
      "city": "TULLINGE"
    },
    {
      "id": 9793,
      "postalCode": "14652",
      "city": "TULLINGE"
    },
    {
      "id": 9794,
      "postalCode": "14652",
      "city": "TULLINGE"
    },
    {
      "id": 9795,
      "postalCode": "14652",
      "city": "TULLINGE"
    },
    {
      "id": 9796,
      "postalCode": "14652",
      "city": "TULLINGE"
    },
    {
      "id": 9797,
      "postalCode": "14652",
      "city": "TULLINGE"
    },
    {
      "id": 9798,
      "postalCode": "14640",
      "city": "TULLINGE"
    },
    {
      "id": 9799,
      "postalCode": "14640",
      "city": "TULLINGE"
    },
    {
      "id": 9800,
      "postalCode": "14640",
      "city": "TULLINGE"
    },
    {
      "id": 9801,
      "postalCode": "14640",
      "city": "TULLINGE"
    },
    {
      "id": 9802,
      "postalCode": "14652",
      "city": "TULLINGE"
    },
    {
      "id": 9803,
      "postalCode": "14652",
      "city": "TULLINGE"
    },
    {
      "id": 9804,
      "postalCode": "14563",
      "city": "NORSBORG"
    },
    {
      "id": 9805,
      "postalCode": "14650",
      "city": "TULLINGE"
    },
    {
      "id": 9806,
      "postalCode": "14654",
      "city": "TULLINGE"
    },
    {
      "id": 9807,
      "postalCode": "14653",
      "city": "TULLINGE"
    },
    {
      "id": 10005,
      "postalCode": "14792",
      "city": "GRÖDINGE"
    },
    {
      "id": 10007,
      "postalCode": "14792",
      "city": "GRÖDINGE"
    },
    {
      "id": 10053,
      "postalCode": "14792",
      "city": "GRÖDINGE"
    },
    {
      "id": 10054,
      "postalCode": "14648",
      "city": "TULLINGE"
    },
    {
      "id": 10055,
      "postalCode": "14654",
      "city": "TULLINGE"
    },
    {
      "id": 10056,
      "postalCode": "14760",
      "city": "UTTRAN"
    },
    {
      "id": 10058,
      "postalCode": "14563",
      "city": "NORSBORG"
    },
    {
      "id": 10059,
      "postalCode": "14631",
      "city": "TULLINGE"
    },
    {
      "id": 10060,
      "postalCode": "14631",
      "city": "TULLINGE"
    },
    {
      "id": 10061,
      "postalCode": "14638",
      "city": "TULLINGE"
    },
    {
      "id": 10062,
      "postalCode": "14653",
      "city": "TULLINGE"
    },
    {
      "id": 10063,
      "postalCode": "14771",
      "city": "GRÖDINGE"
    },
    {
      "id": 10064,
      "postalCode": "14638",
      "city": "TULLINGE"
    },
    {
      "id": 10065,
      "postalCode": "14638",
      "city": "TULLINGE"
    },
    {
      "id": 10066,
      "postalCode": "14638",
      "city": "TULLINGE"
    },
    {
      "id": 10067,
      "postalCode": "14638",
      "city": "TULLINGE"
    },
    {
      "id": 10068,
      "postalCode": "14572",
      "city": "NORSBORG"
    },
    {
      "id": 10069,
      "postalCode": "14572",
      "city": "NORSBORG"
    },
    {
      "id": 10070,
      "postalCode": "14792",
      "city": "GRÖDINGE"
    },
    {
      "id": 10071,
      "postalCode": "14551",
      "city": "NORSBORG"
    },
    {
      "id": 10072,
      "postalCode": "14551",
      "city": "NORSBORG"
    },
    {
      "id": 10073,
      "postalCode": "14551",
      "city": "NORSBORG"
    },
    {
      "id": 10074,
      "postalCode": "14551",
      "city": "NORSBORG"
    },
    {
      "id": 10075,
      "postalCode": "14550",
      "city": "NORSBORG"
    },
    {
      "id": 10076,
      "postalCode": "14638",
      "city": "TULLINGE"
    },
    {
      "id": 10077,
      "postalCode": "14553",
      "city": "NORSBORG"
    },
    {
      "id": 10078,
      "postalCode": "14741",
      "city": "TUMBA"
    },
    {
      "id": 10079,
      "postalCode": "14741",
      "city": "TUMBA"
    },
    {
      "id": 10080,
      "postalCode": "14563",
      "city": "NORSBORG"
    },
    {
      "id": 10081,
      "postalCode": "14638",
      "city": "TULLINGE"
    },
    {
      "id": 10082,
      "postalCode": "14730",
      "city": "TUMBA"
    },
    {
      "id": 10083,
      "postalCode": "14730",
      "city": "TUMBA"
    },
    {
      "id": 10084,
      "postalCode": "14730",
      "city": "TUMBA"
    },
    {
      "id": 10085,
      "postalCode": "14740",
      "city": "TUMBA"
    },
    {
      "id": 10086,
      "postalCode": "14740",
      "city": "TUMBA"
    },
    {
      "id": 10087,
      "postalCode": "14563",
      "city": "NORSBORG"
    },
    {
      "id": 10088,
      "postalCode": "14570",
      "city": "NORSBORG"
    },
    {
      "id": 10089,
      "postalCode": "14563",
      "city": "NORSBORG"
    },
    {
      "id": 10090,
      "postalCode": "14563",
      "city": "NORSBORG"
    },
    {
      "id": 10092,
      "postalCode": "14638",
      "city": "TULLINGE"
    },
    {
      "id": 10093,
      "postalCode": "14572",
      "city": "NORSBORG"
    },
    {
      "id": 10094,
      "postalCode": "14630",
      "city": "TULLINGE"
    },
    {
      "id": 10095,
      "postalCode": "14567",
      "city": "NORSBORG"
    },
    {
      "id": 10096,
      "postalCode": "14576",
      "city": "NORSBORG"
    },
    {
      "id": 10097,
      "postalCode": "14576",
      "city": "NORSBORG"
    },
    {
      "id": 10098,
      "postalCode": "14638",
      "city": "TULLINGE"
    },
    {
      "id": 10099,
      "postalCode": "14638",
      "city": "TULLINGE"
    },
    {
      "id": 10100,
      "postalCode": "14574",
      "city": "NORSBORG"
    },
    {
      "id": 10101,
      "postalCode": "14792",
      "city": "GRÖDINGE"
    },
    {
      "id": 10102,
      "postalCode": "14792",
      "city": "GRÖDINGE"
    },
    {
      "id": 10103,
      "postalCode": "14563",
      "city": "NORSBORG"
    },
    {
      "id": 10104,
      "postalCode": "14563",
      "city": "NORSBORG"
    },
    {
      "id": 10105,
      "postalCode": "14563",
      "city": "NORSBORG"
    },
    {
      "id": 10106,
      "postalCode": "14563",
      "city": "NORSBORG"
    },
    {
      "id": 10107,
      "postalCode": "14563",
      "city": "NORSBORG"
    },
    {
      "id": 10108,
      "postalCode": "14563",
      "city": "NORSBORG"
    },
    {
      "id": 10109,
      "postalCode": "14556",
      "city": "NORSBORG"
    },
    {
      "id": 10110,
      "postalCode": "14556",
      "city": "NORSBORG"
    },
    {
      "id": 10111,
      "postalCode": "14556",
      "city": "NORSBORG"
    },
    {
      "id": 10112,
      "postalCode": "14556",
      "city": "NORSBORG"
    },
    {
      "id": 10113,
      "postalCode": "14556",
      "city": "NORSBORG"
    },
    {
      "id": 10114,
      "postalCode": "14556",
      "city": "NORSBORG"
    },
    {
      "id": 10115,
      "postalCode": "14556",
      "city": "NORSBORG"
    },
    {
      "id": 10116,
      "postalCode": "14556",
      "city": "NORSBORG"
    },
    {
      "id": 10117,
      "postalCode": "14556",
      "city": "NORSBORG"
    },
    {
      "id": 10118,
      "postalCode": "14556",
      "city": "NORSBORG"
    },
    {
      "id": 10119,
      "postalCode": "14556",
      "city": "NORSBORG"
    },
    {
      "id": 10120,
      "postalCode": "14556",
      "city": "NORSBORG"
    },
    {
      "id": 10121,
      "postalCode": "14556",
      "city": "NORSBORG"
    },
    {
      "id": 10122,
      "postalCode": "14791",
      "city": "GRÖDINGE"
    },
    {
      "id": 10123,
      "postalCode": "14632",
      "city": "TULLINGE"
    },
    {
      "id": 10124,
      "postalCode": "14632",
      "city": "TULLINGE"
    },
    {
      "id": 10125,
      "postalCode": "14632",
      "city": "TULLINGE"
    },
    {
      "id": 10126,
      "postalCode": "14785",
      "city": "TUMBA"
    },
    {
      "id": 10127,
      "postalCode": "14638",
      "city": "TULLINGE"
    },
    {
      "id": 10128,
      "postalCode": "14638",
      "city": "TULLINGE"
    },
    {
      "id": 10129,
      "postalCode": "14638",
      "city": "TULLINGE"
    },
    {
      "id": 10130,
      "postalCode": "14646",
      "city": "TULLINGE"
    },
    {
      "id": 10131,
      "postalCode": "14646",
      "city": "TULLINGE"
    },
    {
      "id": 10132,
      "postalCode": "14638",
      "city": "TULLINGE"
    },
    {
      "id": 10133,
      "postalCode": "14638",
      "city": "TULLINGE"
    },
    {
      "id": 10134,
      "postalCode": "14638",
      "city": "TULLINGE"
    },
    {
      "id": 10135,
      "postalCode": "14646",
      "city": "TULLINGE"
    },
    {
      "id": 10136,
      "postalCode": "14771",
      "city": "GRÖDINGE"
    },
    {
      "id": 10137,
      "postalCode": "14557",
      "city": "NORSBORG"
    },
    {
      "id": 10138,
      "postalCode": "14638",
      "city": "TULLINGE"
    },
    {
      "id": 10139,
      "postalCode": "14645",
      "city": "TULLINGE"
    },
    {
      "id": 10140,
      "postalCode": "14638",
      "city": "TULLINGE"
    },
    {
      "id": 10141,
      "postalCode": "14631",
      "city": "TULLINGE"
    },
    {
      "id": 10142,
      "postalCode": "14631",
      "city": "TULLINGE"
    },
    {
      "id": 10143,
      "postalCode": "14741",
      "city": "TUMBA"
    },
    {
      "id": 10144,
      "postalCode": "14741",
      "city": "TUMBA"
    },
    {
      "id": 10145,
      "postalCode": "14741",
      "city": "TUMBA"
    },
    {
      "id": 10146,
      "postalCode": "14563",
      "city": "NORSBORG"
    },
    {
      "id": 10147,
      "postalCode": "14563",
      "city": "NORSBORG"
    },
    {
      "id": 10148,
      "postalCode": "14563",
      "city": "NORSBORG"
    },
    {
      "id": 10149,
      "postalCode": "14563",
      "city": "NORSBORG"
    },
    {
      "id": 10150,
      "postalCode": "14559",
      "city": "NORSBORG"
    },
    {
      "id": 10153,
      "postalCode": "14553",
      "city": "NORSBORG"
    },
    {
      "id": 10154,
      "postalCode": "14553",
      "city": "NORSBORG"
    },
    {
      "id": 10155,
      "postalCode": "14638",
      "city": "TULLINGE"
    },
    {
      "id": 10156,
      "postalCode": "14638",
      "city": "TULLINGE"
    },
    {
      "id": 10157,
      "postalCode": "14638",
      "city": "TULLINGE"
    },
    {
      "id": 10158,
      "postalCode": "14638",
      "city": "TULLINGE"
    },
    {
      "id": 10159,
      "postalCode": "14638",
      "city": "TULLINGE"
    },
    {
      "id": 10160,
      "postalCode": "14574",
      "city": "NORSBORG"
    },
    {
      "id": 10161,
      "postalCode": "14563",
      "city": "NORSBORG"
    },
    {
      "id": 10162,
      "postalCode": "14646",
      "city": "TULLINGE"
    },
    {
      "id": 10163,
      "postalCode": "14646",
      "city": "TULLINGE"
    },
    {
      "id": 10164,
      "postalCode": "14646",
      "city": "TULLINGE"
    },
    {
      "id": 10165,
      "postalCode": "14638",
      "city": "TULLINGE"
    },
    {
      "id": 10166,
      "postalCode": "14638",
      "city": "TULLINGE"
    },
    {
      "id": 10167,
      "postalCode": "14638",
      "city": "TULLINGE"
    },
    {
      "id": 10168,
      "postalCode": "14638",
      "city": "TULLINGE"
    },
    {
      "id": 10169,
      "postalCode": "14638",
      "city": "TULLINGE"
    },
    {
      "id": 10170,
      "postalCode": "14638",
      "city": "TULLINGE"
    },
    {
      "id": 10171,
      "postalCode": "14550",
      "city": "NORSBORG"
    },
    {
      "id": 10172,
      "postalCode": "14550",
      "city": "NORSBORG"
    },
    {
      "id": 10173,
      "postalCode": "14550",
      "city": "NORSBORG"
    },
    {
      "id": 10174,
      "postalCode": "14638",
      "city": "TULLINGE"
    },
    {
      "id": 10175,
      "postalCode": "14638",
      "city": "TULLINGE"
    },
    {
      "id": 10176,
      "postalCode": "14638",
      "city": "TULLINGE"
    },
    {
      "id": 10177,
      "postalCode": "14638",
      "city": "TULLINGE"
    },
    {
      "id": 10178,
      "postalCode": "14638",
      "city": "TULLINGE"
    },
    {
      "id": 10179,
      "postalCode": "14575",
      "city": "NORSBORG"
    },
    {
      "id": 10180,
      "postalCode": "14574",
      "city": "NORSBORG"
    },
    {
      "id": 10181,
      "postalCode": "14575",
      "city": "NORSBORG"
    },
    {
      "id": 10182,
      "postalCode": "14575",
      "city": "NORSBORG"
    },
    {
      "id": 10183,
      "postalCode": "14575",
      "city": "NORSBORG"
    },
    {
      "id": 10184,
      "postalCode": "14569",
      "city": "NORSBORG"
    },
    {
      "id": 10185,
      "postalCode": "14569",
      "city": "NORSBORG"
    },
    {
      "id": 10186,
      "postalCode": "14743",
      "city": "TUMBA"
    },
    {
      "id": 10187,
      "postalCode": "14743",
      "city": "TUMBA"
    },
    {
      "id": 10188,
      "postalCode": "14743",
      "city": "TUMBA"
    },
    {
      "id": 10189,
      "postalCode": "14743",
      "city": "TUMBA"
    },
    {
      "id": 10190,
      "postalCode": "14743",
      "city": "TUMBA"
    },
    {
      "id": 10191,
      "postalCode": "14743",
      "city": "TUMBA"
    },
    {
      "id": 10192,
      "postalCode": "14741",
      "city": "TUMBA"
    },
    {
      "id": 10193,
      "postalCode": "14792",
      "city": "GRÖDINGE"
    },
    {
      "id": 10194,
      "postalCode": "14792",
      "city": "GRÖDINGE"
    },
    {
      "id": 10195,
      "postalCode": "14792",
      "city": "GRÖDINGE"
    },
    {
      "id": 10196,
      "postalCode": "14792",
      "city": "GRÖDINGE"
    },
    {
      "id": 10197,
      "postalCode": "14792",
      "city": "GRÖDINGE"
    },
    {
      "id": 10198,
      "postalCode": "14792",
      "city": "GRÖDINGE"
    },
    {
      "id": 10199,
      "postalCode": "14792",
      "city": "GRÖDINGE"
    },
    {
      "id": 10200,
      "postalCode": "14792",
      "city": "GRÖDINGE"
    },
    {
      "id": 10201,
      "postalCode": "14792",
      "city": "GRÖDINGE"
    },
    {
      "id": 10202,
      "postalCode": "14792",
      "city": "GRÖDINGE"
    },
    {
      "id": 10203,
      "postalCode": "14572",
      "city": "NORSBORG"
    },
    {
      "id": 10204,
      "postalCode": "14572",
      "city": "NORSBORG"
    },
    {
      "id": 10205,
      "postalCode": "14572",
      "city": "NORSBORG"
    },
    {
      "id": 10206,
      "postalCode": "14550",
      "city": "NORSBORG"
    },
    {
      "id": 10207,
      "postalCode": "14550",
      "city": "NORSBORG"
    },
    {
      "id": 10208,
      "postalCode": "14550",
      "city": "NORSBORG"
    },
    {
      "id": 10209,
      "postalCode": "14653",
      "city": "TULLINGE"
    },
    {
      "id": 10210,
      "postalCode": "14573",
      "city": "NORSBORG"
    },
    {
      "id": 10211,
      "postalCode": "14573",
      "city": "NORSBORG"
    },
    {
      "id": 10213,
      "postalCode": "14760",
      "city": "UTTRAN"
    },
    {
      "id": 10214,
      "postalCode": "14760",
      "city": "UTTRAN"
    },
    {
      "id": 10215,
      "postalCode": "14760",
      "city": "UTTRAN"
    },
    {
      "id": 10216,
      "postalCode": "14760",
      "city": "UTTRAN"
    },
    {
      "id": 10217,
      "postalCode": "14760",
      "city": "UTTRAN"
    },
    {
      "id": 10218,
      "postalCode": "14760",
      "city": "UTTRAN"
    },
    {
      "id": 10219,
      "postalCode": "14760",
      "city": "UTTRAN"
    },
    {
      "id": 10220,
      "postalCode": "14760",
      "city": "UTTRAN"
    },
    {
      "id": 10221,
      "postalCode": "14760",
      "city": "UTTRAN"
    },
    {
      "id": 10222,
      "postalCode": "14760",
      "city": "UTTRAN"
    },
    {
      "id": 10223,
      "postalCode": "14731",
      "city": "TUMBA"
    },
    {
      "id": 10224,
      "postalCode": "14650",
      "city": "TULLINGE"
    },
    {
      "id": 10225,
      "postalCode": "14743",
      "city": "TUMBA"
    },
    {
      "id": 10226,
      "postalCode": "14791",
      "city": "GRÖDINGE"
    },
    {
      "id": 10227,
      "postalCode": "14633",
      "city": "TULLINGE"
    },
    {
      "id": 10228,
      "postalCode": "14640",
      "city": "TULLINGE"
    },
    {
      "id": 10230,
      "postalCode": "14572",
      "city": "NORSBORG"
    },
    {
      "id": 10231,
      "postalCode": "14572",
      "city": "NORSBORG"
    },
    {
      "id": 10232,
      "postalCode": "14572",
      "city": "NORSBORG"
    },
    {
      "id": 10233,
      "postalCode": "14572",
      "city": "NORSBORG"
    },
    {
      "id": 10234,
      "postalCode": "14763",
      "city": "UTTRAN"
    },
    {
      "id": 10235,
      "postalCode": "",
      "city": ""
    },
    {
      "id": 10236,
      "postalCode": "14640",
      "city": "TULLINGE"
    },
    {
      "id": 10237,
      "postalCode": "14792",
      "city": "GRÖDINGE"
    },
    {
      "id": 10238,
      "postalCode": "14638",
      "city": "TULLINGE"
    },
    {
      "id": 10239,
      "postalCode": "14733",
      "city": "TUMBA"
    },
    {
      "id": 10240,
      "postalCode": "14733",
      "city": "TUMBA"
    },
    {
      "id": 10241,
      "postalCode": "14733",
      "city": "TUMBA"
    },
    {
      "id": 10242,
      "postalCode": "14733",
      "city": "TUMBA"
    },
    {
      "id": 10243,
      "postalCode": "14792",
      "city": "GRÖDINGE"
    },
    {
      "id": 10244,
      "postalCode": "14792",
      "city": "GRÖDINGE"
    },
    {
      "id": 10245,
      "postalCode": "14792",
      "city": "GRÖDINGE"
    },
    {
      "id": 10246,
      "postalCode": "14792",
      "city": "GRÖDINGE"
    },
    {
      "id": 10247,
      "postalCode": "14792",
      "city": "GRÖDINGE"
    },
    {
      "id": 10248,
      "postalCode": "14792",
      "city": "GRÖDINGE"
    },
    {
      "id": 10249,
      "postalCode": "14746",
      "city": "TUMBA"
    },
    {
      "id": 10250,
      "postalCode": "14746",
      "city": "TUMBA"
    },
    {
      "id": 10251,
      "postalCode": "14638",
      "city": "TULLINGE"
    },
    {
      "id": 10252,
      "postalCode": "14792",
      "city": "GRÖDINGE"
    },
    {
      "id": 10253,
      "postalCode": "14792",
      "city": "GRÖDINGE"
    },
    {
      "id": 10254,
      "postalCode": "14792",
      "city": "GRÖDINGE"
    },
    {
      "id": 10255,
      "postalCode": "14792",
      "city": "GRÖDINGE"
    },
    {
      "id": 10256,
      "postalCode": "14792",
      "city": "GRÖDINGE"
    },
    {
      "id": 11007,
      "postalCode": "14730",
      "city": "TUMBA"
    },
    {
      "id": 11008,
      "postalCode": "14730",
      "city": "TUMBA"
    },
    {
      "id": 11009,
      "postalCode": "14792",
      "city": "GRÖDINGE"
    },
    {
      "id": 11010,
      "postalCode": "14792",
      "city": "GRÖDINGE"
    },
    {
      "id": 11011,
      "postalCode": "14792",
      "city": "GRÖDINGE"
    },
    {
      "id": 11012,
      "postalCode": "14792",
      "city": "GRÖDINGE"
    },
    {
      "id": 11013,
      "postalCode": "14792",
      "city": "GRÖDINGE"
    },
    {
      "id": 11014,
      "postalCode": "14792",
      "city": "GRÖDINGE"
    },
    {
      "id": 11015,
      "postalCode": "14792",
      "city": "GRÖDINGE"
    },
    {
      "id": 11016,
      "postalCode": "",
      "city": ""
    },
    {
      "id": 11017,
      "postalCode": "14792",
      "city": "GRÖDINGE"
    },
    {
      "id": 11018,
      "postalCode": "14792",
      "city": "GRÖDINGE"
    },
    {
      "id": 11019,
      "postalCode": "14792",
      "city": "GRÖDINGE"
    },
    {
      "id": 11020,
      "postalCode": "14792",
      "city": "GRÖDINGE"
    },
    {
      "id": 11021,
      "postalCode": "14792",
      "city": "GRÖDINGE"
    },
    {
      "id": 11022,
      "postalCode": "14792",
      "city": "GRÖDINGE"
    },
    {
      "id": 11023,
      "postalCode": "14792",
      "city": "GRÖDINGE"
    },
    {
      "id": 11024,
      "postalCode": "14792",
      "city": "GRÖDINGE"
    },
    {
      "id": 11025,
      "postalCode": "14792",
      "city": "GRÖDINGE"
    },
    {
      "id": 11026,
      "postalCode": "14763",
      "city": "UTTRAN"
    },
    {
      "id": 11027,
      "postalCode": "14792",
      "city": "GRÖDINGE"
    },
    {
      "id": 11028,
      "postalCode": "14792",
      "city": "GRÖDINGE"
    },
    {
      "id": 11029,
      "postalCode": "14792",
      "city": "GRÖDINGE"
    },
    {
      "id": 11030,
      "postalCode": "14763",
      "city": "UTTRAN"
    },
    {
      "id": 11031,
      "postalCode": "14792",
      "city": "GRÖDINGE"
    },
    {
      "id": 11032,
      "postalCode": "147 63",
      "city": "TUMBA"
    },
    {
      "id": 11033,
      "postalCode": "14744",
      "city": "TUMBA"
    },
    {
      "id": 11034,
      "postalCode": "14631",
      "city": "TULLINGE"
    },
    {
      "id": 11035,
      "postalCode": "14744",
      "city": "TUMBA"
    },
    {
      "id": 11036,
      "postalCode": "14746",
      "city": "TUMBA"
    },
    {
      "id": 11037,
      "postalCode": "14652",
      "city": "TULLINGE"
    },
    {
      "id": 11038,
      "postalCode": "14792",
      "city": "GRÖDINGE"
    },
    {
      "id": 11039,
      "postalCode": "14650",
      "city": "TULLINGE"
    },
    {
      "id": 11040,
      "postalCode": "14760",
      "city": "UTTRAN"
    },
    {
      "id": 11041,
      "postalCode": "14760",
      "city": "UTTRAN"
    },
    {
      "id": 11042,
      "postalCode": "14760",
      "city": "UTTRAN"
    },
    {
      "id": 11043,
      "postalCode": "14760",
      "city": "UTTRAN"
    },
    {
      "id": 11044,
      "postalCode": "14760",
      "city": "UTTRAN"
    },
    {
      "id": 11045,
      "postalCode": "14760",
      "city": "UTTRAN"
    },
    {
      "id": 11046,
      "postalCode": "14760",
      "city": "UTTRAN"
    },
    {
      "id": 11047,
      "postalCode": "14746",
      "city": "TUMBA"
    },
    {
      "id": 11048,
      "postalCode": "14746",
      "city": "TUMBA"
    },
    {
      "id": 11049,
      "postalCode": "14746",
      "city": "TUMBA"
    },
    {
      "id": 11050,
      "postalCode": "14746",
      "city": "TUMBA"
    },
    {
      "id": 11051,
      "postalCode": "14792",
      "city": "GRÖDINGE"
    },
    {
      "id": 11053,
      "postalCode": "14792",
      "city": "GRÖDINGE"
    },
    {
      "id": 11054,
      "postalCode": "14792",
      "city": "GRÖDINGE"
    },
    {
      "id": 11055,
      "postalCode": "14763",
      "city": "UTTRAN"
    },
    {
      "id": 11056,
      "postalCode": "14792",
      "city": "GRÖDINGE"
    },
    {
      "id": 11057,
      "postalCode": "14792",
      "city": "GRÖDINGE"
    },
    {
      "id": 11058,
      "postalCode": "14792",
      "city": "GRÖDINGE"
    },
    {
      "id": 11059,
      "postalCode": "14792",
      "city": "GRÖDINGE"
    },
    {
      "id": 11060,
      "postalCode": "14792",
      "city": "GRÖDINGE"
    },
    {
      "id": 11061,
      "postalCode": "14638",
      "city": "TULLINGE"
    },
    {
      "id": 11062,
      "postalCode": "14654",
      "city": "TULLINGE"
    },
    {
      "id": 11063,
      "postalCode": "14760",
      "city": "UTTRAN"
    },
    {
      "id": 11064,
      "postalCode": "14760",
      "city": "UTTRAN"
    },
    {
      "id": 11065,
      "postalCode": "14760",
      "city": "UTTRAN"
    },
    {
      "id": 11066,
      "postalCode": "14792",
      "city": "GRÖDINGE"
    },
    {
      "id": 11067,
      "postalCode": "14744",
      "city": "TUMBA"
    },
    {
      "id": 11068,
      "postalCode": "14744",
      "city": "TUMBA"
    },
    {
      "id": 11069,
      "postalCode": "14792",
      "city": "GRÖDINGE"
    },
    {
      "id": 11071,
      "postalCode": "14792",
      "city": "GRÖDINGE"
    },
    {
      "id": 11072,
      "postalCode": "14792",
      "city": "GRÖDINGE"
    },
    {
      "id": 11073,
      "postalCode": "14760",
      "city": "UTTRAN"
    },
    {
      "id": 11074,
      "postalCode": "14792",
      "city": "GRÖDINGE"
    },
    {
      "id": 11075,
      "postalCode": "14792",
      "city": "GRÖDINGE"
    },
    {
      "id": 11076,
      "postalCode": "",
      "city": ""
    },
    {
      "id": 11077,
      "postalCode": "14568",
      "city": "NORSBORG"
    },
    {
      "id": 11078,
      "postalCode": "",
      "city": ""
    },
    {
      "id": 11079,
      "postalCode": "14648",
      "city": "TULLINGE"
    },
    {
      "id": 11080,
      "postalCode": "14792",
      "city": "GRÖDINGE"
    },
    {
      "id": 11081,
      "postalCode": "14792",
      "city": "GRÖDINGE"
    },
    {
      "id": 11082,
      "postalCode": "14792",
      "city": "GRÖDINGE"
    },
    {
      "id": 11083,
      "postalCode": "14640",
      "city": "TULLINGE"
    },
    {
      "id": 11084,
      "postalCode": "14792",
      "city": "GRÖDINGE"
    },
    {
      "id": 11085,
      "postalCode": "14792",
      "city": "GRÖDINGE"
    },
    {
      "id": 11086,
      "postalCode": "14792",
      "city": "GRÖDINGE"
    },
    {
      "id": 11087,
      "postalCode": "14638",
      "city": "TULLINGE"
    },
    {
      "id": 11088,
      "postalCode": "14638",
      "city": "TULLINGE"
    },
    {
      "id": 11089,
      "postalCode": "14792",
      "city": "GRÖDINGE"
    },
    {
      "id": 11090,
      "postalCode": "14792",
      "city": "GRÖDINGE"
    },
    {
      "id": 11091,
      "postalCode": "14744",
      "city": "TUMBA"
    },
    {
      "id": 11092,
      "postalCode": "14732",
      "city": "TUMBA"
    },
    {
      "id": 11093,
      "postalCode": "14732",
      "city": "TUMBA"
    },
    {
      "id": 11094,
      "postalCode": "14792",
      "city": "GRÖDINGE"
    },
    {
      "id": 11095,
      "postalCode": "14792",
      "city": "GRÖDINGE"
    },
    {
      "id": 11096,
      "postalCode": "14792",
      "city": "GRÖDINGE"
    },
    {
      "id": 11097,
      "postalCode": "14792",
      "city": "GRÖDINGE"
    },
    {
      "id": 11098,
      "postalCode": "14792",
      "city": "GRÖDINGE"
    },
    {
      "id": 11099,
      "postalCode": "14792",
      "city": "GRÖDINGE"
    },
    {
      "id": 11104,
      "postalCode": "14792",
      "city": "GRÖDINGE"
    },
    {
      "id": 11106,
      "postalCode": "14792",
      "city": "GRÖDINGE"
    },
    {
      "id": 11107,
      "postalCode": "14792",
      "city": "GRÖDINGE"
    },
    {
      "id": 11108,
      "postalCode": "14739",
      "city": "TUMBA"
    },
    {
      "id": 11109,
      "postalCode": "14760",
      "city": "UTTRAN"
    },
    {
      "id": 11111,
      "postalCode": "",
      "city": ""
    },
    {
      "id": 11112,
      "postalCode": "",
      "city": ""
    },
    {
      "id": 11113,
      "postalCode": "",
      "city": ""
    },
    {
      "id": 11114,
      "postalCode": "",
      "city": ""
    },
    {
      "id": 11115,
      "postalCode": "",
      "city": ""
    },
    {
      "id": 11116,
      "postalCode": "14568",
      "city": "NORSBORG"
    },
    {
      "id": 11117,
      "postalCode": "",
      "city": ""
    },
    {
      "id": 11118,
      "postalCode": "14792",
      "city": "GRÖDINGE"
    },
    {
      "id": 11119,
      "postalCode": "",
      "city": ""
    },
    {
      "id": 11120,
      "postalCode": "",
      "city": ""
    },
    {
      "id": 11121,
      "postalCode": "14733",
      "city": "TUMBA"
    },
    {
      "id": 11122,
      "postalCode": "14638",
      "city": "TULLINGE"
    },
    {
      "id": 11123,
      "postalCode": "14631",
      "city": "TULLINGE"
    },
    {
      "id": 11124,
      "postalCode": "14792",
      "city": "GRÖDINGE"
    },
    {
      "id": 11125,
      "postalCode": "14792",
      "city": "GRÖDINGE"
    },
    {
      "id": 11126,
      "postalCode": "14792",
      "city": "GRÖDINGE"
    },
    {
      "id": 11127,
      "postalCode": "14792",
      "city": "GRÖDINGE"
    },
    {
      "id": 11128,
      "postalCode": "14792",
      "city": "GRÖDINGE"
    },
    {
      "id": 11129,
      "postalCode": "14792",
      "city": "GRÖDINGE"
    },
    {
      "id": 11130,
      "postalCode": "14792",
      "city": "GRÖDINGE"
    },
    {
      "id": 11131,
      "postalCode": "14792",
      "city": "GRÖDINGE"
    },
    {
      "id": 11132,
      "postalCode": "14792",
      "city": "GRÖDINGE"
    },
    {
      "id": 11133,
      "postalCode": "14792",
      "city": "GRÖDINGE"
    },
    {
      "id": 11134,
      "postalCode": "14744",
      "city": "TUMBA"
    },
    {
      "id": 11135,
      "postalCode": "14792",
      "city": "GRÖDINGE"
    },
    {
      "id": 11136,
      "postalCode": "14792",
      "city": "GRÖDINGE"
    },
    {
      "id": 11137,
      "postalCode": "14771",
      "city": "GRÖDINGE"
    },
    {
      "id": 11138,
      "postalCode": "14792",
      "city": "GRÖDINGE"
    },
    {
      "id": 11139,
      "postalCode": "14792",
      "city": "GRÖDINGE"
    },
    {
      "id": 11140,
      "postalCode": "14792",
      "city": "GRÖDINGE"
    },
    {
      "id": 11141,
      "postalCode": "14792",
      "city": "GRÖDINGE"
    },
    {
      "id": 11142,
      "postalCode": "14652",
      "city": "TULLINGE"
    },
    {
      "id": 11143,
      "postalCode": "14792",
      "city": "GRÖDINGE"
    },
    {
      "id": 11144,
      "postalCode": "14792",
      "city": "GRÖDINGE"
    },
    {
      "id": 11145,
      "postalCode": "14792",
      "city": "GRÖDINGE"
    },
    {
      "id": 11146,
      "postalCode": "14792",
      "city": "GRÖDINGE"
    },
    {
      "id": 11147,
      "postalCode": "14763",
      "city": "UTTRAN"
    },
    {
      "id": 11151,
      "postalCode": "14792",
      "city": "GRÖDINGE"
    },
    {
      "id": 11152,
      "postalCode": "14792",
      "city": "GRÖDINGE"
    },
    {
      "id": 11153,
      "postalCode": "14792",
      "city": "GRÖDINGE"
    },
    {
      "id": 11154,
      "postalCode": "14792",
      "city": "GRÖDINGE"
    },
    {
      "id": 11155,
      "postalCode": "14792",
      "city": "GRÖDINGE"
    },
    {
      "id": 11156,
      "postalCode": "14770",
      "city": "GRÖDINGE"
    },
    {
      "id": 11157,
      "postalCode": "14792",
      "city": "GRÖDINGE"
    },
    {
      "id": 11158,
      "postalCode": "14763",
      "city": "UTTRAN"
    },
    {
      "id": 11159,
      "postalCode": "14792",
      "city": "GRÖDINGE"
    },
    {
      "id": 11160,
      "postalCode": "14746",
      "city": "TUMBA"
    },
    {
      "id": 11161,
      "postalCode": "14732",
      "city": "TUMBA"
    },
    {
      "id": 11162,
      "postalCode": "",
      "city": ""
    },
    {
      "id": 11163,
      "postalCode": "14743",
      "city": "TUMBA"
    },
    {
      "id": 11164,
      "postalCode": "14652",
      "city": "TULLINGE"
    },
    {
      "id": 11165,
      "postalCode": "14792",
      "city": "GRÖDINGE"
    },
    {
      "id": 11166,
      "postalCode": "14576",
      "city": "NORSBORG"
    },
    {
      "id": 11167,
      "postalCode": "14732",
      "city": "TULLINGE"
    },
    {
      "id": 11168,
      "postalCode": "14650",
      "city": "TULLINGE"
    },
    {
      "id": 11169,
      "postalCode": "14771",
      "city": "GRÖDINGE"
    },
    {
      "id": 11170,
      "postalCode": "14791",
      "city": "GRÖDINGE"
    },
    {
      "id": 11171,
      "postalCode": "14563",
      "city": "NORSBORG"
    },
    {
      "id": 11172,
      "postalCode": "14563",
      "city": "NORSBORG"
    },
    {
      "id": 11173,
      "postalCode": "14563",
      "city": "NORSBORG"
    },
    {
      "id": 11174,
      "postalCode": "14792",
      "city": "GRÖDINGE"
    },
    {
      "id": 11175,
      "postalCode": "14792",
      "city": "GRÖDINGE"
    },
    {
      "id": 11176,
      "postalCode": "14792",
      "city": "GRÖDINGE"
    },
    {
      "id": 11177,
      "postalCode": "14792",
      "city": "GRÖDINGE"
    },
    {
      "id": 11178,
      "postalCode": "14733",
      "city": "TUMBA"
    },
    {
      "id": 11179,
      "postalCode": "14733",
      "city": "TUMBA"
    },
    {
      "id": 11180,
      "postalCode": "14792",
      "city": "GRÖDINGE"
    },
    {
      "id": 11181,
      "postalCode": "14792",
      "city": "GRÖDINGE"
    },
    {
      "id": 11182,
      "postalCode": "14792",
      "city": "GRÖDINGE"
    },
    {
      "id": 11183,
      "postalCode": "14650",
      "city": "TULLINGE"
    },
    {
      "id": 11184,
      "postalCode": "14792",
      "city": "GRÖDINGE"
    },
    {
      "id": 11185,
      "postalCode": "14630",
      "city": "TULLINGE"
    },
    {
      "id": 11186,
      "postalCode": "14792",
      "city": "GRÖDINGE"
    },
    {
      "id": 11187,
      "postalCode": "14739",
      "city": "TUMBA"
    },
    {
      "id": 11188,
      "postalCode": "14792",
      "city": "GRÖDINGE"
    },
    {
      "id": 11189,
      "postalCode": "14792",
      "city": "GRÖDINGE"
    },
    {
      "id": 11190,
      "postalCode": "14792",
      "city": "GRÖDINGE"
    },
    {
      "id": 11191,
      "postalCode": "14792",
      "city": "GRÖDINGE"
    },
    {
      "id": 11192,
      "postalCode": "14792",
      "city": "GRÖDINGE"
    },
    {
      "id": 11193,
      "postalCode": "14792",
      "city": "GRÖDINGE"
    },
    {
      "id": 11194,
      "postalCode": "14792",
      "city": "GRÖDINGE"
    },
    {
      "id": 11195,
      "postalCode": "14792",
      "city": "GRÖDINGE"
    },
    {
      "id": 11196,
      "postalCode": "147 63",
      "city": "UTTRAN"
    },
    {
      "id": 11197,
      "postalCode": "14792",
      "city": "GRÖDINGE"
    },
    {
      "id": 11198,
      "postalCode": "14792",
      "city": "GRÖDINGE"
    },
    {
      "id": 11199,
      "postalCode": "14792",
      "city": "GRÖDINGE"
    },
    {
      "id": 11200,
      "postalCode": "14792",
      "city": "GRÖDINGE"
    },
    {
      "id": 11201,
      "postalCode": "14792",
      "city": "GRÖDINGE"
    },
    {
      "id": 11202,
      "postalCode": "14636",
      "city": "TULLINGE"
    },
    {
      "id": 11203,
      "postalCode": "14640",
      "city": "TULLINGE"
    },
    {
      "id": 11204,
      "postalCode": "14640",
      "city": "TULLINGE"
    },
    {
      "id": 11205,
      "postalCode": "14792",
      "city": "GRÖDINGE"
    },
    {
      "id": 11206,
      "postalCode": "14792",
      "city": "GRÖDINGE"
    },
    {
      "id": 11207,
      "postalCode": "14763",
      "city": "UTTRAN"
    },
    {
      "id": 11208,
      "postalCode": "14792",
      "city": "GRÖDINGE"
    },
    {
      "id": 11209,
      "postalCode": "14792",
      "city": "GRÖDINGE"
    },
    {
      "id": 11210,
      "postalCode": "14792",
      "city": "GRÖDINGE"
    },
    {
      "id": 11211,
      "postalCode": "14792",
      "city": "GRÖDINGE"
    },
    {
      "id": 11212,
      "postalCode": "14792",
      "city": "GRÖDINGE"
    },
    {
      "id": 11213,
      "postalCode": "14553",
      "city": "NORSBORG"
    },
    {
      "id": 11214,
      "postalCode": "14792",
      "city": "GRÖDINGE"
    },
    {
      "id": 11215,
      "postalCode": "14792",
      "city": "GRÖDINGE"
    },
    {
      "id": 11216,
      "postalCode": "14792",
      "city": "GRÖDINGE"
    },
    {
      "id": 11217,
      "postalCode": "14792",
      "city": "GRÖDINGE"
    },
    {
      "id": 11218,
      "postalCode": "14792",
      "city": "GRÖDINGE"
    },
    {
      "id": 11219,
      "postalCode": "14792",
      "city": "GRÖDINGE"
    },
    {
      "id": 11220,
      "postalCode": "14638",
      "city": "TULLINGE"
    },
    {
      "id": 11221,
      "postalCode": "14576",
      "city": "NORSBORG"
    },
    {
      "id": 11222,
      "postalCode": "14792",
      "city": "GRÖDINGE"
    },
    {
      "id": 11223,
      "postalCode": "14760",
      "city": "UTTRAN"
    },
    {
      "id": 11224,
      "postalCode": "14760",
      "city": "UTTRAN"
    },
    {
      "id": 11225,
      "postalCode": "14792",
      "city": "GRÖDINGE"
    },
    {
      "id": 11227,
      "postalCode": "14741",
      "city": "TUMBA"
    },
    {
      "id": 11228,
      "postalCode": "14743",
      "city": "TUMBA"
    },
    {
      "id": 11229,
      "postalCode": "14739",
      "city": "TUMBA"
    },
    {
      "id": 11230,
      "postalCode": "14739",
      "city": "TUMBA"
    },
    {
      "id": 11231,
      "postalCode": "14731",
      "city": "TUMBA"
    },
    {
      "id": 11232,
      "postalCode": "14743",
      "city": "TUMBA"
    },
    {
      "id": 11233,
      "postalCode": "14743",
      "city": "TUMBA"
    },
    {
      "id": 11234,
      "postalCode": "14731",
      "city": "TUMBA"
    },
    {
      "id": 11235,
      "postalCode": "14550",
      "city": "NORSBORG"
    },
    {
      "id": 11237,
      "postalCode": "14553",
      "city": "NORSBORG"
    },
    {
      "id": 11240,
      "postalCode": "",
      "city": ""
    },
    {
      "id": 11241,
      "postalCode": "",
      "city": ""
    },
    {
      "id": 11242,
      "postalCode": "14792",
      "city": "GRÖDINGE"
    },
    {
      "id": 11243,
      "postalCode": "14792",
      "city": "GRÖDINGE"
    },
    {
      "id": 11244,
      "postalCode": "14792",
      "city": "GRÖDINGE"
    },
    {
      "id": 11245,
      "postalCode": "14792",
      "city": "GRÖDINGE"
    },
    {
      "id": 11246,
      "postalCode": "14792",
      "city": "GRÖDINGE"
    },
    {
      "id": 11247,
      "postalCode": "14792",
      "city": "GRÖDINGE"
    },
    {
      "id": 11248,
      "postalCode": "14744",
      "city": "TUMBA"
    },
    {
      "id": 11249,
      "postalCode": "14792",
      "city": "GRÖDINGE"
    },
    {
      "id": 11250,
      "postalCode": "14792",
      "city": "GRÖDINGE"
    },
    {
      "id": 11251,
      "postalCode": "14792",
      "city": "GRÖDINGE"
    },
    {
      "id": 11252,
      "postalCode": "14590",
      "city": "NORSBORG"
    },
    {
      "id": 11253,
      "postalCode": "14590",
      "city": "NORSBORG"
    },
    {
      "id": 11254,
      "postalCode": "14590",
      "city": "NORSBORG"
    },
    {
      "id": 11255,
      "postalCode": "14590",
      "city": "NORSBORG"
    },
    {
      "id": 11256,
      "postalCode": "14763",
      "city": "UTTRAN"
    },
    {
      "id": 11257,
      "postalCode": "14650",
      "city": "TULLINGE"
    },
    {
      "id": 11258,
      "postalCode": "14792",
      "city": "GRÖDINGE"
    },
    {
      "id": 11259,
      "postalCode": "14792",
      "city": "GRÖDINGE"
    },
    {
      "id": 11260,
      "postalCode": "147 92",
      "city": "GRÖDINGE"
    },
    {
      "id": 11261,
      "postalCode": "14650",
      "city": "TULLINGE"
    },
    {
      "id": 11262,
      "postalCode": "14760",
      "city": "UTTRAN"
    },
    {
      "id": 11263,
      "postalCode": "14760",
      "city": "UTTRAN"
    },
    {
      "id": 11264,
      "postalCode": "14760",
      "city": "UTTRAN"
    },
    {
      "id": 11265,
      "postalCode": "14760",
      "city": "UTTRAN"
    },
    {
      "id": 11266,
      "postalCode": "14760",
      "city": "UTTRAN"
    },
    {
      "id": 11267,
      "postalCode": "14760",
      "city": "UTTRAN"
    },
    {
      "id": 11268,
      "postalCode": "14760",
      "city": "UTTRAN"
    },
    {
      "id": 11269,
      "postalCode": "14630",
      "city": "TULLINGE"
    },
    {
      "id": 11270,
      "postalCode": "14760",
      "city": "UTTRAN"
    },
    {
      "id": 11271,
      "postalCode": "14760",
      "city": "UTTRAN"
    },
    {
      "id": 11272,
      "postalCode": "14760",
      "city": "UTTRAN"
    },
    {
      "id": 11273,
      "postalCode": "14760",
      "city": "UTTRAN"
    },
    {
      "id": 11274,
      "postalCode": "14760",
      "city": "UTTRAN"
    },
    {
      "id": 11275,
      "postalCode": "14760",
      "city": "UTTRAN"
    },
    {
      "id": 11276,
      "postalCode": "14760",
      "city": "UTTRAN"
    },
    {
      "id": 11277,
      "postalCode": "14760",
      "city": "UTTRAN"
    },
    {
      "id": 11278,
      "postalCode": "14760",
      "city": "UTTRAN"
    },
    {
      "id": 11279,
      "postalCode": "14760",
      "city": "UTTRAN"
    },
    {
      "id": 11280,
      "postalCode": "14760",
      "city": "UTTRAN"
    },
    {
      "id": 11281,
      "postalCode": "14760",
      "city": "UTTRAN"
    },
    {
      "id": 11282,
      "postalCode": "14760",
      "city": "UTTRAN"
    },
    {
      "id": 11283,
      "postalCode": "14760",
      "city": "UTTRAN"
    },
    {
      "id": 11284,
      "postalCode": "14760",
      "city": "UTTRAN"
    },
    {
      "id": 11285,
      "postalCode": "14760",
      "city": "UTTRAN"
    },
    {
      "id": 11286,
      "postalCode": "14760",
      "city": "UTTRAN"
    },
    {
      "id": 11287,
      "postalCode": "14760",
      "city": "UTTRAN"
    },
    {
      "id": 11288,
      "postalCode": "14792",
      "city": "GRÖDINGE"
    },
    {
      "id": 11289,
      "postalCode": "14792",
      "city": "GRÖDINGE"
    },
    {
      "id": 11291,
      "postalCode": "14792",
      "city": "GRÖDINGE"
    },
    {
      "id": 11292,
      "postalCode": "14760",
      "city": "UTTRAN"
    },
    {
      "id": 11293,
      "postalCode": "14634",
      "city": "TULLINGE"
    },
    {
      "id": 11295,
      "postalCode": "14763",
      "city": "UTTRAN"
    },
    {
      "id": 11296,
      "postalCode": "14792",
      "city": "GRÖDINGE"
    },
    {
      "id": 11297,
      "postalCode": "14739",
      "city": "TUMBA"
    },
    {
      "id": 11298,
      "postalCode": "14739",
      "city": "TUMBA"
    },
    {
      "id": 11303,
      "postalCode": "14563",
      "city": "NORSBORG"
    },
    {
      "id": 11304,
      "postalCode": "14792",
      "city": "GRÖDINGE"
    },
    {
      "id": 11305,
      "postalCode": "14792",
      "city": "GRÖDINGE"
    },
    {
      "id": 11306,
      "postalCode": "14730",
      "city": "TUMBA"
    },
    {
      "id": 11307,
      "postalCode": "",
      "city": ""
    },
    {
      "id": 11308,
      "postalCode": "14792",
      "city": "GRÖDINGE"
    },
    {
      "id": 11309,
      "postalCode": "14792",
      "city": "GRÖDINGE"
    },
    {
      "id": 11310,
      "postalCode": "14792",
      "city": "GRÖDINGE"
    },
    {
      "id": 11311,
      "postalCode": "14792",
      "city": "GRÖDINGE"
    },
    {
      "id": 11312,
      "postalCode": "14744",
      "city": "TUMBA"
    },
    {
      "id": 11313,
      "postalCode": "14792",
      "city": "GRÖDINGE"
    },
    {
      "id": 11314,
      "postalCode": "14763",
      "city": "UTTRAN"
    },
    {
      "id": 11315,
      "postalCode": "14746",
      "city": "TUMBA"
    },
    {
      "id": 11316,
      "postalCode": "14746",
      "city": "TUMBA"
    },
    {
      "id": 11317,
      "postalCode": "14771",
      "city": "GRÖDINGE"
    },
    {
      "id": 11318,
      "postalCode": "14746",
      "city": "TUMBA"
    },
    {
      "id": 11319,
      "postalCode": "145 76",
      "city": "NORSBORG"
    },
    {
      "id": 11320,
      "postalCode": "146 37",
      "city": "TULLINGE"
    },
    {
      "id": 11321,
      "postalCode": "147 92",
      "city": "GRÖDINGE"
    },
    {
      "id": 11322,
      "postalCode": "147 46",
      "city": "TUMBA"
    },
    {
      "id": 11323,
      "postalCode": "147 46",
      "city": "TUMBA"
    },
    {
      "id": 11324,
      "postalCode": "14570",
      "city": "NORSBORG"
    },
    {
      "id": 11325,
      "postalCode": "14570",
      "city": "NORSBORG"
    },
    {
      "id": 11326,
      "postalCode": "14570",
      "city": "NORSBORG"
    },
    {
      "id": 11327,
      "postalCode": "14792",
      "city": "GRÖDINGE"
    },
    {
      "id": 11328,
      "postalCode": "14792",
      "city": "GRÖDINGE"
    },
    {
      "id": 11329,
      "postalCode": "146 48",
      "city": "TULLINGE"
    },
    {
      "id": 11330,
      "postalCode": "146 34",
      "city": "TULLINGE"
    },
    {
      "id": 11331,
      "postalCode": "147 46",
      "city": "TUMBA"
    },
    {
      "id": 11332,
      "postalCode": "147 46",
      "city": "TUMBA"
    },
    {
      "id": 11333,
      "postalCode": "147 46",
      "city": "TUMBA"
    },
    {
      "id": 11334,
      "postalCode": "147 46",
      "city": "TUMBA"
    },
    {
      "id": 11335,
      "postalCode": "146 38",
      "city": "TULLINGE"
    },
    {
      "id": 11336,
      "postalCode": "146 34",
      "city": "TULLINGE"
    },
    {
      "id": 11337,
      "postalCode": "146 34",
      "city": "TULLINGE"
    },
    {
      "id": 11338,
      "postalCode": "146 40",
      "city": "TULLINGE"
    },
    {
      "id": 11339,
      "postalCode": "146 40",
      "city": "TULLINGE"
    },
    {
      "id": 11340,
      "postalCode": "147 44",
      "city": "TUMBA"
    },
    {
      "id": 11341,
      "postalCode": "14763",
      "city": "UTTRAN"
    },
    {
      "id": 11342,
      "postalCode": "145 53",
      "city": "NORSBORG"
    },
    {
      "id": 11343,
      "postalCode": "14553",
      "city": "NORSBORG"
    },
    {
      "id": 11344,
      "postalCode": "14553",
      "city": "NORSBORG"
    },
    {
      "id": 11345,
      "postalCode": "14792",
      "city": "GRÖDINGE"
    },
    {
      "id": 11346,
      "postalCode": "14763",
      "city": "UTTRAN"
    },
    {
      "id": 11347,
      "postalCode": "146 40",
      "city": "TULLINGE"
    },
    {
      "id": 11348,
      "postalCode": "147 46",
      "city": "TUMBA"
    },
    {
      "id": 11349,
      "postalCode": "147 46",
      "city": "TUMBA"
    },
    {
      "id": 11350,
      "postalCode": "147 46",
      "city": "TUMBA"
    },
    {
      "id": 11351,
      "postalCode": "146 37",
      "city": "TULLINGE"
    },
    {
      "id": 11352,
      "postalCode": "146 52",
      "city": "TULLINGE"
    },
    {
      "id": 11353,
      "postalCode": "147 60",
      "city": "UTTRAN"
    },
    {
      "id": 11354,
      "postalCode": "146 54",
      "city": "TULLINGE"
    },
    {
      "id": 11355,
      "postalCode": "146 34",
      "city": "TULLINGE"
    },
    {
      "id": 11356,
      "postalCode": "146 34",
      "city": "TULLINGE"
    },
    {
      "id": 11357,
      "postalCode": "146 34",
      "city": "TULLINGE"
    },
    {
      "id": 11358,
      "postalCode": "14650",
      "city": "TULLINGE"
    },
    {
      "id": 11359,
      "postalCode": "147 92",
      "city": "GRÖDINGE"
    },
    {
      "id": 11360,
      "postalCode": "147 92",
      "city": "GRÖDINGE"
    },
    {
      "id": 11361,
      "postalCode": "14792",
      "city": "GRÖDINGE"
    },
    {
      "id": 11362,
      "postalCode": "147 92",
      "city": "GRÖDINGE"
    },
    {
      "id": 11363,
      "postalCode": "147 34",
      "city": "TUMBA"
    },
    {
      "id": 11364,
      "postalCode": "147 60",
      "city": "UTTRAN"
    },
    {
      "id": 11365,
      "postalCode": "147 92",
      "city": "GRÖDINGE"
    },
    {
      "id": 11366,
      "postalCode": "147 63",
      "city": "UTTRAN"
    },
    {
      "id": 11367,
      "postalCode": "146 34",
      "city": "TULLINGE"
    },
    {
      "id": 11368,
      "postalCode": "146 34",
      "city": "TULLINGE"
    },
    {
      "id": 11369,
      "postalCode": "147 63",
      "city": "UTTRAN"
    },
    {
      "id": 11370,
      "postalCode": "147 92",
      "city": "GRÖDINGE"
    },
    {
      "id": 11371,
      "postalCode": "147 92",
      "city": "GRÖDINGE"
    },
    {
      "id": 11372,
      "postalCode": "147 44",
      "city": "TUMBA"
    },
    {
      "id": 11373,
      "postalCode": "",
      "city": ""
    },
    {
      "id": 11374,
      "postalCode": "147 92",
      "city": "GRÖDINGE"
    },
    {
      "id": 11375,
      "postalCode": "147 31",
      "city": "TUMBA"
    },
    {
      "id": 11376,
      "postalCode": "14792",
      "city": "GRÖDINGE"
    },
    {
      "id": 11377,
      "postalCode": "14763",
      "city": "UTTRAN"
    },
    {
      "id": 11378,
      "postalCode": "14744",
      "city": "TUMBA"
    },
    {
      "id": 11379,
      "postalCode": "147 63",
      "city": "UTTRAN"
    },
    {
      "id": 11380,
      "postalCode": "147 92",
      "city": "GRÖDINGE"
    },
    {
      "id": 11381,
      "postalCode": "147 92",
      "city": "GRÖDINGE"
    },
    {
      "id": 11382,
      "postalCode": "147 92",
      "city": "GRÖDINGE"
    },
    {
      "id": 11383,
      "postalCode": "14792",
      "city": "GRÖDINGE"
    },
    {
      "id": 11384,
      "postalCode": "146 40",
      "city": "TULLINGE"
    },
    {
      "id": 11385,
      "postalCode": "14650",
      "city": "TULLINGE"
    },
    {
      "id": 11386,
      "postalCode": "14743",
      "city": "TUMBA"
    },
    {
      "id": 11387,
      "postalCode": "147 33",
      "city": "TUMBA"
    },
    {
      "id": 11388,
      "postalCode": "14743",
      "city": "TUMBA"
    },
    {
      "id": 11389,
      "postalCode": "14650",
      "city": "TULLINGE"
    },
    {
      "id": 11390,
      "postalCode": "14652",
      "city": "TULLINGE"
    },
    {
      "id": 11391,
      "postalCode": "146 53",
      "city": "TULLINGE"
    },
    {
      "id": 11392,
      "postalCode": "146 53",
      "city": "TULLINGE"
    },
    {
      "id": 11393,
      "postalCode": "146 53",
      "city": "TULLINGE"
    },
    {
      "id": 11394,
      "postalCode": "147 60",
      "city": "UTTRAN"
    },
    {
      "id": 11395,
      "postalCode": "14792",
      "city": "GRÖDINGE"
    },
    {
      "id": 11396,
      "postalCode": "147 60",
      "city": "UTTRAN"
    },
    {
      "id": 11397,
      "postalCode": "14640",
      "city": "TULLINGE"
    },
    {
      "id": 11398,
      "postalCode": "146 48",
      "city": "TULLINGE"
    },
    {
      "id": 11399,
      "postalCode": "147 31",
      "city": "TUMBA"
    },
    {
      "id": 11400,
      "postalCode": "146 53",
      "city": "TULLINGE"
    },
    {
      "id": 11401,
      "postalCode": "146 53",
      "city": "TULLINGE"
    },
    {
      "id": 11402,
      "postalCode": "14637",
      "city": "TULLINGE"
    },
    {
      "id": 11403,
      "postalCode": "14650",
      "city": "TULLINGE"
    },
    {
      "id": 11404,
      "postalCode": "14743",
      "city": "TUMBA"
    },
    {
      "id": 11405,
      "postalCode": "146 31",
      "city": "TULLINGE"
    },
    {
      "id": 11406,
      "postalCode": "14553",
      "city": "NORSBORG"
    },
    {
      "id": 11407,
      "postalCode": "14771",
      "city": "GRÖDINGE"
    },
    {
      "id": 11408,
      "postalCode": "14792",
      "city": "GRÖDINGE"
    },
    {
      "id": 11409,
      "postalCode": "14650",
      "city": "TULLINGE"
    },
    {
      "id": 11410,
      "postalCode": "14733",
      "city": "TUMBA"
    },
    {
      "id": 11411,
      "postalCode": "14763",
      "city": "TUMBA"
    },
    {
      "id": 11412,
      "postalCode": "14743",
      "city": "TUMBA"
    },
    {
      "id": 11413,
      "postalCode": "14654",
      "city": "TULLINGE"
    },
    {
      "id": 11414,
      "postalCode": "14654",
      "city": "TULLINGE"
    },
    {
      "id": 11415,
      "postalCode": "14654",
      "city": "TULLINGE"
    },
    {
      "id": 11416,
      "postalCode": "14653",
      "city": "TULLINGE"
    },
    {
      "id": 11417,
      "postalCode": "14653",
      "city": "TULLINGE"
    },
    {
      "id": 11418,
      "postalCode": "14654",
      "city": "TULLINGE"
    },
    {
      "id": 11419,
      "postalCode": "14654",
      "city": "TULLINGE"
    },
    {
      "id": 11420,
      "postalCode": "14654",
      "city": "TULLINGE"
    },
    {
      "id": 11421,
      "postalCode": "14654",
      "city": "TULLINGE"
    },
    {
      "id": 11422,
      "postalCode": "14654",
      "city": "TULLINGE"
    },
    {
      "id": 11423,
      "postalCode": "14654",
      "city": "TULLINGE"
    },
    {
      "id": 11424,
      "postalCode": "14654",
      "city": "TULLINGE"
    },
    {
      "id": 11425,
      "postalCode": "14654",
      "city": "TULLINGE"
    },
    {
      "id": 11426,
      "postalCode": "14654",
      "city": "TULLINGE"
    },
    {
      "id": 11427,
      "postalCode": "14654",
      "city": "TULLINGE"
    },
    {
      "id": 11428,
      "postalCode": "14654",
      "city": "TULLINGE"
    },
    {
      "id": 11429,
      "postalCode": "14654",
      "city": "TULLINGE"
    },
    {
      "id": 11430,
      "postalCode": "14654",
      "city": "TULLINGE"
    },
    {
      "id": 11431,
      "postalCode": "14654",
      "city": "TULLINGE"
    },
    {
      "id": 11432,
      "postalCode": "14654",
      "city": "TULLINGE"
    },
    {
      "id": 11433,
      "postalCode": "14654",
      "city": "TULLINGE"
    },
    {
      "id": 11434,
      "postalCode": "14654",
      "city": "TULLINGE"
    },
    {
      "id": 11435,
      "postalCode": "14654",
      "city": "TULLINGE"
    },
    {
      "id": 11436,
      "postalCode": "14654",
      "city": "TULLINGE"
    },
    {
      "id": 11437,
      "postalCode": "14654",
      "city": "TULLINGE"
    },
    {
      "id": 11438,
      "postalCode": "14654",
      "city": "TULLINGE"
    },
    {
      "id": 11439,
      "postalCode": "14654",
      "city": "TULLINGE"
    },
    {
      "id": 11440,
      "postalCode": "14654",
      "city": "TULLINGE"
    },
    {
      "id": 11441,
      "postalCode": "14654",
      "city": "TULLINGE"
    },
    {
      "id": 11442,
      "postalCode": "14654",
      "city": "TULLINGE"
    },
    {
      "id": 11443,
      "postalCode": "14654",
      "city": "TULLINGE"
    },
    {
      "id": 11444,
      "postalCode": "14653",
      "city": "TULLINGE"
    },
    {
      "id": 11445,
      "postalCode": "14654",
      "city": "TULLINGE"
    },
    {
      "id": 11446,
      "postalCode": "14654",
      "city": "TULLINGE"
    },
    {
      "id": 11447,
      "postalCode": "14653",
      "city": "TULLINGE"
    },
    {
      "id": 11448,
      "postalCode": "14654",
      "city": "TULLINGE"
    },
    {
      "id": 11449,
      "postalCode": "14653",
      "city": "TULLINGE"
    },
    {
      "id": 11450,
      "postalCode": "14654",
      "city": "TULLINGE"
    },
    {
      "id": 11451,
      "postalCode": "14654",
      "city": "TULLINGE"
    },
    {
      "id": 11452,
      "postalCode": "14653",
      "city": "TULLINGE"
    },
    {
      "id": 11453,
      "postalCode": "14654",
      "city": "TULLINGE"
    },
    {
      "id": 11454,
      "postalCode": "14653",
      "city": "TULLINGE"
    },
    {
      "id": 11455,
      "postalCode": "14654",
      "city": "TULLINGE"
    },
    {
      "id": 11456,
      "postalCode": "14653",
      "city": "TULLINGE"
    },
    {
      "id": 11457,
      "postalCode": "14654",
      "city": "TULLINGE"
    },
    {
      "id": 11458,
      "postalCode": "14654",
      "city": "TULLINGE"
    },
    {
      "id": 11459,
      "postalCode": "14654",
      "city": "TULLINGE"
    },
    {
      "id": 11460,
      "postalCode": "14654",
      "city": "TULLINGE"
    },
    {
      "id": 11461,
      "postalCode": "14654",
      "city": "TULLINGE"
    },
    {
      "id": 11462,
      "postalCode": "14654",
      "city": "TULLINGE"
    },
    {
      "id": 11463,
      "postalCode": "14653",
      "city": "TULLINGE"
    },
    {
      "id": 11464,
      "postalCode": "14654",
      "city": "TULLINGE"
    },
    {
      "id": 11465,
      "postalCode": "14653",
      "city": "TULLINGE"
    },
    {
      "id": 11466,
      "postalCode": "14631",
      "city": "TULLINGE"
    },
    {
      "id": 11467,
      "postalCode": "14630",
      "city": "TULLINGE"
    },
    {
      "id": 11468,
      "postalCode": "14630",
      "city": "TULLINGE"
    },
    {
      "id": 11469,
      "postalCode": "14630",
      "city": "TULLINGE"
    },
    {
      "id": 11470,
      "postalCode": "14630",
      "city": "TULLINGE"
    },
    {
      "id": 11471,
      "postalCode": "14630",
      "city": "TULLINGE"
    },
    {
      "id": 11472,
      "postalCode": "14630",
      "city": "TULLINGE"
    },
    {
      "id": 11473,
      "postalCode": "14559",
      "city": "NORSBORG"
    },
    {
      "id": 11474,
      "postalCode": "14559",
      "city": "NORSBORG"
    },
    {
      "id": 11475,
      "postalCode": "14557",
      "city": "NORSBORG"
    },
    {
      "id": 11476,
      "postalCode": "14648",
      "city": "TULLINGE"
    },
    {
      "id": 11477,
      "postalCode": "14638",
      "city": "TULLINGE"
    },
    {
      "id": 11478,
      "postalCode": "14638",
      "city": "TULLINGE"
    },
    {
      "id": 11479,
      "postalCode": "14638",
      "city": "TULLINGE"
    },
    {
      "id": 11480,
      "postalCode": "14638",
      "city": "TULLINGE"
    },
    {
      "id": 11481,
      "postalCode": "14638",
      "city": "TULLINGE"
    },
    {
      "id": 11482,
      "postalCode": "14638",
      "city": "TULLINGE"
    },
    {
      "id": 11483,
      "postalCode": "14638",
      "city": "TULLINGE"
    },
    {
      "id": 11484,
      "postalCode": "14638",
      "city": "TULLINGE"
    },
    {
      "id": 11485,
      "postalCode": "14638",
      "city": "TULLINGE"
    },
    {
      "id": 11486,
      "postalCode": "14638",
      "city": "TULLINGE"
    },
    {
      "id": 11487,
      "postalCode": "14638",
      "city": "TULLINGE"
    },
    {
      "id": 11488,
      "postalCode": "14638",
      "city": "TULLINGE"
    },
    {
      "id": 11489,
      "postalCode": "14638",
      "city": "TULLINGE"
    },
    {
      "id": 11490,
      "postalCode": "14638",
      "city": "TULLINGE"
    },
    {
      "id": 11491,
      "postalCode": "14638",
      "city": "TULLINGE"
    },
    {
      "id": 11492,
      "postalCode": "14638",
      "city": "TULLINGE"
    },
    {
      "id": 11493,
      "postalCode": "14638",
      "city": "TULLINGE"
    },
    {
      "id": 11494,
      "postalCode": "14638",
      "city": "TULLINGE"
    },
    {
      "id": 11495,
      "postalCode": "14638",
      "city": "TULLINGE"
    },
    {
      "id": 11496,
      "postalCode": "14638",
      "city": "TULLINGE"
    },
    {
      "id": 11497,
      "postalCode": "14763",
      "city": "TUMBA"
    },
    {
      "id": 11498,
      "postalCode": "14763",
      "city": "TUMBA"
    },
    {
      "id": 11499,
      "postalCode": "14763",
      "city": "TUMBA"
    },
    {
      "id": 11500,
      "postalCode": "14763",
      "city": "TUMBA"
    },
    {
      "id": 11501,
      "postalCode": "14731",
      "city": "TUMBA"
    },
    {
      "id": 11502,
      "postalCode": "14648",
      "city": "TULLINGE"
    },
    {
      "id": 11503,
      "postalCode": "14648",
      "city": "TULLINGE"
    },
    {
      "id": 11504,
      "postalCode": "14650",
      "city": "TULLINGE"
    },
    {
      "id": 11505,
      "postalCode": "14650",
      "city": "TULLINGE"
    },
    {
      "id": 11506,
      "postalCode": "14650",
      "city": "TULLINGE"
    },
    {
      "id": 11507,
      "postalCode": "14650",
      "city": "TULLINGE"
    },
    {
      "id": 11508,
      "postalCode": "14650",
      "city": "TULLINGE"
    },
    {
      "id": 11509,
      "postalCode": "14733",
      "city": "TUMBA"
    },
    {
      "id": 11510,
      "postalCode": "14733",
      "city": "TUMBA"
    },
    {
      "id": 11511,
      "postalCode": "14733",
      "city": "TUMBA"
    },
    {
      "id": 11512,
      "postalCode": "14733",
      "city": "TUMBA"
    },
    {
      "id": 11513,
      "postalCode": "14733",
      "city": "TUMBA"
    },
    {
      "id": 11514,
      "postalCode": "14733",
      "city": "TUMBA"
    },
    {
      "id": 11515,
      "postalCode": "14733",
      "city": "TUMBA"
    },
    {
      "id": 11516,
      "postalCode": "14653",
      "city": "TULLINGE"
    },
    {
      "id": 11517,
      "postalCode": "14653",
      "city": "TULLINGE"
    },
    {
      "id": 11518,
      "postalCode": "14653",
      "city": "TULLINGE"
    },
    {
      "id": 11519,
      "postalCode": "14634",
      "city": "TULLINGE"
    },
    {
      "id": 11520,
      "postalCode": "14634",
      "city": "TULLINGE"
    },
    {
      "id": 11521,
      "postalCode": "14634",
      "city": "TULLINGE"
    },
    {
      "id": 11522,
      "postalCode": "14634",
      "city": "TULLINGE"
    },
    {
      "id": 11523,
      "postalCode": "14634",
      "city": "TULLINGE"
    },
    {
      "id": 11524,
      "postalCode": "14634",
      "city": "TULLINGE"
    },
    {
      "id": 11525,
      "postalCode": "14792",
      "city": "TUMBA"
    },
    {
      "id": 11526,
      "postalCode": "14752",
      "city": "TUMBA"
    },
    {
      "id": 11527,
      "postalCode": "14792",
      "city": "GRÖDINGE"
    },
    {
      "id": 11528,
      "postalCode": "14648",
      "city": "TULLINGE"
    },
    {
      "id": 11529,
      "postalCode": "14648",
      "city": "TULLINGE"
    },
    {
      "id": 11530,
      "postalCode": "14648",
      "city": "TULLINGE"
    },
    {
      "id": 11531,
      "postalCode": "14648",
      "city": "TULLINGE"
    },
    {
      "id": 11532,
      "postalCode": "14652",
      "city": "TULLINGE"
    },
    {
      "id": 11533,
      "postalCode": "14652",
      "city": "TULLINGE"
    },
    {
      "id": 11534,
      "postalCode": "14652",
      "city": "TULLINGE"
    },
    {
      "id": 11535,
      "postalCode": "14652",
      "city": "TULLINGE"
    },
    {
      "id": 11536,
      "postalCode": "14652",
      "city": "TULLINGE"
    },
    {
      "id": 11537,
      "postalCode": "14652",
      "city": "TULLINGE"
    },
    {
      "id": 11538,
      "postalCode": "14652",
      "city": "TULLINGE"
    },
    {
      "id": 11539,
      "postalCode": "14652",
      "city": "TULLINGE"
    },
    {
      "id": 11540,
      "postalCode": "14652",
      "city": "TULLINGE"
    },
    {
      "id": 11541,
      "postalCode": "14652",
      "city": "TULLINGE"
    },
    {
      "id": 11542,
      "postalCode": "14652",
      "city": "TULLINGE"
    },
    {
      "id": 11543,
      "postalCode": "14652",
      "city": "TULLINGE"
    },
    {
      "id": 11544,
      "postalCode": "14652",
      "city": "TULLINGE"
    },
    {
      "id": 11545,
      "postalCode": "14590",
      "city": "NORSBORG"
    },
    {
      "id": 11546,
      "postalCode": "14744",
      "city": "TUMBA"
    },
    {
      "id": 11547,
      "postalCode": "14560",
      "city": "NORSBORG"
    },
    {
      "id": 11548,
      "postalCode": "14560",
      "city": "NORSBORG"
    },
    {
      "id": 11549,
      "postalCode": "14560",
      "city": "NORSBORG"
    },
    {
      "id": 11550,
      "postalCode": "14560",
      "city": "NORSBORG"
    },
    {
      "id": 11551,
      "postalCode": "14560",
      "city": "NORSBORG"
    },
    {
      "id": 11552,
      "postalCode": "14560",
      "city": "NORSBORG"
    },
    {
      "id": 11553,
      "postalCode": "14763",
      "city": "TUMBA"
    },
    {
      "id": 11554,
      "postalCode": "14763",
      "city": "TUMBA"
    },
    {
      "id": 11555,
      "postalCode": "14763",
      "city": "TUMBA"
    },
    {
      "id": 11556,
      "postalCode": "14763",
      "city": "TUMBA"
    },
    {
      "id": 11557,
      "postalCode": "14763",
      "city": "TUMBA"
    },
    {
      "id": 11558,
      "postalCode": "14763",
      "city": "TUMBA"
    },
    {
      "id": 11559,
      "postalCode": "14763",
      "city": "TUMBA"
    },
    {
      "id": 11560,
      "postalCode": "14763",
      "city": "TUMBA"
    },
    {
      "id": 11561,
      "postalCode": "14763",
      "city": "TUMBA"
    },
    {
      "id": 11562,
      "postalCode": "14763",
      "city": "TUMBA"
    },
    {
      "id": 11563,
      "postalCode": "14763",
      "city": "TUMBA"
    },
    {
      "id": 11564,
      "postalCode": "14763",
      "city": "TUMBA"
    },
    {
      "id": 11565,
      "postalCode": "14763",
      "city": "TUMBA"
    },
    {
      "id": 11566,
      "postalCode": "14763",
      "city": "TUMBA"
    },
    {
      "id": 11567,
      "postalCode": "14763",
      "city": "TUMBA"
    },
    {
      "id": 11568,
      "postalCode": "14763",
      "city": "TUMBA"
    },
    {
      "id": 11569,
      "postalCode": "14763",
      "city": "TUMBA"
    },
    {
      "id": 11570,
      "postalCode": "14763",
      "city": "TUMBA"
    },
    {
      "id": 11571,
      "postalCode": "14763",
      "city": "TUMBA"
    },
    {
      "id": 11572,
      "postalCode": "146 37",
      "city": "TULLINGE"
    },
    {
      "id": 11573,
      "postalCode": "146 37",
      "city": "TULLINGE"
    },
    {
      "id": 11574,
      "postalCode": "146 37",
      "city": "TULLINGE"
    },
    {
      "id": 11575,
      "postalCode": "14731",
      "city": "TUMBA"
    },
    {
      "id": 11576,
      "postalCode": "14731",
      "city": "TUMBA"
    },
    {
      "id": 11577,
      "postalCode": "14731",
      "city": "TUMBA"
    },
    {
      "id": 11578,
      "postalCode": "14731",
      "city": "TUMBA"
    },
    {
      "id": 11579,
      "postalCode": "14731",
      "city": "TUMBA"
    },
    {
      "id": 11580,
      "postalCode": "14733",
      "city": "TUMBA"
    },
    {
      "id": 11581,
      "postalCode": "14638",
      "city": "TULLINGE"
    },
    {
      "id": 11582,
      "postalCode": "14638",
      "city": "TULLINGE"
    },
    {
      "id": 11583,
      "postalCode": "14638",
      "city": "TULLINGE"
    },
    {
      "id": 11584,
      "postalCode": "14638",
      "city": "TULLINGE"
    },
    {
      "id": 11585,
      "postalCode": "14638",
      "city": "TULLINGE"
    },
    {
      "id": 11586,
      "postalCode": "14638",
      "city": "TULLINGE"
    },
    {
      "id": 11587,
      "postalCode": "14763",
      "city": "TUMBA"
    },
    {
      "id": 11588,
      "postalCode": "14763",
      "city": "TUMBA"
    },
    {
      "id": 11589,
      "postalCode": "14763",
      "city": "TUMBA"
    },
    {
      "id": 11590,
      "postalCode": "14763",
      "city": "TUMBA"
    },
    {
      "id": 11592,
      "postalCode": "14763",
      "city": "TUMBA"
    },
    {
      "id": 11593,
      "postalCode": "14763",
      "city": "TUMBA"
    },
    {
      "id": 11594,
      "postalCode": "14638",
      "city": "TULLINGE"
    },
    {
      "id": 11595,
      "postalCode": "14638",
      "city": "TULLINGE"
    },
    {
      "id": 11596,
      "postalCode": "14638",
      "city": "TULLINGE"
    },
    {
      "id": 11597,
      "postalCode": "14638",
      "city": "TULLINGE"
    },
    {
      "id": 11598,
      "postalCode": "14638",
      "city": "TULLINGE"
    },
    {
      "id": 11599,
      "postalCode": "14638",
      "city": "TULLINGE"
    },
    {
      "id": 11600,
      "postalCode": "14638",
      "city": "TULLINGE"
    },
    {
      "id": 11601,
      "postalCode": "14638",
      "city": "TULLINGE"
    },
    {
      "id": 11602,
      "postalCode": "14638",
      "city": "TULLINGE"
    },
    {
      "id": 11603,
      "postalCode": "14638",
      "city": "TULLINGE"
    },
    {
      "id": 11604,
      "postalCode": "14638",
      "city": "TULLINGE"
    },
    {
      "id": 11605,
      "postalCode": "14638",
      "city": "TULLINGE"
    },
    {
      "id": 11606,
      "postalCode": "14638",
      "city": "TULLINGE"
    },
    {
      "id": 11607,
      "postalCode": "14638",
      "city": "TULLINGE"
    },
    {
      "id": 11608,
      "postalCode": "14638",
      "city": "TULLINGE"
    },
    {
      "id": 11609,
      "postalCode": "14638",
      "city": "TULLINGE"
    },
    {
      "id": 11610,
      "postalCode": "14638",
      "city": "TULLINGE"
    },
    {
      "id": 11611,
      "postalCode": "14638",
      "city": "TULLINGE"
    },
    {
      "id": 11612,
      "postalCode": "14638",
      "city": "TULLINGE"
    },
    {
      "id": 11613,
      "postalCode": "14638",
      "city": "TULLINGE"
    },
    {
      "id": 11614,
      "postalCode": "14638",
      "city": "TULLINGE"
    },
    {
      "id": 11615,
      "postalCode": "14638",
      "city": "TULLINGE"
    },
    {
      "id": 11616,
      "postalCode": "14638",
      "city": "TULLINGE"
    },
    {
      "id": 11617,
      "postalCode": "14638",
      "city": "TULLINGE"
    },
    {
      "id": 11618,
      "postalCode": "14638",
      "city": "TULLINGE"
    },
    {
      "id": 11619,
      "postalCode": "14638",
      "city": "TULLINGE"
    },
    {
      "id": 11620,
      "postalCode": "14638",
      "city": "TULLINGE"
    },
    {
      "id": 11622,
      "postalCode": "14638",
      "city": "TULLINGE"
    },
    {
      "id": 11623,
      "postalCode": "14638",
      "city": "TULLINGE"
    },
    {
      "id": 11624,
      "postalCode": "14638",
      "city": "TULLINGE"
    },
    {
      "id": 11625,
      "postalCode": "14638",
      "city": "TULLINGE"
    },
    {
      "id": 11626,
      "postalCode": "14638",
      "city": "TULLINGE"
    },
    {
      "id": 11627,
      "postalCode": "14638",
      "city": "TULLINGE"
    },
    {
      "id": 11628,
      "postalCode": "14638",
      "city": "TULLINGE"
    },
    {
      "id": 11629,
      "postalCode": "14638",
      "city": "TULLINGE"
    },
    {
      "id": 11630,
      "postalCode": "14638",
      "city": "TULLINGE"
    },
    {
      "id": 11631,
      "postalCode": "14638",
      "city": "TULLINGE"
    },
    {
      "id": 11632,
      "postalCode": "14733",
      "city": "TUMBA"
    },
    {
      "id": 11633,
      "postalCode": "14650",
      "city": "TULLINGE"
    },
    {
      "id": 11634,
      "postalCode": "14650",
      "city": "TULLINGE"
    },
    {
      "id": 11635,
      "postalCode": "14650",
      "city": "TULLINGE"
    },
    {
      "id": 11636,
      "postalCode": "14650",
      "city": "TULLINGE"
    },
    {
      "id": 11637,
      "postalCode": "14754",
      "city": "TUMBA"
    },
    {
      "id": 11638,
      "postalCode": "14754",
      "city": "TUMBA"
    },
    {
      "id": 11639,
      "postalCode": "14754",
      "city": "TUMBA"
    },
    {
      "id": 11640,
      "postalCode": "14731",
      "city": "TUMBA"
    },
    {
      "id": 11641,
      "postalCode": "14648",
      "city": "TULLINGE"
    },
    {
      "id": 11642,
      "postalCode": "14648",
      "city": "TULLINGE"
    },
    {
      "id": 11643,
      "postalCode": "14648",
      "city": "TULLINGE"
    },
    {
      "id": 11644,
      "postalCode": "14648",
      "city": "TULLINGE"
    },
    {
      "id": 11645,
      "postalCode": "14646",
      "city": "TULLINGE"
    },
    {
      "id": 11646,
      "postalCode": "14650",
      "city": "TULLINGE"
    },
    {
      "id": 11647,
      "postalCode": "14650",
      "city": "TULLINGE"
    },
    {
      "id": 11648,
      "postalCode": "14650",
      "city": "TULLINGE"
    },
    {
      "id": 11649,
      "postalCode": "14650",
      "city": "TULLINGE"
    },
    {
      "id": 11650,
      "postalCode": "14650",
      "city": "TULLINGE"
    },
    {
      "id": 11651,
      "postalCode": "14650",
      "city": "TULLINGE"
    },
    {
      "id": 11652,
      "postalCode": "14650",
      "city": "TULLINGE"
    },
    {
      "id": 11653,
      "postalCode": "14650",
      "city": "TULLINGE"
    },
    {
      "id": 11654,
      "postalCode": "14569",
      "city": "NORSBORG"
    },
    {
      "id": 11655,
      "postalCode": "14731",
      "city": "TUMBA"
    },
    {
      "id": 11656,
      "postalCode": "14731",
      "city": "TUMBA"
    },
    {
      "id": 11657,
      "postalCode": "14731",
      "city": "TUMBA"
    },
    {
      "id": 11658,
      "postalCode": "14732",
      "city": "TUMBA"
    },
    {
      "id": 11659,
      "postalCode": "14732",
      "city": "TUMBA"
    },
    {
      "id": 11660,
      "postalCode": "14732",
      "city": "TUMBA"
    },
    {
      "id": 11661,
      "postalCode": "14732",
      "city": "TUMBA"
    },
    {
      "id": 11662,
      "postalCode": "14732",
      "city": "TUMBA"
    }
  ]