[
    {
      "id": 5241,
      "postalCode": "14733",
      "city": "TUMBA"
    },
    {
      "id": 5242,
      "postalCode": "14733",
      "city": "TUMBA"
    },
    {
      "id": 5243,
      "postalCode": "14733",
      "city": "TUMBA"
    },
    {
      "id": 5244,
      "postalCode": "14733",
      "city": "TUMBA"
    },
    {
      "id": 5245,
      "postalCode": "14733",
      "city": "TUMBA"
    },
    {
      "id": 5246,
      "postalCode": "14733",
      "city": "TUMBA"
    },
    {
      "id": 5247,
      "postalCode": "14733",
      "city": "TUMBA"
    },
    {
      "id": 5248,
      "postalCode": "14733",
      "city": "TUMBA"
    },
    {
      "id": 5249,
      "postalCode": "14733",
      "city": "TUMBA"
    },
    {
      "id": 5250,
      "postalCode": "14733",
      "city": "TUMBA"
    },
    {
      "id": 5251,
      "postalCode": "14733",
      "city": "TUMBA"
    },
    {
      "id": 5252,
      "postalCode": "14733",
      "city": "TUMBA"
    },
    {
      "id": 5253,
      "postalCode": "14754",
      "city": "TUMBA"
    },
    {
      "id": 5254,
      "postalCode": "14754",
      "city": "TUMBA"
    },
    {
      "id": 5255,
      "postalCode": "14754",
      "city": "TUMBA"
    },
    {
      "id": 5256,
      "postalCode": "14754",
      "city": "TUMBA"
    },
    {
      "id": 5257,
      "postalCode": "14754",
      "city": "TUMBA"
    },
    {
      "id": 5258,
      "postalCode": "14754",
      "city": "TUMBA"
    },
    {
      "id": 5259,
      "postalCode": "14754",
      "city": "TUMBA"
    },
    {
      "id": 5260,
      "postalCode": "14754",
      "city": "TUMBA"
    },
    {
      "id": 5261,
      "postalCode": "14754",
      "city": "TUMBA"
    },
    {
      "id": 5262,
      "postalCode": "14754",
      "city": "TUMBA"
    },
    {
      "id": 5263,
      "postalCode": "14754",
      "city": "TUMBA"
    },
    {
      "id": 5264,
      "postalCode": "14731",
      "city": "TUMBA"
    },
    {
      "id": 5265,
      "postalCode": "14731",
      "city": "TUMBA"
    },
    {
      "id": 5266,
      "postalCode": "14731",
      "city": "TUMBA"
    },
    {
      "id": 5267,
      "postalCode": "14731",
      "city": "TUMBA"
    },
    {
      "id": 5268,
      "postalCode": "14731",
      "city": "TUMBA"
    },
    {
      "id": 5269,
      "postalCode": "14732",
      "city": "TUMBA"
    },
    {
      "id": 5270,
      "postalCode": "14732",
      "city": "TUMBA"
    },
    {
      "id": 5271,
      "postalCode": "14732",
      "city": "TUMBA"
    },
    {
      "id": 5272,
      "postalCode": "14732",
      "city": "TUMBA"
    },
    {
      "id": 5275,
      "postalCode": "14734",
      "city": "TUMBA"
    },
    {
      "id": 5276,
      "postalCode": "14734",
      "city": "TUMBA"
    },
    {
      "id": 5277,
      "postalCode": "14734",
      "city": "TUMBA"
    },
    {
      "id": 5278,
      "postalCode": "14734",
      "city": "TUMBA"
    },
    {
      "id": 5279,
      "postalCode": "14734",
      "city": "TUMBA"
    },
    {
      "id": 5280,
      "postalCode": "14734",
      "city": "TUMBA"
    },
    {
      "id": 5281,
      "postalCode": "14734",
      "city": "TUMBA"
    },
    {
      "id": 5282,
      "postalCode": "14734",
      "city": "TUMBA"
    },
    {
      "id": 5283,
      "postalCode": "14734",
      "city": "TUMBA"
    },
    {
      "id": 5284,
      "postalCode": "14732",
      "city": "TUMBA"
    },
    {
      "id": 5285,
      "postalCode": "14732",
      "city": "TUMBA"
    },
    {
      "id": 5286,
      "postalCode": "14733",
      "city": "TUMBA"
    },
    {
      "id": 5287,
      "postalCode": "14732",
      "city": "TUMBA"
    },
    {
      "id": 5288,
      "postalCode": "14730",
      "city": "TUMBA"
    },
    {
      "id": 5289,
      "postalCode": "14730",
      "city": "TUMBA"
    },
    {
      "id": 5290,
      "postalCode": "14731",
      "city": "TUMBA"
    },
    {
      "id": 5291,
      "postalCode": "14731",
      "city": "TUMBA"
    },
    {
      "id": 5292,
      "postalCode": "14731",
      "city": "TUMBA"
    },
    {
      "id": 5293,
      "postalCode": "14731",
      "city": "TUMBA"
    },
    {
      "id": 5294,
      "postalCode": "14731",
      "city": "TUMBA"
    },
    {
      "id": 5296,
      "postalCode": "14731",
      "city": "TUMBA"
    },
    {
      "id": 5297,
      "postalCode": "14731",
      "city": "TUMBA"
    },
    {
      "id": 5298,
      "postalCode": "14731",
      "city": "TUMBA"
    },
    {
      "id": 5299,
      "postalCode": "14734",
      "city": "TUMBA"
    },
    {
      "id": 5300,
      "postalCode": "14733",
      "city": "TUMBA"
    },
    {
      "id": 5301,
      "postalCode": "14733",
      "city": "TUMBA"
    },
    {
      "id": 5302,
      "postalCode": "14733",
      "city": "TUMBA"
    },
    {
      "id": 5303,
      "postalCode": "14733",
      "city": "TUMBA"
    },
    {
      "id": 5304,
      "postalCode": "14733",
      "city": "TUMBA"
    },
    {
      "id": 5305,
      "postalCode": "14733",
      "city": "TUMBA"
    },
    {
      "id": 5306,
      "postalCode": "14733",
      "city": "TUMBA"
    },
    {
      "id": 5307,
      "postalCode": "14733",
      "city": "TUMBA"
    },
    {
      "id": 5308,
      "postalCode": "14733",
      "city": "TUMBA"
    },
    {
      "id": 5309,
      "postalCode": "14733",
      "city": "TUMBA"
    },
    {
      "id": 5310,
      "postalCode": "14733",
      "city": "TUMBA"
    },
    {
      "id": 5311,
      "postalCode": "14733",
      "city": "TUMBA"
    },
    {
      "id": 5312,
      "postalCode": "14733",
      "city": "TUMBA"
    },
    {
      "id": 5313,
      "postalCode": "14733",
      "city": "TUMBA"
    },
    {
      "id": 5314,
      "postalCode": "14733",
      "city": "TUMBA"
    },
    {
      "id": 5315,
      "postalCode": "14733",
      "city": "TUMBA"
    },
    {
      "id": 5316,
      "postalCode": "14733",
      "city": "TUMBA"
    },
    {
      "id": 5317,
      "postalCode": "14733",
      "city": "TUMBA"
    },
    {
      "id": 5318,
      "postalCode": "14733",
      "city": "TUMBA"
    },
    {
      "id": 5319,
      "postalCode": "14733",
      "city": "TUMBA"
    },
    {
      "id": 5320,
      "postalCode": "14733",
      "city": "TUMBA"
    },
    {
      "id": 5321,
      "postalCode": "14733",
      "city": "TUMBA"
    },
    {
      "id": 5322,
      "postalCode": "14732",
      "city": "TUMBA"
    },
    {
      "id": 5323,
      "postalCode": "14732",
      "city": "TUMBA"
    },
    {
      "id": 5324,
      "postalCode": "14732",
      "city": "TUMBA"
    },
    {
      "id": 5325,
      "postalCode": "14734",
      "city": "TUMBA"
    },
    {
      "id": 5327,
      "postalCode": "14734",
      "city": "TUMBA"
    },
    {
      "id": 5328,
      "postalCode": "14734",
      "city": "TUMBA"
    },
    {
      "id": 5329,
      "postalCode": "14733",
      "city": "TUMBA"
    },
    {
      "id": 5330,
      "postalCode": "14733",
      "city": "TUMBA"
    },
    {
      "id": 5331,
      "postalCode": "14733",
      "city": "TUMBA"
    },
    {
      "id": 5332,
      "postalCode": "14733",
      "city": "TUMBA"
    },
    {
      "id": 5333,
      "postalCode": "14733",
      "city": "TUMBA"
    },
    {
      "id": 5334,
      "postalCode": "14733",
      "city": "TUMBA"
    },
    {
      "id": 5335,
      "postalCode": "14733",
      "city": "TUMBA"
    },
    {
      "id": 5336,
      "postalCode": "14733",
      "city": "TUMBA"
    },
    {
      "id": 5337,
      "postalCode": "14733",
      "city": "TUMBA"
    },
    {
      "id": 5338,
      "postalCode": "14731",
      "city": "TUMBA"
    },
    {
      "id": 5339,
      "postalCode": "14731",
      "city": "TUMBA"
    },
    {
      "id": 5340,
      "postalCode": "14733",
      "city": "TUMBA"
    },
    {
      "id": 5341,
      "postalCode": "14731",
      "city": "TUMBA"
    },
    {
      "id": 5342,
      "postalCode": "14731",
      "city": "TUMBA"
    },
    {
      "id": 5343,
      "postalCode": "14731",
      "city": "TUMBA"
    },
    {
      "id": 5344,
      "postalCode": "14731",
      "city": "TUMBA"
    },
    {
      "id": 5345,
      "postalCode": "14731",
      "city": "TUMBA"
    },
    {
      "id": 5346,
      "postalCode": "14731",
      "city": "TUMBA"
    },
    {
      "id": 5347,
      "postalCode": "14731",
      "city": "TUMBA"
    },
    {
      "id": 5348,
      "postalCode": "14731",
      "city": "TUMBA"
    },
    {
      "id": 5349,
      "postalCode": "14731",
      "city": "TUMBA"
    },
    {
      "id": 5350,
      "postalCode": "14732",
      "city": "TUMBA"
    },
    {
      "id": 5351,
      "postalCode": "14733",
      "city": "TUMBA"
    },
    {
      "id": 5352,
      "postalCode": "14733",
      "city": "TUMBA"
    },
    {
      "id": 5353,
      "postalCode": "14733",
      "city": "TUMBA"
    },
    {
      "id": 5354,
      "postalCode": "14733",
      "city": "TUMBA"
    },
    {
      "id": 5355,
      "postalCode": "14733",
      "city": "TUMBA"
    },
    {
      "id": 5356,
      "postalCode": "14733",
      "city": "TUMBA"
    },
    {
      "id": 5357,
      "postalCode": "14733",
      "city": "TUMBA"
    },
    {
      "id": 5358,
      "postalCode": "14731",
      "city": "TUMBA"
    },
    {
      "id": 5359,
      "postalCode": "14731",
      "city": "TUMBA"
    },
    {
      "id": 5360,
      "postalCode": "14731",
      "city": "TUMBA"
    },
    {
      "id": 5361,
      "postalCode": "14731",
      "city": "TUMBA"
    },
    {
      "id": 5362,
      "postalCode": "14731",
      "city": "TUMBA"
    },
    {
      "id": 5363,
      "postalCode": "14730",
      "city": "TUMBA"
    },
    {
      "id": 5364,
      "postalCode": "14734",
      "city": "TUMBA"
    },
    {
      "id": 5365,
      "postalCode": "14731",
      "city": "TUMBA"
    },
    {
      "id": 5366,
      "postalCode": "14731",
      "city": "TUMBA"
    },
    {
      "id": 5367,
      "postalCode": "14731",
      "city": "TUMBA"
    },
    {
      "id": 5368,
      "postalCode": "14731",
      "city": "TUMBA"
    },
    {
      "id": 5369,
      "postalCode": "14732",
      "city": "TUMBA"
    },
    {
      "id": 5370,
      "postalCode": "14730",
      "city": "TUMBA"
    },
    {
      "id": 5371,
      "postalCode": "14731",
      "city": "TUMBA"
    },
    {
      "id": 5372,
      "postalCode": "14751",
      "city": "TUMBA"
    },
    {
      "id": 5373,
      "postalCode": "14733",
      "city": "TUMBA"
    },
    {
      "id": 5374,
      "postalCode": "14733",
      "city": "TUMBA"
    },
    {
      "id": 5375,
      "postalCode": "14733",
      "city": "TUMBA"
    },
    {
      "id": 5376,
      "postalCode": "14733",
      "city": "TUMBA"
    },
    {
      "id": 5378,
      "postalCode": "14733",
      "city": "TUMBA"
    },
    {
      "id": 5379,
      "postalCode": "14739",
      "city": "TUMBA"
    },
    {
      "id": 5380,
      "postalCode": "14753",
      "city": "TUMBA"
    },
    {
      "id": 5381,
      "postalCode": "14734",
      "city": "TUMBA"
    },
    {
      "id": 5382,
      "postalCode": "14734",
      "city": "TUMBA"
    },
    {
      "id": 5383,
      "postalCode": "14734",
      "city": "TUMBA"
    },
    {
      "id": 5384,
      "postalCode": "14734",
      "city": "TUMBA"
    },
    {
      "id": 5385,
      "postalCode": "14734",
      "city": "TUMBA"
    },
    {
      "id": 5386,
      "postalCode": "14734",
      "city": "TUMBA"
    },
    {
      "id": 5387,
      "postalCode": "14734",
      "city": "TUMBA"
    },
    {
      "id": 5388,
      "postalCode": "14734",
      "city": "TUMBA"
    },
    {
      "id": 5389,
      "postalCode": "14734",
      "city": "TUMBA"
    },
    {
      "id": 5390,
      "postalCode": "14734",
      "city": "TUMBA"
    },
    {
      "id": 5392,
      "postalCode": "14734",
      "city": "TUMBA"
    },
    {
      "id": 5393,
      "postalCode": "14734",
      "city": "TUMBA"
    },
    {
      "id": 5394,
      "postalCode": "14734",
      "city": "TUMBA"
    },
    {
      "id": 5395,
      "postalCode": "14734",
      "city": "TUMBA"
    },
    {
      "id": 5396,
      "postalCode": "14734",
      "city": "TUMBA"
    },
    {
      "id": 5397,
      "postalCode": "14734",
      "city": "TUMBA"
    },
    {
      "id": 5398,
      "postalCode": "14734",
      "city": "TUMBA"
    },
    {
      "id": 5399,
      "postalCode": "14734",
      "city": "TUMBA"
    },
    {
      "id": 5400,
      "postalCode": "14734",
      "city": "TUMBA"
    },
    {
      "id": 5401,
      "postalCode": "14734",
      "city": "TUMBA"
    },
    {
      "id": 5402,
      "postalCode": "14731",
      "city": "TUMBA"
    },
    {
      "id": 5403,
      "postalCode": "14731",
      "city": "TUMBA"
    },
    {
      "id": 5404,
      "postalCode": "14733",
      "city": "TUMBA"
    },
    {
      "id": 5405,
      "postalCode": "14733",
      "city": "TUMBA"
    },
    {
      "id": 5406,
      "postalCode": "14733",
      "city": "TUMBA"
    },
    {
      "id": 5407,
      "postalCode": "14733",
      "city": "TUMBA"
    },
    {
      "id": 5408,
      "postalCode": "14733",
      "city": "TUMBA"
    },
    {
      "id": 5409,
      "postalCode": "14733",
      "city": "TUMBA"
    },
    {
      "id": 5410,
      "postalCode": "14733",
      "city": "TUMBA"
    },
    {
      "id": 5411,
      "postalCode": "14733",
      "city": "TUMBA"
    },
    {
      "id": 5412,
      "postalCode": "14733",
      "city": "TUMBA"
    },
    {
      "id": 5413,
      "postalCode": "14730",
      "city": "TUMBA"
    },
    {
      "id": 5414,
      "postalCode": "14733",
      "city": "TUMBA"
    },
    {
      "id": 5415,
      "postalCode": "14733",
      "city": "TUMBA"
    },
    {
      "id": 5416,
      "postalCode": "14734",
      "city": "TUMBA"
    },
    {
      "id": 5417,
      "postalCode": "14754",
      "city": "TUMBA"
    },
    {
      "id": 5418,
      "postalCode": "14754",
      "city": "TUMBA"
    },
    {
      "id": 5419,
      "postalCode": "14754",
      "city": "TUMBA"
    },
    {
      "id": 5420,
      "postalCode": "14731",
      "city": "TUMBA"
    },
    {
      "id": 5421,
      "postalCode": "14731",
      "city": "TUMBA"
    },
    {
      "id": 5422,
      "postalCode": "14731",
      "city": "TUMBA"
    },
    {
      "id": 5423,
      "postalCode": "14731",
      "city": "TUMBA"
    },
    {
      "id": 5424,
      "postalCode": "14731",
      "city": "TUMBA"
    },
    {
      "id": 5425,
      "postalCode": "14752",
      "city": "TUMBA"
    },
    {
      "id": 5426,
      "postalCode": "14734",
      "city": "TUMBA"
    },
    {
      "id": 5427,
      "postalCode": "14731",
      "city": "TUMBA"
    },
    {
      "id": 5428,
      "postalCode": "14734",
      "city": "TUMBA"
    },
    {
      "id": 5429,
      "postalCode": "14734",
      "city": "TUMBA"
    },
    {
      "id": 5430,
      "postalCode": "14734",
      "city": "TUMBA"
    },
    {
      "id": 5431,
      "postalCode": "14734",
      "city": "TUMBA"
    },
    {
      "id": 5432,
      "postalCode": "14734",
      "city": "TUMBA"
    },
    {
      "id": 5433,
      "postalCode": "14734",
      "city": "TUMBA"
    },
    {
      "id": 5434,
      "postalCode": "14734",
      "city": "TUMBA"
    },
    {
      "id": 5435,
      "postalCode": "14734",
      "city": "TUMBA"
    },
    {
      "id": 5436,
      "postalCode": "14734",
      "city": "TUMBA"
    },
    {
      "id": 5437,
      "postalCode": "14732",
      "city": "TUMBA"
    },
    {
      "id": 5438,
      "postalCode": "14732",
      "city": "TUMBA"
    },
    {
      "id": 5439,
      "postalCode": "14732",
      "city": "TUMBA"
    },
    {
      "id": 5440,
      "postalCode": "14732",
      "city": "TUMBA"
    },
    {
      "id": 5441,
      "postalCode": "14732",
      "city": "TUMBA"
    },
    {
      "id": 5442,
      "postalCode": "14732",
      "city": "TUMBA"
    },
    {
      "id": 5443,
      "postalCode": "14732",
      "city": "TUMBA"
    },
    {
      "id": 5444,
      "postalCode": "14732",
      "city": "TUMBA"
    },
    {
      "id": 5445,
      "postalCode": "14732",
      "city": "TUMBA"
    },
    {
      "id": 5446,
      "postalCode": "14732",
      "city": "TUMBA"
    },
    {
      "id": 5447,
      "postalCode": "14755",
      "city": "TUMBA"
    },
    {
      "id": 5448,
      "postalCode": "14755",
      "city": "TUMBA"
    },
    {
      "id": 5449,
      "postalCode": "14731",
      "city": "TUMBA"
    },
    {
      "id": 5450,
      "postalCode": "14731",
      "city": "TUMBA"
    },
    {
      "id": 5451,
      "postalCode": "14734",
      "city": "TUMBA"
    },
    {
      "id": 5452,
      "postalCode": "14734",
      "city": "TUMBA"
    },
    {
      "id": 5453,
      "postalCode": "14734",
      "city": "TUMBA"
    },
    {
      "id": 5454,
      "postalCode": "14734",
      "city": "TUMBA"
    },
    {
      "id": 5455,
      "postalCode": "14734",
      "city": "TUMBA"
    },
    {
      "id": 5456,
      "postalCode": "14734",
      "city": "TUMBA"
    },
    {
      "id": 5457,
      "postalCode": "14734",
      "city": "TUMBA"
    },
    {
      "id": 5458,
      "postalCode": "14734",
      "city": "TUMBA"
    },
    {
      "id": 5459,
      "postalCode": "14734",
      "city": "TUMBA"
    },
    {
      "id": 5460,
      "postalCode": "14734",
      "city": "TUMBA"
    },
    {
      "id": 5461,
      "postalCode": "14734",
      "city": "TUMBA"
    },
    {
      "id": 5462,
      "postalCode": "14734",
      "city": "TUMBA"
    },
    {
      "id": 5463,
      "postalCode": "14734",
      "city": "TUMBA"
    },
    {
      "id": 5464,
      "postalCode": "14734",
      "city": "TUMBA"
    },
    {
      "id": 5465,
      "postalCode": "14734",
      "city": "TUMBA"
    },
    {
      "id": 5466,
      "postalCode": "14734",
      "city": "TUMBA"
    },
    {
      "id": 5467,
      "postalCode": "14734",
      "city": "TUMBA"
    },
    {
      "id": 5468,
      "postalCode": "14734",
      "city": "TUMBA"
    },
    {
      "id": 5469,
      "postalCode": "14734",
      "city": "TUMBA"
    },
    {
      "id": 5470,
      "postalCode": "14734",
      "city": "TUMBA"
    },
    {
      "id": 5471,
      "postalCode": "14734",
      "city": "TUMBA"
    },
    {
      "id": 5472,
      "postalCode": "14732",
      "city": "TUMBA"
    },
    {
      "id": 5473,
      "postalCode": "14732",
      "city": "TUMBA"
    },
    {
      "id": 5474,
      "postalCode": "14732",
      "city": "TUMBA"
    },
    {
      "id": 5476,
      "postalCode": "14732",
      "city": "TUMBA"
    },
    {
      "id": 5477,
      "postalCode": "14732",
      "city": "TUMBA"
    },
    {
      "id": 5478,
      "postalCode": "14732",
      "city": "TUMBA"
    },
    {
      "id": 5479,
      "postalCode": "14752",
      "city": "TUMBA"
    },
    {
      "id": 5480,
      "postalCode": "14752",
      "city": "TUMBA"
    },
    {
      "id": 5481,
      "postalCode": "14752",
      "city": "TUMBA"
    },
    {
      "id": 5482,
      "postalCode": "14752",
      "city": "TUMBA"
    },
    {
      "id": 5483,
      "postalCode": "14752",
      "city": "TUMBA"
    },
    {
      "id": 5484,
      "postalCode": "14752",
      "city": "TUMBA"
    },
    {
      "id": 5485,
      "postalCode": "14752",
      "city": "TUMBA"
    },
    {
      "id": 5486,
      "postalCode": "14752",
      "city": "TUMBA"
    },
    {
      "id": 5487,
      "postalCode": "14750",
      "city": "TUMBA"
    },
    {
      "id": 5488,
      "postalCode": "14750",
      "city": "TUMBA"
    },
    {
      "id": 5489,
      "postalCode": "14750",
      "city": "TUMBA"
    },
    {
      "id": 5490,
      "postalCode": "14733",
      "city": "TUMBA"
    },
    {
      "id": 5491,
      "postalCode": "14731",
      "city": "TUMBA"
    },
    {
      "id": 5492,
      "postalCode": "14731",
      "city": "TUMBA"
    },
    {
      "id": 5493,
      "postalCode": "14731",
      "city": "TUMBA"
    },
    {
      "id": 5494,
      "postalCode": "14734",
      "city": "TUMBA"
    },
    {
      "id": 5495,
      "postalCode": "14734",
      "city": "TUMBA"
    },
    {
      "id": 5496,
      "postalCode": "14734",
      "city": "TUMBA"
    },
    {
      "id": 5497,
      "postalCode": "14731",
      "city": "TUMBA"
    },
    {
      "id": 5498,
      "postalCode": "14731",
      "city": "TUMBA"
    },
    {
      "id": 5499,
      "postalCode": "14731",
      "city": "TUMBA"
    },
    {
      "id": 5500,
      "postalCode": "14731",
      "city": "TUMBA"
    },
    {
      "id": 5501,
      "postalCode": "14731",
      "city": "TUMBA"
    },
    {
      "id": 5502,
      "postalCode": "14731",
      "city": "TUMBA"
    },
    {
      "id": 5503,
      "postalCode": "14731",
      "city": "TUMBA"
    },
    {
      "id": 5504,
      "postalCode": "14731",
      "city": "TUMBA"
    },
    {
      "id": 5505,
      "postalCode": "14731",
      "city": "TUMBA"
    },
    {
      "id": 5506,
      "postalCode": "14731",
      "city": "TUMBA"
    },
    {
      "id": 5507,
      "postalCode": "14731",
      "city": "TUMBA"
    },
    {
      "id": 5508,
      "postalCode": "14731",
      "city": "TUMBA"
    },
    {
      "id": 5509,
      "postalCode": "14732",
      "city": "TUMBA"
    },
    {
      "id": 5510,
      "postalCode": "14732",
      "city": "TUMBA"
    },
    {
      "id": 5511,
      "postalCode": "14732",
      "city": "TUMBA"
    },
    {
      "id": 5512,
      "postalCode": "14732",
      "city": "TUMBA"
    },
    {
      "id": 5513,
      "postalCode": "14732",
      "city": "TUMBA"
    },
    {
      "id": 5514,
      "postalCode": "14732",
      "city": "TUMBA"
    },
    {
      "id": 5515,
      "postalCode": "14732",
      "city": "TUMBA"
    },
    {
      "id": 5516,
      "postalCode": "14732",
      "city": "TUMBA"
    },
    {
      "id": 5517,
      "postalCode": "14732",
      "city": "TUMBA"
    },
    {
      "id": 5518,
      "postalCode": "14732",
      "city": "TUMBA"
    },
    {
      "id": 5519,
      "postalCode": "14732",
      "city": "TUMBA"
    },
    {
      "id": 5520,
      "postalCode": "14732",
      "city": "TUMBA"
    },
    {
      "id": 5521,
      "postalCode": "14732",
      "city": "TUMBA"
    },
    {
      "id": 5522,
      "postalCode": "14732",
      "city": "TUMBA"
    },
    {
      "id": 5523,
      "postalCode": "14732",
      "city": "TUMBA"
    },
    {
      "id": 5524,
      "postalCode": "14732",
      "city": "TUMBA"
    },
    {
      "id": 5525,
      "postalCode": "14732",
      "city": "TUMBA"
    },
    {
      "id": 5526,
      "postalCode": "14732",
      "city": "TUMBA"
    },
    {
      "id": 5527,
      "postalCode": "14732",
      "city": "TUMBA"
    },
    {
      "id": 5528,
      "postalCode": "14732",
      "city": "TUMBA"
    },
    {
      "id": 5529,
      "postalCode": "14732",
      "city": "TUMBA"
    },
    {
      "id": 5530,
      "postalCode": "14732",
      "city": "TUMBA"
    },
    {
      "id": 5531,
      "postalCode": "14732",
      "city": "TUMBA"
    },
    {
      "id": 5532,
      "postalCode": "14732",
      "city": "TUMBA"
    },
    {
      "id": 5533,
      "postalCode": "14739",
      "city": "TUMBA"
    },
    {
      "id": 5534,
      "postalCode": "14739",
      "city": "TUMBA"
    },
    {
      "id": 5535,
      "postalCode": "14739",
      "city": "TUMBA"
    },
    {
      "id": 5537,
      "postalCode": "14739",
      "city": "TUMBA"
    },
    {
      "id": 5538,
      "postalCode": "14739",
      "city": "TUMBA"
    },
    {
      "id": 5539,
      "postalCode": "14739",
      "city": "TUMBA"
    },
    {
      "id": 5540,
      "postalCode": "14739",
      "city": "TUMBA"
    },
    {
      "id": 5541,
      "postalCode": "14739",
      "city": "TUMBA"
    },
    {
      "id": 5542,
      "postalCode": "14733",
      "city": "TUMBA"
    },
    {
      "id": 5543,
      "postalCode": "14733",
      "city": "TUMBA"
    },
    {
      "id": 5544,
      "postalCode": "14733",
      "city": "TUMBA"
    },
    {
      "id": 5545,
      "postalCode": "14733",
      "city": "TUMBA"
    },
    {
      "id": 5546,
      "postalCode": "14733",
      "city": "TUMBA"
    },
    {
      "id": 5547,
      "postalCode": "14733",
      "city": "TUMBA"
    },
    {
      "id": 5548,
      "postalCode": "14733",
      "city": "TUMBA"
    },
    {
      "id": 5549,
      "postalCode": "14733",
      "city": "TUMBA"
    },
    {
      "id": 5550,
      "postalCode": "14733",
      "city": "TUMBA"
    },
    {
      "id": 5551,
      "postalCode": "14733",
      "city": "TUMBA"
    },
    {
      "id": 5552,
      "postalCode": "14732",
      "city": "TUMBA"
    },
    {
      "id": 5553,
      "postalCode": "14732",
      "city": "TUMBA"
    },
    {
      "id": 5554,
      "postalCode": "14732",
      "city": "TUMBA"
    },
    {
      "id": 5555,
      "postalCode": "14732",
      "city": "TUMBA"
    },
    {
      "id": 5556,
      "postalCode": "14732",
      "city": "TUMBA"
    },
    {
      "id": 5557,
      "postalCode": "14732",
      "city": "TUMBA"
    },
    {
      "id": 5558,
      "postalCode": "14732",
      "city": "TUMBA"
    },
    {
      "id": 5559,
      "postalCode": "14732",
      "city": "TUMBA"
    },
    {
      "id": 5560,
      "postalCode": "14732",
      "city": "TUMBA"
    },
    {
      "id": 5561,
      "postalCode": "14732",
      "city": "TUMBA"
    },
    {
      "id": 5562,
      "postalCode": "14732",
      "city": "TUMBA"
    },
    {
      "id": 5563,
      "postalCode": "14732",
      "city": "TUMBA"
    },
    {
      "id": 5564,
      "postalCode": "14732",
      "city": "TUMBA"
    },
    {
      "id": 5565,
      "postalCode": "14732",
      "city": "TUMBA"
    },
    {
      "id": 5566,
      "postalCode": "14732",
      "city": "TUMBA"
    },
    {
      "id": 5567,
      "postalCode": "14732",
      "city": "TUMBA"
    },
    {
      "id": 5568,
      "postalCode": "14732",
      "city": "TUMBA"
    },
    {
      "id": 5569,
      "postalCode": "14732",
      "city": "TUMBA"
    },
    {
      "id": 5570,
      "postalCode": "14732",
      "city": "TUMBA"
    },
    {
      "id": 5571,
      "postalCode": "14732",
      "city": "TUMBA"
    },
    {
      "id": 5572,
      "postalCode": "14732",
      "city": "TUMBA"
    },
    {
      "id": 5573,
      "postalCode": "14732",
      "city": "TUMBA"
    },
    {
      "id": 5574,
      "postalCode": "14731",
      "city": "TUMBA"
    },
    {
      "id": 5575,
      "postalCode": "14732",
      "city": "TUMBA"
    },
    {
      "id": 5576,
      "postalCode": "14732",
      "city": "TUMBA"
    },
    {
      "id": 5577,
      "postalCode": "14732",
      "city": "TUMBA"
    },
    {
      "id": 5578,
      "postalCode": "14732",
      "city": "TUMBA"
    },
    {
      "id": 5579,
      "postalCode": "14732",
      "city": "TUMBA"
    },
    {
      "id": 5580,
      "postalCode": "14732",
      "city": "TUMBA"
    },
    {
      "id": 5581,
      "postalCode": "14732",
      "city": "TUMBA"
    },
    {
      "id": 5582,
      "postalCode": "14732",
      "city": "TUMBA"
    },
    {
      "id": 5583,
      "postalCode": "14732",
      "city": "TUMBA"
    },
    {
      "id": 5584,
      "postalCode": "14734",
      "city": "TUMBA"
    },
    {
      "id": 5585,
      "postalCode": "14734",
      "city": "TUMBA"
    },
    {
      "id": 5586,
      "postalCode": "14734",
      "city": "TUMBA"
    },
    {
      "id": 5587,
      "postalCode": "14734",
      "city": "TUMBA"
    },
    {
      "id": 5588,
      "postalCode": "14734",
      "city": "TUMBA"
    },
    {
      "id": 5589,
      "postalCode": "14734",
      "city": "TUMBA"
    },
    {
      "id": 5590,
      "postalCode": "14734",
      "city": "TUMBA"
    },
    {
      "id": 5591,
      "postalCode": "14734",
      "city": "TUMBA"
    },
    {
      "id": 5592,
      "postalCode": "14734",
      "city": "TUMBA"
    },
    {
      "id": 5593,
      "postalCode": "14734",
      "city": "TUMBA"
    },
    {
      "id": 5594,
      "postalCode": "14734",
      "city": "TUMBA"
    },
    {
      "id": 5595,
      "postalCode": "14734",
      "city": "TUMBA"
    },
    {
      "id": 5596,
      "postalCode": "14731",
      "city": "TUMBA"
    },
    {
      "id": 5597,
      "postalCode": "14731",
      "city": "TUMBA"
    },
    {
      "id": 5598,
      "postalCode": "14731",
      "city": "TUMBA"
    },
    {
      "id": 5599,
      "postalCode": "14731",
      "city": "TUMBA"
    },
    {
      "id": 5600,
      "postalCode": "14731",
      "city": "TUMBA"
    },
    {
      "id": 5601,
      "postalCode": "14732",
      "city": "TUMBA"
    },
    {
      "id": 5602,
      "postalCode": "14732",
      "city": "TUMBA"
    },
    {
      "id": 5603,
      "postalCode": "14732",
      "city": "TUMBA"
    },
    {
      "id": 5604,
      "postalCode": "14732",
      "city": "TUMBA"
    },
    {
      "id": 5605,
      "postalCode": "14732",
      "city": "TUMBA"
    },
    {
      "id": 5606,
      "postalCode": "14732",
      "city": "TUMBA"
    },
    {
      "id": 5607,
      "postalCode": "14732",
      "city": "TUMBA"
    },
    {
      "id": 5608,
      "postalCode": "14754",
      "city": "TUMBA"
    },
    {
      "id": 5609,
      "postalCode": "14754",
      "city": "TUMBA"
    },
    {
      "id": 5610,
      "postalCode": "14754",
      "city": "TUMBA"
    },
    {
      "id": 5611,
      "postalCode": "14754",
      "city": "TUMBA"
    },
    {
      "id": 5612,
      "postalCode": "14754",
      "city": "TUMBA"
    },
    {
      "id": 5613,
      "postalCode": "14754",
      "city": "TUMBA"
    },
    {
      "id": 5614,
      "postalCode": "14754",
      "city": "TUMBA"
    },
    {
      "id": 5615,
      "postalCode": "14752",
      "city": "TUMBA"
    },
    {
      "id": 5616,
      "postalCode": "14752",
      "city": "TUMBA"
    },
    {
      "id": 5618,
      "postalCode": "14731",
      "city": "TUMBA"
    },
    {
      "id": 5619,
      "postalCode": "14731",
      "city": "TUMBA"
    },
    {
      "id": 5620,
      "postalCode": "14731",
      "city": "TUMBA"
    },
    {
      "id": 5621,
      "postalCode": "14731",
      "city": "TUMBA"
    },
    {
      "id": 5622,
      "postalCode": "14731",
      "city": "TUMBA"
    },
    {
      "id": 5623,
      "postalCode": "14731",
      "city": "TUMBA"
    },
    {
      "id": 5624,
      "postalCode": "14731",
      "city": "TUMBA"
    },
    {
      "id": 5625,
      "postalCode": "14731",
      "city": "TUMBA"
    },
    {
      "id": 5626,
      "postalCode": "14731",
      "city": "TUMBA"
    },
    {
      "id": 5627,
      "postalCode": "14731",
      "city": "TUMBA"
    },
    {
      "id": 5628,
      "postalCode": "14731",
      "city": "TUMBA"
    },
    {
      "id": 5629,
      "postalCode": "14731",
      "city": "TUMBA"
    },
    {
      "id": 5630,
      "postalCode": "14731",
      "city": "TUMBA"
    },
    {
      "id": 5631,
      "postalCode": "14731",
      "city": "TUMBA"
    },
    {
      "id": 5632,
      "postalCode": "14733",
      "city": "TUMBA"
    },
    {
      "id": 5633,
      "postalCode": "14733",
      "city": "TUMBA"
    },
    {
      "id": 5634,
      "postalCode": "14733",
      "city": "TUMBA"
    },
    {
      "id": 5635,
      "postalCode": "14733",
      "city": "TUMBA"
    },
    {
      "id": 5637,
      "postalCode": "14733",
      "city": "TUMBA"
    },
    {
      "id": 5638,
      "postalCode": "14733",
      "city": "TUMBA"
    },
    {
      "id": 5639,
      "postalCode": "14731",
      "city": "TUMBA"
    },
    {
      "id": 5640,
      "postalCode": "14731",
      "city": "TUMBA"
    },
    {
      "id": 5641,
      "postalCode": "14731",
      "city": "TUMBA"
    },
    {
      "id": 5642,
      "postalCode": "14731",
      "city": "TUMBA"
    },
    {
      "id": 5643,
      "postalCode": "14731",
      "city": "TUMBA"
    },
    {
      "id": 5644,
      "postalCode": "14731",
      "city": "TUMBA"
    },
    {
      "id": 5645,
      "postalCode": "14731",
      "city": "TUMBA"
    },
    {
      "id": 5646,
      "postalCode": "14731",
      "city": "TUMBA"
    },
    {
      "id": 5647,
      "postalCode": "14731",
      "city": "TUMBA"
    },
    {
      "id": 5648,
      "postalCode": "14731",
      "city": "TUMBA"
    },
    {
      "id": 5649,
      "postalCode": "14731",
      "city": "TUMBA"
    },
    {
      "id": 5650,
      "postalCode": "14731",
      "city": "TUMBA"
    },
    {
      "id": 5651,
      "postalCode": "14731",
      "city": "TUMBA"
    },
    {
      "id": 5652,
      "postalCode": "14731",
      "city": "TUMBA"
    },
    {
      "id": 5653,
      "postalCode": "14731",
      "city": "TUMBA"
    },
    {
      "id": 5654,
      "postalCode": "14731",
      "city": "TUMBA"
    },
    {
      "id": 5655,
      "postalCode": "14731",
      "city": "TUMBA"
    },
    {
      "id": 5656,
      "postalCode": "14733",
      "city": "TUMBA"
    },
    {
      "id": 5657,
      "postalCode": "14733",
      "city": "TUMBA"
    },
    {
      "id": 5658,
      "postalCode": "14733",
      "city": "TUMBA"
    },
    {
      "id": 5659,
      "postalCode": "14733",
      "city": "TUMBA"
    },
    {
      "id": 5660,
      "postalCode": "14754",
      "city": "TUMBA"
    },
    {
      "id": 5661,
      "postalCode": "14734",
      "city": "TUMBA"
    },
    {
      "id": 5662,
      "postalCode": "14734",
      "city": "TUMBA"
    },
    {
      "id": 5663,
      "postalCode": "14734",
      "city": "TUMBA"
    },
    {
      "id": 5664,
      "postalCode": "14734",
      "city": "TUMBA"
    },
    {
      "id": 5665,
      "postalCode": "14730",
      "city": "TUMBA"
    },
    {
      "id": 5666,
      "postalCode": "14730",
      "city": "TUMBA"
    },
    {
      "id": 5667,
      "postalCode": "14730",
      "city": "TUMBA"
    },
    {
      "id": 5668,
      "postalCode": "14734",
      "city": "TUMBA"
    },
    {
      "id": 5669,
      "postalCode": "14734",
      "city": "TUMBA"
    },
    {
      "id": 5670,
      "postalCode": "14734",
      "city": "TUMBA"
    },
    {
      "id": 5671,
      "postalCode": "14734",
      "city": "TUMBA"
    },
    {
      "id": 5672,
      "postalCode": "14734",
      "city": "TUMBA"
    },
    {
      "id": 5673,
      "postalCode": "14734",
      "city": "TUMBA"
    },
    {
      "id": 5674,
      "postalCode": "14734",
      "city": "TUMBA"
    },
    {
      "id": 5675,
      "postalCode": "14734",
      "city": "TUMBA"
    },
    {
      "id": 5676,
      "postalCode": "14734",
      "city": "TUMBA"
    },
    {
      "id": 5677,
      "postalCode": "14734",
      "city": "TUMBA"
    },
    {
      "id": 5678,
      "postalCode": "14734",
      "city": "TUMBA"
    },
    {
      "id": 5679,
      "postalCode": "14734",
      "city": "TUMBA"
    },
    {
      "id": 5680,
      "postalCode": "14734",
      "city": "TUMBA"
    },
    {
      "id": 5681,
      "postalCode": "14734",
      "city": "TUMBA"
    },
    {
      "id": 5682,
      "postalCode": "14734",
      "city": "TUMBA"
    },
    {
      "id": 5683,
      "postalCode": "14734",
      "city": "TUMBA"
    },
    {
      "id": 5684,
      "postalCode": "14734",
      "city": "TUMBA"
    },
    {
      "id": 5685,
      "postalCode": "14734",
      "city": "TUMBA"
    },
    {
      "id": 5686,
      "postalCode": "14734",
      "city": "TUMBA"
    },
    {
      "id": 5687,
      "postalCode": "14731",
      "city": "TUMBA"
    },
    {
      "id": 5688,
      "postalCode": "14731",
      "city": "TUMBA"
    },
    {
      "id": 5689,
      "postalCode": "14731",
      "city": "TUMBA"
    },
    {
      "id": 5690,
      "postalCode": "14731",
      "city": "TUMBA"
    },
    {
      "id": 5691,
      "postalCode": "14731",
      "city": "TUMBA"
    },
    {
      "id": 5692,
      "postalCode": "14731",
      "city": "TUMBA"
    },
    {
      "id": 5693,
      "postalCode": "14731",
      "city": "TUMBA"
    },
    {
      "id": 5694,
      "postalCode": "14731",
      "city": "TUMBA"
    },
    {
      "id": 5695,
      "postalCode": "14731",
      "city": "TUMBA"
    },
    {
      "id": 5696,
      "postalCode": "14731",
      "city": "TUMBA"
    },
    {
      "id": 5697,
      "postalCode": "14731",
      "city": "TUMBA"
    },
    {
      "id": 5698,
      "postalCode": "14731",
      "city": "TUMBA"
    },
    {
      "id": 5699,
      "postalCode": "14731",
      "city": "TUMBA"
    },
    {
      "id": 5700,
      "postalCode": "14731",
      "city": "TUMBA"
    },
    {
      "id": 5701,
      "postalCode": "14731",
      "city": "TUMBA"
    },
    {
      "id": 5702,
      "postalCode": "14731",
      "city": "TUMBA"
    },
    {
      "id": 5703,
      "postalCode": "14731",
      "city": "TUMBA"
    },
    {
      "id": 5704,
      "postalCode": "14731",
      "city": "TUMBA"
    },
    {
      "id": 5705,
      "postalCode": "14731",
      "city": "TUMBA"
    },
    {
      "id": 5706,
      "postalCode": "14731",
      "city": "TUMBA"
    },
    {
      "id": 5708,
      "postalCode": "14752",
      "city": "TUMBA"
    },
    {
      "id": 5709,
      "postalCode": "14752",
      "city": "TUMBA"
    },
    {
      "id": 5710,
      "postalCode": "14731",
      "city": "TUMBA"
    },
    {
      "id": 5711,
      "postalCode": "14731",
      "city": "TUMBA"
    },
    {
      "id": 5712,
      "postalCode": "14731",
      "city": "TUMBA"
    },
    {
      "id": 5713,
      "postalCode": "14731",
      "city": "TUMBA"
    },
    {
      "id": 5714,
      "postalCode": "14731",
      "city": "TUMBA"
    },
    {
      "id": 5715,
      "postalCode": "14731",
      "city": "TUMBA"
    },
    {
      "id": 5716,
      "postalCode": "14731",
      "city": "TUMBA"
    },
    {
      "id": 5717,
      "postalCode": "14731",
      "city": "TUMBA"
    },
    {
      "id": 5718,
      "postalCode": "14731",
      "city": "TUMBA"
    },
    {
      "id": 5719,
      "postalCode": "14731",
      "city": "TUMBA"
    },
    {
      "id": 5720,
      "postalCode": "14752",
      "city": "TUMBA"
    },
    {
      "id": 5721,
      "postalCode": "14752",
      "city": "TUMBA"
    },
    {
      "id": 5722,
      "postalCode": "14752",
      "city": "TUMBA"
    },
    {
      "id": 5723,
      "postalCode": "14752",
      "city": "TUMBA"
    },
    {
      "id": 5724,
      "postalCode": "14752",
      "city": "TUMBA"
    },
    {
      "id": 5725,
      "postalCode": "14752",
      "city": "TUMBA"
    },
    {
      "id": 5726,
      "postalCode": "14752",
      "city": "TUMBA"
    },
    {
      "id": 5727,
      "postalCode": "14752",
      "city": "TUMBA"
    },
    {
      "id": 5728,
      "postalCode": "14752",
      "city": "TUMBA"
    },
    {
      "id": 5729,
      "postalCode": "14752",
      "city": "TUMBA"
    },
    {
      "id": 5730,
      "postalCode": "14752",
      "city": "TUMBA"
    },
    {
      "id": 5731,
      "postalCode": "14752",
      "city": "TUMBA"
    },
    {
      "id": 5732,
      "postalCode": "14752",
      "city": "TUMBA"
    },
    {
      "id": 5733,
      "postalCode": "14752",
      "city": "TUMBA"
    },
    {
      "id": 5734,
      "postalCode": "14752",
      "city": "TUMBA"
    },
    {
      "id": 5735,
      "postalCode": "14752",
      "city": "TUMBA"
    },
    {
      "id": 5736,
      "postalCode": "14752",
      "city": "TUMBA"
    },
    {
      "id": 5737,
      "postalCode": "14752",
      "city": "TUMBA"
    },
    {
      "id": 5738,
      "postalCode": "14752",
      "city": "TUMBA"
    },
    {
      "id": 5739,
      "postalCode": "14752",
      "city": "TUMBA"
    },
    {
      "id": 5740,
      "postalCode": "14751",
      "city": "TUMBA"
    },
    {
      "id": 5741,
      "postalCode": "14751",
      "city": "TUMBA"
    },
    {
      "id": 5742,
      "postalCode": "14751",
      "city": "TUMBA"
    },
    {
      "id": 5743,
      "postalCode": "14751",
      "city": "TUMBA"
    },
    {
      "id": 5744,
      "postalCode": "14751",
      "city": "TUMBA"
    },
    {
      "id": 5745,
      "postalCode": "14751",
      "city": "TUMBA"
    },
    {
      "id": 5746,
      "postalCode": "14751",
      "city": "TUMBA"
    },
    {
      "id": 5747,
      "postalCode": "14751",
      "city": "TUMBA"
    },
    {
      "id": 5748,
      "postalCode": "14751",
      "city": "TUMBA"
    },
    {
      "id": 5749,
      "postalCode": "14751",
      "city": "TUMBA"
    },
    {
      "id": 5750,
      "postalCode": "14751",
      "city": "TUMBA"
    },
    {
      "id": 5751,
      "postalCode": "14751",
      "city": "TUMBA"
    },
    {
      "id": 5752,
      "postalCode": "14751",
      "city": "TUMBA"
    },
    {
      "id": 5753,
      "postalCode": "14734",
      "city": "TUMBA"
    },
    {
      "id": 5754,
      "postalCode": "14734",
      "city": "TUMBA"
    },
    {
      "id": 5755,
      "postalCode": "14734",
      "city": "TUMBA"
    },
    {
      "id": 5756,
      "postalCode": "14734",
      "city": "TUMBA"
    },
    {
      "id": 5757,
      "postalCode": "14734",
      "city": "TUMBA"
    },
    {
      "id": 5758,
      "postalCode": "14734",
      "city": "TUMBA"
    },
    {
      "id": 5759,
      "postalCode": "14734",
      "city": "TUMBA"
    },
    {
      "id": 5760,
      "postalCode": "14734",
      "city": "TUMBA"
    },
    {
      "id": 5761,
      "postalCode": "14734",
      "city": "TUMBA"
    },
    {
      "id": 5762,
      "postalCode": "14734",
      "city": "TUMBA"
    },
    {
      "id": 5763,
      "postalCode": "14734",
      "city": "TUMBA"
    },
    {
      "id": 5764,
      "postalCode": "14734",
      "city": "TUMBA"
    },
    {
      "id": 5765,
      "postalCode": "14734",
      "city": "TUMBA"
    },
    {
      "id": 5766,
      "postalCode": "14734",
      "city": "TUMBA"
    },
    {
      "id": 5767,
      "postalCode": "14734",
      "city": "TUMBA"
    },
    {
      "id": 5768,
      "postalCode": "14733",
      "city": "TUMBA"
    },
    {
      "id": 5769,
      "postalCode": "14733",
      "city": "TUMBA"
    },
    {
      "id": 5770,
      "postalCode": "14733",
      "city": "TUMBA"
    },
    {
      "id": 5771,
      "postalCode": "14733",
      "city": "TUMBA"
    },
    {
      "id": 5772,
      "postalCode": "14733",
      "city": "TUMBA"
    },
    {
      "id": 5773,
      "postalCode": "14733",
      "city": "TUMBA"
    },
    {
      "id": 5774,
      "postalCode": "14733",
      "city": "TUMBA"
    },
    {
      "id": 5775,
      "postalCode": "14733",
      "city": "TUMBA"
    },
    {
      "id": 5776,
      "postalCode": "14733",
      "city": "TUMBA"
    },
    {
      "id": 5777,
      "postalCode": "14733",
      "city": "TUMBA"
    },
    {
      "id": 5778,
      "postalCode": "14733",
      "city": "TUMBA"
    },
    {
      "id": 5779,
      "postalCode": "14733",
      "city": "TUMBA"
    },
    {
      "id": 5780,
      "postalCode": "14733",
      "city": "TUMBA"
    },
    {
      "id": 5781,
      "postalCode": "14733",
      "city": "TUMBA"
    },
    {
      "id": 5782,
      "postalCode": "14733",
      "city": "TUMBA"
    },
    {
      "id": 5783,
      "postalCode": "14733",
      "city": "TUMBA"
    },
    {
      "id": 5784,
      "postalCode": "14763",
      "city": "UTTRAN"
    },
    {
      "id": 5785,
      "postalCode": "14763",
      "city": "UTTRAN"
    },
    {
      "id": 5786,
      "postalCode": "14763",
      "city": "UTTRAN"
    },
    {
      "id": 5787,
      "postalCode": "14763",
      "city": "UTTRAN"
    },
    {
      "id": 5788,
      "postalCode": "14763",
      "city": "UTTRAN"
    },
    {
      "id": 5789,
      "postalCode": "14763",
      "city": "UTTRAN"
    },
    {
      "id": 5790,
      "postalCode": "14763",
      "city": "UTTRAN"
    },
    {
      "id": 5791,
      "postalCode": "14763",
      "city": "UTTRAN"
    },
    {
      "id": 5792,
      "postalCode": "14763",
      "city": "UTTRAN"
    },
    {
      "id": 5793,
      "postalCode": "14763",
      "city": "UTTRAN"
    },
    {
      "id": 5794,
      "postalCode": "14762",
      "city": "UTTRAN"
    },
    {
      "id": 5795,
      "postalCode": "14762",
      "city": "UTTRAN"
    },
    {
      "id": 5796,
      "postalCode": "14762",
      "city": "UTTRAN"
    },
    {
      "id": 5797,
      "postalCode": "14762",
      "city": "UTTRAN"
    },
    {
      "id": 5798,
      "postalCode": "14762",
      "city": "UTTRAN"
    },
    {
      "id": 5799,
      "postalCode": "14762",
      "city": "UTTRAN"
    },
    {
      "id": 5800,
      "postalCode": "14763",
      "city": "UTTRAN"
    },
    {
      "id": 5801,
      "postalCode": "14763",
      "city": "UTTRAN"
    },
    {
      "id": 5802,
      "postalCode": "14763",
      "city": "UTTRAN"
    },
    {
      "id": 5803,
      "postalCode": "14763",
      "city": "UTTRAN"
    },
    {
      "id": 5804,
      "postalCode": "14763",
      "city": "UTTRAN"
    },
    {
      "id": 5805,
      "postalCode": "14763",
      "city": "UTTRAN"
    },
    {
      "id": 5806,
      "postalCode": "14763",
      "city": "UTTRAN"
    },
    {
      "id": 5807,
      "postalCode": "14763",
      "city": "UTTRAN"
    },
    {
      "id": 5808,
      "postalCode": "14763",
      "city": "UTTRAN"
    },
    {
      "id": 5809,
      "postalCode": "14763",
      "city": "UTTRAN"
    },
    {
      "id": 5810,
      "postalCode": "14763",
      "city": "UTTRAN"
    },
    {
      "id": 5811,
      "postalCode": "14763",
      "city": "UTTRAN"
    },
    {
      "id": 5812,
      "postalCode": "14763",
      "city": "UTTRAN"
    },
    {
      "id": 5813,
      "postalCode": "14763",
      "city": "UTTRAN"
    },
    {
      "id": 5814,
      "postalCode": "14763",
      "city": "UTTRAN"
    },
    {
      "id": 5815,
      "postalCode": "14763",
      "city": "UTTRAN"
    },
    {
      "id": 5816,
      "postalCode": "14763",
      "city": "UTTRAN"
    },
    {
      "id": 5817,
      "postalCode": "14763",
      "city": "UTTRAN"
    },
    {
      "id": 5818,
      "postalCode": "14763",
      "city": "UTTRAN"
    },
    {
      "id": 5819,
      "postalCode": "14763",
      "city": "UTTRAN"
    },
    {
      "id": 5820,
      "postalCode": "14763",
      "city": "UTTRAN"
    },
    {
      "id": 5821,
      "postalCode": "14763",
      "city": "UTTRAN"
    },
    {
      "id": 5822,
      "postalCode": "14763",
      "city": "UTTRAN"
    },
    {
      "id": 5823,
      "postalCode": "14763",
      "city": "UTTRAN"
    },
    {
      "id": 5824,
      "postalCode": "14763",
      "city": "UTTRAN"
    },
    {
      "id": 5825,
      "postalCode": "14763",
      "city": "UTTRAN"
    },
    {
      "id": 5826,
      "postalCode": "14763",
      "city": "UTTRAN"
    },
    {
      "id": 5827,
      "postalCode": "14763",
      "city": "UTTRAN"
    },
    {
      "id": 5828,
      "postalCode": "14763",
      "city": "UTTRAN"
    },
    {
      "id": 5829,
      "postalCode": "14763",
      "city": "UTTRAN"
    },
    {
      "id": 5830,
      "postalCode": "14763",
      "city": "UTTRAN"
    },
    {
      "id": 5831,
      "postalCode": "14763",
      "city": "UTTRAN"
    },
    {
      "id": 5832,
      "postalCode": "14763",
      "city": "UTTRAN"
    },
    {
      "id": 5833,
      "postalCode": "14763",
      "city": "UTTRAN"
    },
    {
      "id": 5834,
      "postalCode": "14763",
      "city": "UTTRAN"
    },
    {
      "id": 5835,
      "postalCode": "14763",
      "city": "UTTRAN"
    },
    {
      "id": 5836,
      "postalCode": "14763",
      "city": "UTTRAN"
    },
    {
      "id": 5838,
      "postalCode": "14760",
      "city": "UTTRAN"
    },
    {
      "id": 5839,
      "postalCode": "14760",
      "city": "UTTRAN"
    },
    {
      "id": 5840,
      "postalCode": "14760",
      "city": "UTTRAN"
    },
    {
      "id": 5842,
      "postalCode": "14763",
      "city": "UTTRAN"
    },
    {
      "id": 5843,
      "postalCode": "14763",
      "city": "UTTRAN"
    },
    {
      "id": 5844,
      "postalCode": "14763",
      "city": "UTTRAN"
    },
    {
      "id": 5845,
      "postalCode": "14763",
      "city": "UTTRAN"
    },
    {
      "id": 5846,
      "postalCode": "14763",
      "city": "UTTRAN"
    },
    {
      "id": 5847,
      "postalCode": "14763",
      "city": "UTTRAN"
    },
    {
      "id": 5848,
      "postalCode": "14763",
      "city": "UTTRAN"
    },
    {
      "id": 5849,
      "postalCode": "14763",
      "city": "UTTRAN"
    },
    {
      "id": 5850,
      "postalCode": "14763",
      "city": "UTTRAN"
    },
    {
      "id": 5851,
      "postalCode": "14763",
      "city": "UTTRAN"
    },
    {
      "id": 5852,
      "postalCode": "14763",
      "city": "UTTRAN"
    },
    {
      "id": 5853,
      "postalCode": "14763",
      "city": "UTTRAN"
    },
    {
      "id": 5854,
      "postalCode": "14763",
      "city": "UTTRAN"
    },
    {
      "id": 5855,
      "postalCode": "14763",
      "city": "UTTRAN"
    },
    {
      "id": 5856,
      "postalCode": "14763",
      "city": "UTTRAN"
    },
    {
      "id": 5857,
      "postalCode": "14763",
      "city": "UTTRAN"
    },
    {
      "id": 5858,
      "postalCode": "14763",
      "city": "UTTRAN"
    },
    {
      "id": 5859,
      "postalCode": "14763",
      "city": "UTTRAN"
    },
    {
      "id": 5860,
      "postalCode": "14763",
      "city": "UTTRAN"
    },
    {
      "id": 5861,
      "postalCode": "14763",
      "city": "UTTRAN"
    },
    {
      "id": 5862,
      "postalCode": "14763",
      "city": "UTTRAN"
    },
    {
      "id": 5863,
      "postalCode": "14763",
      "city": "UTTRAN"
    },
    {
      "id": 5864,
      "postalCode": "14763",
      "city": "UTTRAN"
    },
    {
      "id": 5865,
      "postalCode": "14763",
      "city": "UTTRAN"
    },
    {
      "id": 5866,
      "postalCode": "14763",
      "city": "UTTRAN"
    },
    {
      "id": 5867,
      "postalCode": "14763",
      "city": "UTTRAN"
    },
    {
      "id": 5868,
      "postalCode": "14763",
      "city": "UTTRAN"
    },
    {
      "id": 5869,
      "postalCode": "14763",
      "city": "UTTRAN"
    },
    {
      "id": 5870,
      "postalCode": "14763",
      "city": "UTTRAN"
    },
    {
      "id": 5871,
      "postalCode": "14763",
      "city": "UTTRAN"
    },
    {
      "id": 5872,
      "postalCode": "14763",
      "city": "UTTRAN"
    },
    {
      "id": 5873,
      "postalCode": "14763",
      "city": "UTTRAN"
    },
    {
      "id": 5874,
      "postalCode": "14763",
      "city": "UTTRAN"
    },
    {
      "id": 5875,
      "postalCode": "14763",
      "city": "UTTRAN"
    },
    {
      "id": 5876,
      "postalCode": "14763",
      "city": "UTTRAN"
    },
    {
      "id": 5877,
      "postalCode": "14763",
      "city": "UTTRAN"
    },
    {
      "id": 5878,
      "postalCode": "14763",
      "city": "UTTRAN"
    },
    {
      "id": 5879,
      "postalCode": "14763",
      "city": "UTTRAN"
    },
    {
      "id": 5880,
      "postalCode": "14763",
      "city": "UTTRAN"
    },
    {
      "id": 5881,
      "postalCode": "14763",
      "city": "UTTRAN"
    },
    {
      "id": 5882,
      "postalCode": "14763",
      "city": "UTTRAN"
    },
    {
      "id": 5883,
      "postalCode": "14763",
      "city": "UTTRAN"
    },
    {
      "id": 5884,
      "postalCode": "14763",
      "city": "UTTRAN"
    },
    {
      "id": 5886,
      "postalCode": "14763",
      "city": "UTTRAN"
    },
    {
      "id": 5887,
      "postalCode": "14763",
      "city": "UTTRAN"
    },
    {
      "id": 5888,
      "postalCode": "14763",
      "city": "UTTRAN"
    },
    {
      "id": 5889,
      "postalCode": "14763",
      "city": "UTTRAN"
    },
    {
      "id": 5890,
      "postalCode": "14763",
      "city": "UTTRAN"
    },
    {
      "id": 5891,
      "postalCode": "14763",
      "city": "UTTRAN"
    },
    {
      "id": 5892,
      "postalCode": "14763",
      "city": "UTTRAN"
    },
    {
      "id": 5893,
      "postalCode": "14763",
      "city": "UTTRAN"
    },
    {
      "id": 5894,
      "postalCode": "14763",
      "city": "UTTRAN"
    },
    {
      "id": 5895,
      "postalCode": "14763",
      "city": "UTTRAN"
    },
    {
      "id": 5896,
      "postalCode": "14763",
      "city": "UTTRAN"
    },
    {
      "id": 5897,
      "postalCode": "14763",
      "city": "UTTRAN"
    },
    {
      "id": 5898,
      "postalCode": "14763",
      "city": "UTTRAN"
    },
    {
      "id": 5899,
      "postalCode": "14763",
      "city": "UTTRAN"
    },
    {
      "id": 5900,
      "postalCode": "14763",
      "city": "UTTRAN"
    },
    {
      "id": 5901,
      "postalCode": "14763",
      "city": "UTTRAN"
    },
    {
      "id": 5902,
      "postalCode": "14763",
      "city": "UTTRAN"
    },
    {
      "id": 5903,
      "postalCode": "14763",
      "city": "UTTRAN"
    },
    {
      "id": 5904,
      "postalCode": "14763",
      "city": "UTTRAN"
    },
    {
      "id": 5905,
      "postalCode": "14763",
      "city": "UTTRAN"
    },
    {
      "id": 5906,
      "postalCode": "14763",
      "city": "UTTRAN"
    },
    {
      "id": 5907,
      "postalCode": "14763",
      "city": "UTTRAN"
    },
    {
      "id": 5908,
      "postalCode": "14763",
      "city": "UTTRAN"
    },
    {
      "id": 5909,
      "postalCode": "14763",
      "city": "UTTRAN"
    },
    {
      "id": 5910,
      "postalCode": "14763",
      "city": "UTTRAN"
    },
    {
      "id": 5911,
      "postalCode": "14763",
      "city": "UTTRAN"
    },
    {
      "id": 5912,
      "postalCode": "14763",
      "city": "UTTRAN"
    },
    {
      "id": 5913,
      "postalCode": "14763",
      "city": "UTTRAN"
    },
    {
      "id": 5914,
      "postalCode": "14763",
      "city": "UTTRAN"
    },
    {
      "id": 5915,
      "postalCode": "14763",
      "city": "UTTRAN"
    },
    {
      "id": 5916,
      "postalCode": "14763",
      "city": "UTTRAN"
    },
    {
      "id": 5917,
      "postalCode": "14763",
      "city": "UTTRAN"
    },
    {
      "id": 5918,
      "postalCode": "14763",
      "city": "UTTRAN"
    },
    {
      "id": 5919,
      "postalCode": "14763",
      "city": "UTTRAN"
    },
    {
      "id": 5920,
      "postalCode": "14763",
      "city": "UTTRAN"
    },
    {
      "id": 5921,
      "postalCode": "14763",
      "city": "UTTRAN"
    },
    {
      "id": 5923,
      "postalCode": "14763",
      "city": "UTTRAN"
    },
    {
      "id": 5924,
      "postalCode": "14763",
      "city": "UTTRAN"
    },
    {
      "id": 5925,
      "postalCode": "14763",
      "city": "UTTRAN"
    },
    {
      "id": 5926,
      "postalCode": "14763",
      "city": "UTTRAN"
    },
    {
      "id": 5927,
      "postalCode": "14763",
      "city": "UTTRAN"
    },
    {
      "id": 5928,
      "postalCode": "14763",
      "city": "UTTRAN"
    },
    {
      "id": 5929,
      "postalCode": "14763",
      "city": "UTTRAN"
    },
    {
      "id": 5930,
      "postalCode": "14763",
      "city": "UTTRAN"
    },
    {
      "id": 5931,
      "postalCode": "14763",
      "city": "UTTRAN"
    },
    {
      "id": 5932,
      "postalCode": "14763",
      "city": "UTTRAN"
    },
    {
      "id": 5933,
      "postalCode": "14763",
      "city": "UTTRAN"
    },
    {
      "id": 5934,
      "postalCode": "14763",
      "city": "UTTRAN"
    },
    {
      "id": 5935,
      "postalCode": "14763",
      "city": "UTTRAN"
    },
    {
      "id": 5936,
      "postalCode": "14763",
      "city": "UTTRAN"
    },
    {
      "id": 5937,
      "postalCode": "14763",
      "city": "UTTRAN"
    },
    {
      "id": 5938,
      "postalCode": "14763",
      "city": "UTTRAN"
    },
    {
      "id": 5939,
      "postalCode": "14638",
      "city": "TULLINGE"
    },
    {
      "id": 5940,
      "postalCode": "14731",
      "city": "TUMBA"
    },
    {
      "id": 5941,
      "postalCode": "14751",
      "city": "TUMBA"
    },
    {
      "id": 5942,
      "postalCode": "14557",
      "city": "NORSBORG"
    },
    {
      "id": 5943,
      "postalCode": "14742",
      "city": "TUMBA"
    },
    {
      "id": 5944,
      "postalCode": "14631",
      "city": "TULLINGE"
    },
    {
      "id": 5945,
      "postalCode": "14739",
      "city": "TUMBA"
    },
    {
      "id": 5946,
      "postalCode": "14792",
      "city": "GRDINGE"
    },
    {
      "id": 5947,
      "postalCode": "14750",
      "city": "TUMBA"
    },
    {
      "id": 5948,
      "postalCode": "14751",
      "city": "TUMBA"
    },
    {
      "id": 5949,
      "postalCode": "14741",
      "city": "TUMBA"
    },
    {
      "id": 5950,
      "postalCode": "14754",
      "city": "TUMBA"
    },
    {
      "id": 5951,
      "postalCode": "14752",
      "city": "TUMBA"
    },
    {
      "id": 5952,
      "postalCode": "14745",
      "city": "TUMBA"
    },
    {
      "id": 5953,
      "postalCode": "14740",
      "city": "TUMBA"
    },
    {
      "id": 5954,
      "postalCode": "14753",
      "city": "TUMBA"
    },
    {
      "id": 5955,
      "postalCode": "14742",
      "city": "TUMBA"
    },
    {
      "id": 5958,
      "postalCode": "14557",
      "city": "NORSBORG"
    },
    {
      "id": 5961,
      "postalCode": "14648",
      "city": "TULLINGE"
    },
    {
      "id": 5962,
      "postalCode": "14734",
      "city": "TUMBA"
    },
    {
      "id": 5963,
      "postalCode": "14734",
      "city": "TUMBA"
    },
    {
      "id": 5964,
      "postalCode": "14785",
      "city": "TUMBA"
    },
    {
      "id": 5965,
      "postalCode": "14785",
      "city": "TUMBA"
    },
    {
      "id": 5967,
      "postalCode": "14632",
      "city": "TULLINGE"
    },
    {
      "id": 5968,
      "postalCode": "14632",
      "city": "TULLINGE"
    },
    {
      "id": 5969,
      "postalCode": "14564",
      "city": "NORSBORG"
    },
    {
      "id": 5970,
      "postalCode": "14564",
      "city": "NORSBORG"
    },
    {
      "id": 5971,
      "postalCode": "14732",
      "city": "TUMBA"
    },
    {
      "id": 5972,
      "postalCode": "14563",
      "city": "NORSBORG"
    },
    {
      "id": 5973,
      "postalCode": "14730",
      "city": "TUMBA"
    },
    {
      "id": 5974,
      "postalCode": "14631",
      "city": "TULLINGE"
    },
    {
      "id": 5975,
      "postalCode": "14733",
      "city": "TUMBA"
    },
    {
      "id": 5976,
      "postalCode": "14732",
      "city": "TUMBA"
    },
    {
      "id": 5977,
      "postalCode": "14743",
      "city": "TUMBA"
    },
    {
      "id": 5978,
      "postalCode": "14743",
      "city": "TUMBA"
    },
    {
      "id": 5979,
      "postalCode": "14744",
      "city": "TUMBA"
    },
    {
      "id": 5980,
      "postalCode": "14740",
      "city": "TUMBA"
    },
    {
      "id": 5981,
      "postalCode": "14740",
      "city": "TUMBA"
    },
    {
      "id": 5982,
      "postalCode": "14750",
      "city": "TUMBA"
    },
    {
      "id": 5983,
      "postalCode": "14731",
      "city": "TUMBA"
    },
    {
      "id": 5984,
      "postalCode": "14731",
      "city": "TUMBA"
    },
    {
      "id": 5985,
      "postalCode": "14557",
      "city": "NORSBORG"
    },
    {
      "id": 5986,
      "postalCode": "14557",
      "city": "NORSBORG"
    },
    {
      "id": 5987,
      "postalCode": "14557",
      "city": "NORSBORG"
    },
    {
      "id": 5988,
      "postalCode": "14557",
      "city": "NORSBORG"
    },
    {
      "id": 5989,
      "postalCode": "14557",
      "city": "NORSBORG"
    },
    {
      "id": 5990,
      "postalCode": "14557",
      "city": "NORSBORG"
    },
    {
      "id": 5991,
      "postalCode": "14557",
      "city": "NORSBORG"
    },
    {
      "id": 5992,
      "postalCode": "14557",
      "city": "NORSBORG"
    },
    {
      "id": 5993,
      "postalCode": "14557",
      "city": "NORSBORG"
    },
    {
      "id": 5994,
      "postalCode": "14557",
      "city": "NORSBORG"
    },
    {
      "id": 5995,
      "postalCode": "14557",
      "city": "NORSBORG"
    },
    {
      "id": 5996,
      "postalCode": "14557",
      "city": "NORSBORG"
    },
    {
      "id": 5997,
      "postalCode": "14557",
      "city": "NORSBORG"
    },
    {
      "id": 5998,
      "postalCode": "14557",
      "city": "NORSBORG"
    },
    {
      "id": 5999,
      "postalCode": "14557",
      "city": "NORSBORG"
    },
    {
      "id": 6000,
      "postalCode": "14557",
      "city": "NORSBORG"
    },
    {
      "id": 6001,
      "postalCode": "14557",
      "city": "NORSBORG"
    },
    {
      "id": 6002,
      "postalCode": "14557",
      "city": "NORSBORG"
    },
    {
      "id": 6003,
      "postalCode": "14557",
      "city": "NORSBORG"
    },
    {
      "id": 6004,
      "postalCode": "14565",
      "city": "NORSBORG"
    },
    {
      "id": 6005,
      "postalCode": "14563",
      "city": "NORSBORG"
    },
    {
      "id": 6006,
      "postalCode": "14560",
      "city": "NORSBORG"
    },
    {
      "id": 6008,
      "postalCode": "14565",
      "city": "NORSBORG"
    },
    {
      "id": 6009,
      "postalCode": "14590",
      "city": "NORSBORG"
    },
    {
      "id": 6010,
      "postalCode": "14576",
      "city": "NORSBORG"
    },
    {
      "id": 6012,
      "postalCode": "14634",
      "city": "TULLINGE"
    },
    {
      "id": 6013,
      "postalCode": "14634",
      "city": "TULLINGE"
    },
    {
      "id": 6014,
      "postalCode": "14637",
      "city": "TULLINGE"
    },
    {
      "id": 6015,
      "postalCode": "14637",
      "city": "TULLINGE"
    },
    {
      "id": 6016,
      "postalCode": "14654",
      "city": "TULLINGE"
    },
    {
      "id": 6017,
      "postalCode": "14648",
      "city": "TULLINGE"
    },
    {
      "id": 6018,
      "postalCode": "14652",
      "city": "TULLINGE"
    },
    {
      "id": 6019,
      "postalCode": "14640",
      "city": "TULLINGE"
    },
    {
      "id": 6020,
      "postalCode": "14648",
      "city": "TULLINGE"
    },
    {
      "id": 6021,
      "postalCode": "14648",
      "city": "TULLINGE"
    },
    {
      "id": 6022,
      "postalCode": "14652",
      "city": "TULLINGE"
    },
    {
      "id": 6023,
      "postalCode": "14652",
      "city": "TULLINGE"
    },
    {
      "id": 6024,
      "postalCode": "14630",
      "city": "TULLINGE"
    },
    {
      "id": 6025,
      "postalCode": "14630",
      "city": "TULLINGE"
    },
    {
      "id": 6026,
      "postalCode": "14652",
      "city": "TULLINGE"
    },
    {
      "id": 6027,
      "postalCode": "14652",
      "city": "TULLINGE"
    },
    {
      "id": 6028,
      "postalCode": "14640",
      "city": "TULLINGE"
    },
    {
      "id": 6029,
      "postalCode": "14640",
      "city": "TULLINGE"
    },
    {
      "id": 6030,
      "postalCode": "14631",
      "city": "TULLINGE"
    },
    {
      "id": 6031,
      "postalCode": "14638",
      "city": "TULLINGE"
    },
    {
      "id": 6032,
      "postalCode": "14638",
      "city": "TULLINGE"
    },
    {
      "id": 6033,
      "postalCode": "14730",
      "city": "TUMBA"
    },
    {
      "id": 6034,
      "postalCode": "14638",
      "city": "TULLINGE"
    },
    {
      "id": 6035,
      "postalCode": "14631",
      "city": "TULLINGE"
    },
    {
      "id": 6036,
      "postalCode": "14631",
      "city": "TULLINGE"
    },
    {
      "id": 6037,
      "postalCode": "14638",
      "city": "TULLINGE"
    },
    {
      "id": 6038,
      "postalCode": "14638",
      "city": "TULLINGE"
    },
    {
      "id": 6039,
      "postalCode": "14638",
      "city": "TULLINGE"
    },
    {
      "id": 6040,
      "postalCode": "14744",
      "city": "TUMBA"
    },
    {
      "id": 6041,
      "postalCode": "14744",
      "city": "TUMBA"
    },
    {
      "id": 6042,
      "postalCode": "14741",
      "city": "TUMBA"
    },
    {
      "id": 6043,
      "postalCode": "14741",
      "city": "TUMBA"
    },
    {
      "id": 6044,
      "postalCode": "14741",
      "city": "TUMBA"
    },
    {
      "id": 6045,
      "postalCode": "14742",
      "city": "TUMBA"
    },
    {
      "id": 6046,
      "postalCode": "14743",
      "city": "TUMBA"
    },
    {
      "id": 6047,
      "postalCode": "14745",
      "city": "TUMBA"
    },
    {
      "id": 6048,
      "postalCode": "14745",
      "city": "TUMBA"
    },
    {
      "id": 6049,
      "postalCode": "14745",
      "city": "TUMBA"
    },
    {
      "id": 6051,
      "postalCode": "14785",
      "city": "TUMBA"
    },
    {
      "id": 6052,
      "postalCode": "14785",
      "city": "TUMBA"
    },
    {
      "id": 6053,
      "postalCode": "14740",
      "city": "TUMBA"
    },
    {
      "id": 6054,
      "postalCode": "14740",
      "city": "TUMBA"
    },
    {
      "id": 6055,
      "postalCode": "14740",
      "city": "TUMBA"
    },
    {
      "id": 6056,
      "postalCode": "14740",
      "city": "TUMBA"
    },
    {
      "id": 6057,
      "postalCode": "14742",
      "city": "TUMBA"
    },
    {
      "id": 6058,
      "postalCode": "14742",
      "city": "TUMBA"
    },
    {
      "id": 6059,
      "postalCode": "14740",
      "city": "TUMBA"
    },
    {
      "id": 6060,
      "postalCode": "14740",
      "city": "TUMBA"
    },
    {
      "id": 6061,
      "postalCode": "14740",
      "city": "TUMBA"
    },
    {
      "id": 6062,
      "postalCode": "14746",
      "city": "TUMBA"
    },
    {
      "id": 6063,
      "postalCode": "14740",
      "city": "TUMBA"
    },
    {
      "id": 6064,
      "postalCode": "14740",
      "city": "TUMBA"
    },
    {
      "id": 6066,
      "postalCode": "14742",
      "city": "TUMBA"
    },
    {
      "id": 6067,
      "postalCode": "14742",
      "city": "TUMBA"
    },
    {
      "id": 6068,
      "postalCode": "14742",
      "city": "TUMBA"
    },
    {
      "id": 6069,
      "postalCode": "14742",
      "city": "TUMBA"
    },
    {
      "id": 6070,
      "postalCode": "14744",
      "city": "TUMBA"
    },
    {
      "id": 6071,
      "postalCode": "14752",
      "city": "TUMBA"
    },
    {
      "id": 6072,
      "postalCode": "14733",
      "city": "TUMBA"
    },
    {
      "id": 6073,
      "postalCode": "14733",
      "city": "TUMBA"
    },
    {
      "id": 6075,
      "postalCode": "14733",
      "city": "TUMBA"
    },
    {
      "id": 6077,
      "postalCode": "14732",
      "city": "TUMBA"
    },
    {
      "id": 6078,
      "postalCode": "14734",
      "city": "TUMBA"
    },
    {
      "id": 6079,
      "postalCode": "14733",
      "city": "TUMBA"
    },
    {
      "id": 6080,
      "postalCode": "14734",
      "city": "TUMBA"
    },
    {
      "id": 6081,
      "postalCode": "14731",
      "city": "TUMBA"
    },
    {
      "id": 6082,
      "postalCode": "14733",
      "city": "TUMBA"
    },
    {
      "id": 6083,
      "postalCode": "14752",
      "city": "TUMBA"
    },
    {
      "id": 6084,
      "postalCode": "14752",
      "city": "TUMBA"
    },
    {
      "id": 6085,
      "postalCode": "14752",
      "city": "TUMBA"
    },
    {
      "id": 6086,
      "postalCode": "14752",
      "city": "TUMBA"
    },
    {
      "id": 6087,
      "postalCode": "14730",
      "city": "TUMBA"
    },
    {
      "id": 6088,
      "postalCode": "14730",
      "city": "TUMBA"
    },
    {
      "id": 6089,
      "postalCode": "14730",
      "city": "TUMBA"
    },
    {
      "id": 6090,
      "postalCode": "14730",
      "city": "TUMBA"
    },
    {
      "id": 6091,
      "postalCode": "14730",
      "city": "TUMBA"
    },
    {
      "id": 6092,
      "postalCode": "14730",
      "city": "TUMBA"
    },
    {
      "id": 6093,
      "postalCode": "14730",
      "city": "TUMBA"
    },
    {
      "id": 6094,
      "postalCode": "14730",
      "city": "TUMBA"
    },
    {
      "id": 6095,
      "postalCode": "14730",
      "city": "TUMBA"
    },
    {
      "id": 6096,
      "postalCode": "14730",
      "city": "TUMBA"
    },
    {
      "id": 6099,
      "postalCode": "14751",
      "city": "TUMBA"
    },
    {
      "id": 6100,
      "postalCode": "14751",
      "city": "TUMBA"
    },
    {
      "id": 6101,
      "postalCode": "14731",
      "city": "TUMBA"
    },
    {
      "id": 6102,
      "postalCode": "14731",
      "city": "TUMBA"
    },
    {
      "id": 6103,
      "postalCode": "14731",
      "city": "TUMBA"
    },
    {
      "id": 6104,
      "postalCode": "14734",
      "city": "TUMBA"
    },
    {
      "id": 6105,
      "postalCode": "14754",
      "city": "TUMBA"
    },
    {
      "id": 6106,
      "postalCode": "14731",
      "city": "TUMBA"
    },
    {
      "id": 6107,
      "postalCode": "14734",
      "city": "TUMBA"
    },
    {
      "id": 6108,
      "postalCode": "14732",
      "city": "TUMBA"
    },
    {
      "id": 6109,
      "postalCode": "14732",
      "city": "TUMBA"
    },
    {
      "id": 6110,
      "postalCode": "14732",
      "city": "TUMBA"
    },
    {
      "id": 6111,
      "postalCode": "14732",
      "city": "TUMBA"
    },
    {
      "id": 6112,
      "postalCode": "14732",
      "city": "TUMBA"
    },
    {
      "id": 6113,
      "postalCode": "14650",
      "city": "TULLINGE"
    },
    {
      "id": 6114,
      "postalCode": "14752",
      "city": "TUMBA"
    },
    {
      "id": 6115,
      "postalCode": "14750",
      "city": "TUMBA"
    },
    {
      "id": 6116,
      "postalCode": "14750",
      "city": "TUMBA"
    },
    {
      "id": 6117,
      "postalCode": "14750",
      "city": "TUMBA"
    },
    {
      "id": 6119,
      "postalCode": "14733",
      "city": "TUMBA"
    },
    {
      "id": 6120,
      "postalCode": "14733",
      "city": "TUMBA"
    },
    {
      "id": 6121,
      "postalCode": "14753",
      "city": "TUMBA"
    },
    {
      "id": 6122,
      "postalCode": "14753",
      "city": "TUMBA"
    },
    {
      "id": 6123,
      "postalCode": "14753",
      "city": "TUMBA"
    },
    {
      "id": 6124,
      "postalCode": "14734",
      "city": "TUMBA"
    },
    {
      "id": 6125,
      "postalCode": "14734",
      "city": "TUMBA"
    },
    {
      "id": 6126,
      "postalCode": "14734",
      "city": "TUMBA"
    },
    {
      "id": 6127,
      "postalCode": "14734",
      "city": "TUMBA"
    },
    {
      "id": 6128,
      "postalCode": "14731",
      "city": "TUMBA"
    },
    {
      "id": 6129,
      "postalCode": "14734",
      "city": "TUMBA"
    },
    {
      "id": 6130,
      "postalCode": "14732",
      "city": "TUMBA"
    },
    {
      "id": 6131,
      "postalCode": "14732",
      "city": "TUMBA"
    },
    {
      "id": 6132,
      "postalCode": "14732",
      "city": "TUMBA"
    },
    {
      "id": 6133,
      "postalCode": "14732",
      "city": "TUMBA"
    },
    {
      "id": 6134,
      "postalCode": "14732",
      "city": "TUMBA"
    },
    {
      "id": 6135,
      "postalCode": "14734",
      "city": "TUMBA"
    },
    {
      "id": 6136,
      "postalCode": "14734",
      "city": "TUMBA"
    },
    {
      "id": 6137,
      "postalCode": "14750",
      "city": "TUMBA"
    },
    {
      "id": 6138,
      "postalCode": "14750",
      "city": "TUMBA"
    },
    {
      "id": 6139,
      "postalCode": "14750",
      "city": "TUMBA"
    },
    {
      "id": 6140,
      "postalCode": "14754",
      "city": "TUMBA"
    },
    {
      "id": 6141,
      "postalCode": "14754",
      "city": "TUMBA"
    },
    {
      "id": 6142,
      "postalCode": "14754",
      "city": "TUMBA"
    },
    {
      "id": 6143,
      "postalCode": "14754",
      "city": "TUMBA"
    },
    {
      "id": 6144,
      "postalCode": "14754",
      "city": "TUMBA"
    },
    {
      "id": 6145,
      "postalCode": "14754",
      "city": "TUMBA"
    },
    {
      "id": 6146,
      "postalCode": "14754",
      "city": "TUMBA"
    },
    {
      "id": 6148,
      "postalCode": "14754",
      "city": "TUMBA"
    },
    {
      "id": 6150,
      "postalCode": "14733",
      "city": "TUMBA"
    },
    {
      "id": 6151,
      "postalCode": "14733",
      "city": "TUMBA"
    },
    {
      "id": 6153,
      "postalCode": "14733",
      "city": "TUMBA"
    },
    {
      "id": 6154,
      "postalCode": "14754",
      "city": "TUMBA"
    },
    {
      "id": 6155,
      "postalCode": "14754",
      "city": "TUMBA"
    },
    {
      "id": 6156,
      "postalCode": "14750",
      "city": "TUMBA"
    },
    {
      "id": 6157,
      "postalCode": "14730",
      "city": "TUMBA"
    },
    {
      "id": 6158,
      "postalCode": "14730",
      "city": "TUMBA"
    },
    {
      "id": 6159,
      "postalCode": "14730",
      "city": "TUMBA"
    },
    {
      "id": 6160,
      "postalCode": "14730",
      "city": "TUMBA"
    },
    {
      "id": 6161,
      "postalCode": "14730",
      "city": "TUMBA"
    },
    {
      "id": 6162,
      "postalCode": "14734",
      "city": "TUMBA"
    },
    {
      "id": 6163,
      "postalCode": "14732",
      "city": "TUMBA"
    },
    {
      "id": 6164,
      "postalCode": "14732",
      "city": "TUMBA"
    },
    {
      "id": 6165,
      "postalCode": "14752",
      "city": "TUMBA"
    },
    {
      "id": 6166,
      "postalCode": "14752",
      "city": "TUMBA"
    },
    {
      "id": 6167,
      "postalCode": "14752",
      "city": "TUMBA"
    },
    {
      "id": 6168,
      "postalCode": "14752",
      "city": "TUMBA"
    },
    {
      "id": 6169,
      "postalCode": "14752",
      "city": "TUMBA"
    },
    {
      "id": 6171,
      "postalCode": "14752",
      "city": "TUMBA"
    },
    {
      "id": 6172,
      "postalCode": "14752",
      "city": "TUMBA"
    },
    {
      "id": 6173,
      "postalCode": "14752",
      "city": "TUMBA"
    },
    {
      "id": 6174,
      "postalCode": "14752",
      "city": "TUMBA"
    },
    {
      "id": 6175,
      "postalCode": "14752",
      "city": "TUMBA"
    },
    {
      "id": 6176,
      "postalCode": "14752",
      "city": "TUMBA"
    },
    {
      "id": 6177,
      "postalCode": "14752",
      "city": "TUMBA"
    },
    {
      "id": 6178,
      "postalCode": "14752",
      "city": "TUMBA"
    },
    {
      "id": 6179,
      "postalCode": "14752",
      "city": "TUMBA"
    },
    {
      "id": 6180,
      "postalCode": "14752",
      "city": "TUMBA"
    },
    {
      "id": 6181,
      "postalCode": "14752",
      "city": "TUMBA"
    },
    {
      "id": 6182,
      "postalCode": "14752",
      "city": "TUMBA"
    },
    {
      "id": 6183,
      "postalCode": "14752",
      "city": "TUMBA"
    },
    {
      "id": 6184,
      "postalCode": "14752",
      "city": "TUMBA"
    },
    {
      "id": 6185,
      "postalCode": "14752",
      "city": "TUMBA"
    },
    {
      "id": 6186,
      "postalCode": "14752",
      "city": "TUMBA"
    },
    {
      "id": 6187,
      "postalCode": "14752",
      "city": "TUMBA"
    },
    {
      "id": 6188,
      "postalCode": "14752",
      "city": "TUMBA"
    },
    {
      "id": 6189,
      "postalCode": "14752",
      "city": "TUMBA"
    },
    {
      "id": 6190,
      "postalCode": "14752",
      "city": "TUMBA"
    },
    {
      "id": 6191,
      "postalCode": "14730",
      "city": "TUMBA"
    },
    {
      "id": 6192,
      "postalCode": "14734",
      "city": "TUMBA"
    },
    {
      "id": 6193,
      "postalCode": "14733",
      "city": "TUMBA"
    },
    {
      "id": 6194,
      "postalCode": "14733",
      "city": "TUMBA"
    },
    {
      "id": 6195,
      "postalCode": "14763",
      "city": "UTTRAN"
    },
    {
      "id": 6196,
      "postalCode": "14763",
      "city": "UTTRAN"
    },
    {
      "id": 6197,
      "postalCode": "14763",
      "city": "UTTRAN"
    },
    {
      "id": 6198,
      "postalCode": "14763",
      "city": "UTTRAN"
    },
    {
      "id": 6199,
      "postalCode": "14760",
      "city": "UTTRAN"
    },
    {
      "id": 6200,
      "postalCode": "14645",
      "city": "TULLINGE"
    },
    {
      "id": 6201,
      "postalCode": "14568",
      "city": "NORSBORG"
    },
    {
      "id": 6202,
      "postalCode": "14568",
      "city": "NORSBORG"
    },
    {
      "id": 6203,
      "postalCode": "14568",
      "city": "NORSBORG"
    },
    {
      "id": 6204,
      "postalCode": "14568",
      "city": "NORSBORG"
    },
    {
      "id": 6205,
      "postalCode": "14731",
      "city": "TUMBA"
    },
    {
      "id": 6206,
      "postalCode": "14637",
      "city": "TULLINGE"
    },
    {
      "id": 6207,
      "postalCode": "14637",
      "city": "TULLINGE"
    },
    {
      "id": 6208,
      "postalCode": "14770",
      "city": "GRDINGE"
    },
    {
      "id": 6209,
      "postalCode": "14652",
      "city": "TULLINGE"
    },
    {
      "id": 6210,
      "postalCode": "14792",
      "city": "GRDINGE"
    },
    {
      "id": 6212,
      "postalCode": "14791",
      "city": "GRDINGE"
    },
    {
      "id": 6213,
      "postalCode": "14559",
      "city": "NORSBORG"
    },
    {
      "id": 6214,
      "postalCode": "14559",
      "city": "NORSBORG"
    },
    {
      "id": 6215,
      "postalCode": "14559",
      "city": "NORSBORG"
    },
    {
      "id": 6216,
      "postalCode": "14559",
      "city": "NORSBORG"
    },
    {
      "id": 6217,
      "postalCode": "14559",
      "city": "NORSBORG"
    },
    {
      "id": 6218,
      "postalCode": "14559",
      "city": "NORSBORG"
    },
    {
      "id": 6219,
      "postalCode": "14559",
      "city": "NORSBORG"
    },
    {
      "id": 6220,
      "postalCode": "14559",
      "city": "NORSBORG"
    },
    {
      "id": 6221,
      "postalCode": "14559",
      "city": "NORSBORG"
    },
    {
      "id": 6222,
      "postalCode": "14559",
      "city": "NORSBORG"
    },
    {
      "id": 6223,
      "postalCode": "14559",
      "city": "NORSBORG"
    },
    {
      "id": 6224,
      "postalCode": "14559",
      "city": "NORSBORG"
    },
    {
      "id": 6225,
      "postalCode": "14559",
      "city": "NORSBORG"
    },
    {
      "id": 6226,
      "postalCode": "14559",
      "city": "NORSBORG"
    },
    {
      "id": 6227,
      "postalCode": "14559",
      "city": "NORSBORG"
    },
    {
      "id": 6228,
      "postalCode": "14559",
      "city": "NORSBORG"
    },
    {
      "id": 6229,
      "postalCode": "14559",
      "city": "NORSBORG"
    },
    {
      "id": 6230,
      "postalCode": "14559",
      "city": "NORSBORG"
    },
    {
      "id": 6231,
      "postalCode": "14559",
      "city": "NORSBORG"
    },
    {
      "id": 6232,
      "postalCode": "14559",
      "city": "NORSBORG"
    },
    {
      "id": 6233,
      "postalCode": "14557",
      "city": "NORSBORG"
    },
    {
      "id": 6234,
      "postalCode": "14557",
      "city": "NORSBORG"
    },
    {
      "id": 6235,
      "postalCode": "14558",
      "city": "NORSBORG"
    },
    {
      "id": 6236,
      "postalCode": "14558",
      "city": "NORSBORG"
    },
    {
      "id": 6237,
      "postalCode": "14558",
      "city": "NORSBORG"
    },
    {
      "id": 6238,
      "postalCode": "14558",
      "city": "NORSBORG"
    },
    {
      "id": 6239,
      "postalCode": "14558",
      "city": "NORSBORG"
    },
    {
      "id": 6240,
      "postalCode": "14558",
      "city": "NORSBORG"
    },
    {
      "id": 6241,
      "postalCode": "14558",
      "city": "NORSBORG"
    },
    {
      "id": 6242,
      "postalCode": "14558",
      "city": "NORSBORG"
    },
    {
      "id": 6243,
      "postalCode": "14558",
      "city": "NORSBORG"
    },
    {
      "id": 6244,
      "postalCode": "14558",
      "city": "NORSBORG"
    },
    {
      "id": 6245,
      "postalCode": "14558",
      "city": "NORSBORG"
    },
    {
      "id": 6246,
      "postalCode": "14558",
      "city": "NORSBORG"
    },
    {
      "id": 6247,
      "postalCode": "14558",
      "city": "NORSBORG"
    },
    {
      "id": 6248,
      "postalCode": "14558",
      "city": "NORSBORG"
    },
    {
      "id": 6249,
      "postalCode": "14558",
      "city": "NORSBORG"
    },
    {
      "id": 6250,
      "postalCode": "14558",
      "city": "NORSBORG"
    },
    {
      "id": 6252,
      "postalCode": "14558",
      "city": "NORSBORG"
    },
    {
      "id": 6253,
      "postalCode": "14558",
      "city": "NORSBORG"
    },
    {
      "id": 6254,
      "postalCode": "14558",
      "city": "NORSBORG"
    },
    {
      "id": 6255,
      "postalCode": "14558",
      "city": "NORSBORG"
    },
    {
      "id": 6256,
      "postalCode": "14558",
      "city": "NORSBORG"
    },
    {
      "id": 6257,
      "postalCode": "14558",
      "city": "NORSBORG"
    },
    {
      "id": 6258,
      "postalCode": "14558",
      "city": "NORSBORG"
    },
    {
      "id": 6259,
      "postalCode": "14559",
      "city": "NORSBORG"
    },
    {
      "id": 6260,
      "postalCode": "14559",
      "city": "NORSBORG"
    },
    {
      "id": 6261,
      "postalCode": "14560",
      "city": "NORSBORG"
    },
    {
      "id": 6281,
      "postalCode": "14550",
      "city": "NORSBORG"
    },
    {
      "id": 6282,
      "postalCode": "14550",
      "city": "NORSBORG"
    },
    {
      "id": 6283,
      "postalCode": "14792",
      "city": "GRDINGE"
    },
    {
      "id": 6284,
      "postalCode": "14791",
      "city": "GRDINGE"
    },
    {
      "id": 6285,
      "postalCode": "14574",
      "city": "NORSBORG"
    },
    {
      "id": 6287,
      "postalCode": "14574",
      "city": "NORSBORG"
    },
    {
      "id": 6288,
      "postalCode": "14590",
      "city": "NORSBORG"
    },
    {
      "id": 6289,
      "postalCode": "14637",
      "city": "TULLINGE"
    },
    {
      "id": 6290,
      "postalCode": "14637",
      "city": "TULLINGE"
    },
    {
      "id": 6291,
      "postalCode": "14637",
      "city": "TULLINGE"
    },
    {
      "id": 6292,
      "postalCode": "14637",
      "city": "TULLINGE"
    },
    {
      "id": 6293,
      "postalCode": "14637",
      "city": "TULLINGE"
    },
    {
      "id": 6294,
      "postalCode": "14637",
      "city": "TULLINGE"
    },
    {
      "id": 6295,
      "postalCode": "14637",
      "city": "TULLINGE"
    }
  ]